{
	"type" : "FeatureCollection",
	"name" : "14101_yokohama-shi_tsurumi-ku_shelter",
	"features" : [
		{
			"type" : "Feature",
			"geometry" : {
				"type" : "Point",
				"coordinates" : [ 139.6548217649, 35.5161784544 ]
			},
			"properties" : {
				"高さ" : "10.9",
				"行政区域" : "14101",
				"名称" : "旭小学校",
				"住所" : "神奈川県横浜市鶴見区北寺尾4-25-1",
				"施設の種類" : "避難所",
				"収容人数" : null,
				"施設規模" : "5274",
				"対象とする災害の分類" : "地震災害",
				"レベル" : "1"
			}
		},
		{
			"type" : "Feature",
			"geometry" : {
				"type" : "Point",
				"coordinates" : [ 139.6751528631, 35.5228714275 ]
			},
			"properties" : {
				"高さ" : "10.8",
				"行政区域" : "14101",
				"名称" : "下末吉小学校",
				"住所" : "神奈川県横浜市鶴見区下末吉2-25-6",
				"施設の種類" : "避難所",
				"収容人数" : null,
				"施設規模" : "4029",
				"対象とする災害の分類" : "指定なし",
				"レベル" : "1"
			}
		},
		{
			"type" : "Feature",
			"geometry" : {
				"type" : "Point",
				"coordinates" : [ 139.6814344366, 35.5001539351 ]
			},
			"properties" : {
				"高さ" : "15",
				"行政区域" : "14101",
				"名称" : "下野谷小学校",
				"住所" : "神奈川県横浜市鶴見区下野谷町2-49",
				"施設の種類" : "避難所",
				"収容人数" : null,
				"施設規模" : "5520",
				"対象とする災害の分類" : "指定なし",
				"レベル" : "1"
			}
		},
		{
			"type" : "Feature",
			"geometry" : {
				"type" : "Point",
				"coordinates" : [ 139.6996074896, 35.5018946031 ]
			},
			"properties" : {
				"高さ" : "13",
				"行政区域" : "14101",
				"名称" : "寛政中学校",
				"住所" : "神奈川県横浜市鶴見区寛政町23-1",
				"施設の種類" : "避難所",
				"収容人数" : null,
				"施設規模" : "6841",
				"対象とする災害の分類" : "指定なし",
				"レベル" : "1"
			}
		},
		{
			"type" : "Feature",
			"geometry" : {
				"type" : "Point",
				"coordinates" : [ 139.6618496107, 35.4935144628 ]
			},
			"properties" : {
				"高さ" : "14.8",
				"行政区域" : "14101",
				"名称" : "岸谷小学校",
				"住所" : "神奈川県横浜市鶴見区岸谷1-6-1",
				"施設の種類" : "避難所",
				"収容人数" : null,
				"施設規模" : "4795",
				"対象とする災害の分類" : "地震災害",
				"レベル" : "1"
			}
		},
		{
			"type" : "Feature",
			"geometry" : {
				"type" : "Point",
				"coordinates" : [ 139.6546882279, 35.5289015302 ]
			},
			"properties" : {
				"高さ" : "14.4",
				"行政区域" : "14101",
				"名称" : "駒岡小学校",
				"住所" : "神奈川県横浜市鶴見区駒岡3-14-1",
				"施設の種類" : "避難所",
				"収容人数" : null,
				"施設規模" : "5477",
				"対象とする災害の分類" : "指定なし",
				"レベル" : "1"
			}
		},
		{
			"type" : "Feature",
			"geometry" : {
				"type" : "Point",
				"coordinates" : [ 139.6826808774, 35.5227884164 ]
			},
			"properties" : {
				"高さ" : "14.7",
				"行政区域" : "14101",
				"名称" : "市場小学校",
				"住所" : "神奈川県横浜市鶴見区克宮1-13-1",
				"施設の種類" : "避難所",
				"収容人数" : null,
				"施設規模" : "6772",
				"対象とする災害の分類" : "指定なし",
				"レベル" : "1"
			}
		},
		{
			"type" : "Feature",
			"geometry" : {
				"type" : "Point",
				"coordinates" : [ 139.6832918192, 35.5152334183 ]
			},
			"properties" : {
				"高さ" : "15",
				"行政区域" : "14101",
				"名称" : "市場中学校",
				"住所" : "神奈川県横浜市鶴見区市場下町1-1",
				"施設の種類" : "避難所",
				"収容人数" : null,
				"施設規模" : "5787",
				"対象とする災害の分類" : "指定なし",
				"レベル" : "1"
			}
		},
		{
			"type" : "Feature",
			"geometry" : {
				"type" : "Point",
				"coordinates" : [ 139.6507987601, 35.5169764578 ]
			},
			"properties" : {
				"高さ" : "14.2",
				"行政区域" : "14101",
				"名称" : "獅子ヶ谷小学校",
				"住所" : "神奈川県横浜市鶴見区獅子ヶ谷1-19-1",
				"施設の種類" : "避難所",
				"収容人数" : null,
				"施設規模" : "5105",
				"対象とする災害の分類" : "指定なし",
				"レベル" : "1"
			}
		},
		{
			"type" : "Feature",
			"geometry" : {
				"type" : "Point",
				"coordinates" : [ 139.6579046843, 35.5042904593 ]
			},
			"properties" : {
				"高さ" : "10.8",
				"行政区域" : "14101",
				"名称" : "寺尾小学校",
				"住所" : "神奈川県横浜市鶴見区東寺尾5-19-1",
				"施設の種類" : "避難所",
				"収容人数" : null,
				"施設規模" : "7749",
				"対象とする災害の分類" : "指定なし",
				"レベル" : "1"
			}
		},
		{
			"type" : "Feature",
			"geometry" : {
				"type" : "Point",
				"coordinates" : [ 139.6591548049, 35.5200114482 ]
			},
			"properties" : {
				"高さ" : "7.4",
				"行政区域" : "14101",
				"名称" : "寺尾中学校",
				"住所" : "神奈川県横浜市鶴見区北寺尾3-13-1",
				"施設の種類" : "避難所",
				"収容人数" : null,
				"施設規模" : "9018",
				"対象とする災害の分類" : "地震災害",
				"レベル" : "1"
			}
		},
		{
			"type" : "Feature",
			"geometry" : {
				"type" : "Point",
				"coordinates" : [ 139.6877041578, 35.4987919438 ]
			},
			"properties" : {
				"高さ" : "11.4",
				"行政区域" : "14101",
				"名称" : "汐入小学校",
				"住所" : "神奈川県横浜市鶴見区汐入町2-36",
				"施設の種類" : "避難所",
				"収容人数" : null,
				"施設規模" : "3700",
				"対象とする災害の分類" : "指定なし",
				"レベル" : "1"
			}
		},
		{
			"type" : "Feature",
			"geometry" : {
				"type" : "Point",
				"coordinates" : [ 139.6389066958, 35.5122054714 ]
			},
			"properties" : {
				"高さ" : "11.7",
				"行政区域" : "14101",
				"名称" : "上の宮中学校",
				"住所" : "神奈川県横浜市鶴見区上の宮1-26-33",
				"施設の種類" : "避難所",
				"収容人数" : null,
				"施設規模" : "5790",
				"対象とする災害の分類" : "地震災害",
				"レベル" : "1"
			}
		},
		{
			"type" : "Feature",
			"geometry" : {
				"type" : "Point",
				"coordinates" : [ 139.6540716979, 35.5071794608 ]
			},
			"properties" : {
				"高さ" : "15",
				"行政区域" : "14101",
				"名称" : "上寺尾小学校",
				"住所" : "神奈川県横浜市鶴見区馬場3-21-21",
				"施設の種類" : "避難所",
				"収容人数" : null,
				"施設規模" : "6390",
				"対象とする災害の分類" : "指定なし",
				"レベル" : "1"
			}
		},
		{
			"type" : "Feature",
			"geometry" : {
				"type" : "Point",
				"coordinates" : [ 139.6621549161, 35.5343144388 ]
			},
			"properties" : {
				"高さ" : "14.4",
				"行政区域" : "14101",
				"名称" : "上末吉小学校",
				"住所" : "神奈川県横浜市鶴見区上末吉5-24-1",
				"施設の種類" : "避難所",
				"収容人数" : null,
				"施設規模" : "5005",
				"対象とする災害の分類" : "指定なし",
				"レベル" : "1"
			}
		},
		{
			"type" : "Feature",
			"geometry" : {
				"type" : "Point",
				"coordinates" : [ 139.6766249418, 35.5328424217 ]
			},
			"properties" : {
				"高さ" : "13.9",
				"行政区域" : "14101",
				"名称" : "新鶴見小学校",
				"住所" : "神奈川県横浜市鶴見区江ケ崎町2-1",
				"施設の種類" : "避難所",
				"収容人数" : null,
				"施設規模" : "4788",
				"対象とする災害の分類" : "地震災害",
				"レベル" : "1"
			}
		},
		{
			"type" : "Feature",
			"geometry" : {
				"type" : "Point",
				"coordinates" : [ 139.6712096454, 35.495791451 ]
			},
			"properties" : {
				"高さ" : "11.1",
				"行政区域" : "14101",
				"名称" : "生麦小学校",
				"住所" : "神奈川県横浜市鶴見区生麦4-15-1",
				"施設の種類" : "避難所",
				"収容人数" : null,
				"施設規模" : "6283",
				"対象とする災害の分類" : "指定なし",
				"レベル" : "1"
			}
		},
		{
			"type" : "Feature",
			"geometry" : {
				"type" : "Point",
				"coordinates" : [ 139.6593339932, 35.4934044965 ]
			},
			"properties" : {
				"高さ" : "10.7",
				"行政区域" : "14101",
				"名称" : "生麦中学校",
				"住所" : "神奈川県横浜市鶴見区岸谷2-1-1",
				"施設の種類" : "避難所",
				"収容人数" : null,
				"施設規模" : "6837",
				"対象とする災害の分類" : "地震災害",
				"レベル" : "1"
			}
		},
		{
			"type" : "Feature",
			"geometry" : {
				"type" : "Point",
				"coordinates" : [ 139.6899857634, 35.5068734142 ]
			},
			"properties" : {
				"高さ" : "11.3",
				"行政区域" : "14101",
				"名称" : "潮田小学校",
				"住所" : "神奈川県横浜市鶴見区向井町3-82-1",
				"施設の種類" : "避難所",
				"収容人数" : null,
				"施設規模" : "5606",
				"対象とする災害の分類" : "指定なし",
				"レベル" : "1"
			}
		},
		{
			"type" : "Feature",
			"geometry" : {
				"type" : "Point",
				"coordinates" : [ 139.6915967649, 35.5067344112 ]
			},
			"properties" : {
				"高さ" : "11.2",
				"行政区域" : "14101",
				"名称" : "潮田中学校",
				"住所" : "神奈川県横浜市鶴見区向井町4-83",
				"施設の種類" : "避難所",
				"収容人数" : null,
				"施設規模" : "6465",
				"対象とする災害の分類" : "指定なし",
				"レベル" : "1"
			}
		},
		{
			"type" : "Feature",
			"geometry" : {
				"type" : "Point",
				"coordinates" : [ 139.6840967714, 35.5091784223 ]
			},
			"properties" : {
				"高さ" : "14.2",
				"行政区域" : "14101",
				"名称" : "鶴見小学校",
				"住所" : "神奈川県横浜市鶴見区鶴見中央3-19-1",
				"施設の種類" : "避難所",
				"収容人数" : null,
				"施設規模" : "4724",
				"対象とする災害の分類" : "指定なし",
				"レベル" : "1"
			}
		},
		{
			"type" : "Feature",
			"geometry" : {
				"type" : "Point",
				"coordinates" : [ 139.6846247786, 35.5099014211 ]
			},
			"properties" : {
				"高さ" : "11.5",
				"行政区域" : "14101",
				"名称" : "鶴見中学校",
				"住所" : "神奈川県横浜市鶴見区鶴見中央3-14-1",
				"施設の種類" : "避難所",
				"収容人数" : null,
				"施設規模" : "4706",
				"対象とする災害の分類" : "指定なし",
				"レベル" : "1"
			}
		},
		{
			"type" : "Feature",
			"geometry" : {
				"type" : "Point",
				"coordinates" : [ 139.6643486939, 35.5037634527 ]
			},
			"properties" : {
				"高さ" : "7.4",
				"行政区域" : "14101",
				"名称" : "東台小学校",
				"住所" : "神奈川県横浜市鶴見区東寺尾東台12-1",
				"施設の種類" : "避難所",
				"収容人数" : null,
				"施設規模" : "5925",
				"対象とする災害の分類" : "地震災害",
				"レベル" : "1"
			}
		},
		{
			"type" : "Feature",
			"geometry" : {
				"type" : "Point",
				"coordinates" : [ 139.6929857234, 35.5012074129 ]
			},
			"properties" : {
				"高さ" : "10.9",
				"行政区域" : "14101",
				"名称" : "入船小学校",
				"住所" : "神奈川県横浜市鶴見区浜町1-1-1",
				"施設の種類" : "避難所",
				"収容人数" : null,
				"施設規模" : "3812",
				"対象とする災害の分類" : "指定なし",
				"レベル" : "1"
			}
		},
		{
			"type" : "Feature",
			"geometry" : {
				"type" : "Point",
				"coordinates" : [ 139.6443506936, 35.5099284674 ]
			},
			"properties" : {
				"高さ" : "11.2",
				"行政区域" : "14101",
				"名称" : "馬場小学校",
				"住所" : "神奈川県横浜市鶴見区馬場7-20-1",
				"施設の種類" : "避難所",
				"収容人数" : null,
				"施設規模" : "5577",
				"対象とする災害の分類" : "地震災害",
				"レベル" : "1"
			}
		},
		{
			"type" : "Feature",
			"geometry" : {
				"type" : "Point",
				"coordinates" : [ 139.69206881, 35.5123444062 ]
			},
			"properties" : {
				"高さ" : "7.2",
				"行政区域" : "14101",
				"名称" : "平安小学校",
				"住所" : "神奈川県横浜市鶴見区平安町2-9-1",
				"施設の種類" : "避難所",
				"収容人数" : null,
				"施設規模" : "5760",
				"対象とする災害の分類" : "指定なし",
				"レベル" : "1"
			}
		},
		{
			"type" : "Feature",
			"geometry" : {
				"type" : "Point",
				"coordinates" : [ 139.6750697829, 35.5125954332 ]
			},
			"properties" : {
				"高さ" : "11",
				"行政区域" : "14101",
				"名称" : "豊岡小学校",
				"住所" : "神奈川県横浜市鶴見区豊岡町27-1",
				"施設の種類" : "避難所",
				"収容人数" : null,
				"施設規模" : "6230",
				"対象とする災害の分類" : "指定なし",
				"レベル" : "1"
			}
		},
		{
			"type" : "Feature",
			"geometry" : {
				"type" : "Point",
				"coordinates" : [ 139.6695148643, 35.5246774338 ]
			},
			"properties" : {
				"高さ" : "11",
				"行政区域" : "14101",
				"名称" : "末吉小学校",
				"住所" : "神奈川県横浜市鶴見区上末吉1-9-1",
				"施設の種類" : "避難所",
				"収容人数" : null,
				"施設規模" : "7924",
				"対象とする災害の分類" : "指定なし",
				"レベル" : "1"
			}
		},
		{
			"type" : "Feature",
			"geometry" : {
				"type" : "Point",
				"coordinates" : [ 139.6641818406, 35.5231494418 ]
			},
			"properties" : {
				"高さ" : "14.5",
				"行政区域" : "14101",
				"名称" : "末吉中学校",
				"住所" : "神奈川県横浜市鶴見区下末吉6-13-1",
				"施設の種類" : "避難所",
				"収容人数" : null,
				"施設規模" : "6437",
				"対象とする災害の分類" : "地震災害",
				"レベル" : "1"
			}
		},
		{
			"type" : "Feature",
			"geometry" : {
				"type" : "Point",
				"coordinates" : [ 139.6790419515, 35.5333974175 ]
			},
			"properties" : {
				"高さ" : "11.2",
				"行政区域" : "14101",
				"名称" : "矢向小学校",
				"住所" : "神奈川県横浜市鶴見区矢向3-8-1",
				"施設の種類" : "避難所",
				"収容人数" : null,
				"施設規模" : "7467",
				"対象とする災害の分類" : "指定なし",
				"レベル" : "1"
			}
		},
		{
			"type" : "Feature",
			"geometry" : {
				"type" : "Point",
				"coordinates" : [ 139.6747062306, 35.5288540577 ]
			},
			"properties" : {
				"高さ" : "10.9",
				"行政区域" : "14101",
				"名称" : "矢向中学校",
				"住所" : "神奈川県横浜市鶴見区矢向1-8-24",
				"施設の種類" : "避難所",
				"収容人数" : null,
				"施設規模" : "4588",
				"対象とする災害の分類" : "指定なし",
				"レベル" : "1"
			}
		}
	]
}