{
	"type" : "FeatureCollection",
	"name" : "14108_yokohama-shi_kanazawa-ku_station",
	"features" : [
		{
			"type" : "Feature",
			"geometry" : {
				"type" : "Point",
				"coordinates" : [ 139.640776484, 35.3407530106 ]
			},
			"properties" : {
				"駅名" : "八景島駅",
				"高さ" : "7.3",
				"鉄道区分" : "案内軌条式",
				"事業者種別" : "第三セクター",
				"路線名" : "金沢シーサイドライン",
				"運営会社" : "横浜シーサイドライン"
			}
		},
		{
			"type" : "Feature",
			"geometry" : {
				"type" : "Point",
				"coordinates" : [ 139.6463333516, 35.3534281581 ]
			},
			"properties" : {
				"駅名" : "産業振興センター駅",
				"高さ" : "0",
				"鉄道区分" : "案内軌条式",
				"事業者種別" : "第三セクター",
				"路線名" : "金沢シーサイドライン",
				"運営会社" : "横浜シーサイドライン"
			}
		},
		{
			"type" : "Feature",
			"geometry" : {
				"type" : "Point",
				"coordinates" : [ 139.6315633456, 35.3305981577 ]
			},
			"properties" : {
				"駅名" : "野島公園駅",
				"高さ" : "0",
				"鉄道区分" : "案内軌条式",
				"事業者種別" : "第三セクター",
				"路線名" : "金沢シーサイドライン",
				"運営会社" : "横浜シーサイドライン"
			}
		},
		{
			"type" : "Feature",
			"geometry" : {
				"type" : "Point",
				"coordinates" : [ 139.6436983514, 35.3583981583 ]
			},
			"properties" : {
				"駅名" : "幸浦駅",
				"高さ" : "0",
				"鉄道区分" : "案内軌条式",
				"事業者種別" : "第三セクター",
				"路線名" : "金沢シーサイドライン",
				"運営会社" : "横浜シーサイドライン"
			}
		},
		{
			"type" : "Feature",
			"geometry" : {
				"type" : "Point",
				"coordinates" : [ 139.6359183479, 35.342123158 ]
			},
			"properties" : {
				"駅名" : "海の公園柴口駅",
				"高さ" : "0",
				"鉄道区分" : "案内軌条式",
				"事業者種別" : "第三セクター",
				"路線名" : "金沢シーサイドライン",
				"運営会社" : "横浜シーサイドライン"
			}
		},
		{
			"type" : "Feature",
			"geometry" : {
				"type" : "Point",
				"coordinates" : [ 139.6427383535, 35.3720181592 ]
			},
			"properties" : {
				"駅名" : "並木北駅",
				"高さ" : "10.1",
				"鉄道区分" : "案内軌条式",
				"事業者種別" : "第三セクター",
				"路線名" : "金沢シーサイドライン",
				"運営会社" : "横浜シーサイドライン"
			}
		},
		{
			"type" : "Feature",
			"geometry" : {
				"type" : "Point",
				"coordinates" : [ 139.6418083551, 35.37718316 ]
			},
			"properties" : {
				"駅名" : "鳥浜駅",
				"高さ" : "0",
				"鉄道区分" : "案内軌条式",
				"事業者種別" : "第三セクター",
				"路線名" : "金沢シーサイドライン",
				"運営会社" : "横浜シーサイドライン"
			}
		},
		{
			"type" : "Feature",
			"geometry" : {
				"type" : "Point",
				"coordinates" : [ 139.6207431604, 35.3316091981 ]
			},
			"properties" : {
				"駅名" : "金沢八景駅",
				"高さ" : "15.7",
				"鉄道区分" : "案内軌条式",
				"事業者種別" : "第三セクター",
				"路線名" : "金沢シーサイドライン",
				"運営会社" : "横浜シーサイドライン"
			}
		},
		{
			"type" : "Feature",
			"geometry" : {
				"type" : "Point",
				"coordinates" : [ 139.6429933522, 35.3654531586 ]
			},
			"properties" : {
				"駅名" : "並木中央駅",
				"高さ" : "0",
				"鉄道区分" : "案内軌条式",
				"事業者種別" : "第三セクター",
				"路線名" : "金沢シーサイドライン",
				"運営会社" : "横浜シーサイドライン"
			}
		},
		{
			"type" : "Feature",
			"geometry" : {
				"type" : "Point",
				"coordinates" : [ 139.6320507891, 35.3371983991 ]
			},
			"properties" : {
				"駅名" : "海の公園南口駅",
				"高さ" : "10.8",
				"鉄道区分" : "案内軌条式",
				"事業者種別" : "第三セクター",
				"路線名" : "金沢シーサイドライン",
				"運営会社" : "横浜シーサイドライン"
			}
		},
		{
			"type" : "Feature",
			"geometry" : {
				"type" : "Point",
				"coordinates" : [ 139.6332133538, 35.3801881613 ]
			},
			"properties" : {
				"駅名" : "南部市場駅",
				"高さ" : "16.9",
				"鉄道区分" : "案内軌条式",
				"事業者種別" : "第三セクター",
				"路線名" : "金沢シーサイドライン",
				"運営会社" : "横浜シーサイドライン"
			}
		},
		{
			"type" : "Feature",
			"geometry" : {
				"type" : "Point",
				"coordinates" : [ 139.648543351, 35.3496131576 ]
			},
			"properties" : {
				"駅名" : "福浦駅",
				"高さ" : "0",
				"鉄道区分" : "案内軌条式",
				"事業者種別" : "第三セクター",
				"路線名" : "金沢シーサイドライン",
				"運営会社" : "横浜シーサイドライン"
			}
		},
		{
			"type" : "Feature",
			"geometry" : {
				"type" : "Point",
				"coordinates" : [ 139.6501383501, 35.3439081563 ]
			},
			"properties" : {
				"駅名" : "市大医学部駅",
				"高さ" : "0",
				"鉄道区分" : "案内軌条式",
				"事業者種別" : "第三セクター",
				"路線名" : "金沢シーサイドライン",
				"運営会社" : "横浜シーサイドライン"
			}
		},
		{
			"type" : "Feature",
			"geometry" : {
				"type" : "Point",
				"coordinates" : [ 139.6112699132, 35.3225615974 ]
			},
			"properties" : {
				"駅名" : "六浦駅",
				"高さ" : "11.4",
				"鉄道区分" : "普通鉄道",
				"事業者種別" : "民営鉄道",
				"路線名" : "逗子線",
				"運営会社" : "京浜急行電鉄"
			}
		},
		{
			"type" : "Feature",
			"geometry" : {
				"type" : "Point",
				"coordinates" : [ 139.6201333454, 35.3311331587 ]
			},
			"properties" : {
				"駅名" : "金沢八景駅",
				"高さ" : "15.7",
				"鉄道区分" : "普通鉄道",
				"事業者種別" : "民営鉄道",
				"路線名" : "逗子線",
				"運営会社" : "京浜急行電鉄"
			}
		},
		{
			"type" : "Feature",
			"geometry" : {
				"type" : "Point",
				"coordinates" : [ 139.6201333454, 35.3311331587 ]
			},
			"properties" : {
				"駅名" : "金沢八景駅",
				"高さ" : "15.7",
				"鉄道区分" : "普通鉄道",
				"事業者種別" : "民営鉄道",
				"路線名" : "本線",
				"運営会社" : "京浜急行電鉄"
			}
		},
		{
			"type" : "Feature",
			"geometry" : {
				"type" : "Point",
				"coordinates" : [ 139.6294217139, 35.3608449683 ]
			},
			"properties" : {
				"駅名" : "能見台駅",
				"高さ" : "10.1",
				"鉄道区分" : "普通鉄道",
				"事業者種別" : "民営鉄道",
				"路線名" : "本線",
				"運営会社" : "京浜急行電鉄"
			}
		},
		{
			"type" : "Feature",
			"geometry" : {
				"type" : "Point",
				"coordinates" : [ 139.6216574622, 35.3429260055 ]
			},
			"properties" : {
				"駅名" : "金沢文庫駅",
				"高さ" : "12.9",
				"鉄道区分" : "普通鉄道",
				"事業者種別" : "民営鉄道",
				"路線名" : "本線",
				"運営会社" : "京浜急行電鉄"
			}
		},
		{
			"type" : "Feature",
			"geometry" : {
				"type" : "Point",
				"coordinates" : [ 139.6299339629, 35.3670653203 ]
			},
			"properties" : {
				"駅名" : "京急富岡駅",
				"高さ" : "6.4",
				"鉄道区分" : "普通鉄道",
				"事業者種別" : "民営鉄道",
				"路線名" : "本線",
				"運営会社" : "京浜急行電鉄"
			}
		}
	]
}