{
	"type" : "FeatureCollection",
	"name" : "14105_yokohama-shi_minami-ku_station",
	"features" : [
		{
			"type" : "Feature",
			"geometry" : {
				"type" : "Point",
				"coordinates" : [ 139.6184789312, 35.4353667148 ]
			},
			"properties" : {
				"駅名" : "吉野町駅",
				"高さ" : "0",
				"鉄道区分" : "普通鉄道",
				"事業者種別" : "公営鉄道",
				"路線名" : "1号線",
				"運営会社" : "横浜市"
			}
		},
		{
			"type" : "Feature",
			"geometry" : {
				"type" : "Point",
				"coordinates" : [ 139.6019885946, 35.4229752272 ]
			},
			"properties" : {
				"駅名" : "弘明寺駅",
				"高さ" : "0",
				"鉄道区分" : "普通鉄道",
				"事業者種別" : "公営鉄道",
				"路線名" : "1号線",
				"運営会社" : "横浜市"
			}
		},
		{
			"type" : "Feature",
			"geometry" : {
				"type" : "Point",
				"coordinates" : [ 139.6105383554, 35.4303131684 ]
			},
			"properties" : {
				"駅名" : "蒔田駅",
				"高さ" : "0",
				"鉄道区分" : "普通鉄道",
				"事業者種別" : "公営鉄道",
				"路線名" : "1号線",
				"運営会社" : "横浜市"
			}
		},
		{
			"type" : "Feature",
			"geometry" : {
				"type" : "Point",
				"coordinates" : [ 139.6141573222, 35.4370763877 ]
			},
			"properties" : {
				"駅名" : "南太田駅",
				"高さ" : "7.4",
				"鉄道区分" : "普通鉄道",
				"事業者種別" : "民営鉄道",
				"路線名" : "本線",
				"運営会社" : "京浜急行電鉄"
			}
		},
		{
			"type" : "Feature",
			"geometry" : {
				"type" : "Point",
				"coordinates" : [ 139.5969183563, 35.4241031679 ]
			},
			"properties" : {
				"駅名" : "弘明寺駅",
				"高さ" : "10.8",
				"鉄道区分" : "普通鉄道",
				"事業者種別" : "民営鉄道",
				"路線名" : "本線",
				"運営会社" : "京浜急行電鉄"
			}
		},
		{
			"type" : "Feature",
			"geometry" : {
				"type" : "Point",
				"coordinates" : [ 139.62256836, 35.4397081679 ]
			},
			"properties" : {
				"駅名" : "黄金町駅",
				"高さ" : "0",
				"鉄道区分" : "普通鉄道",
				"事業者種別" : "民営鉄道",
				"路線名" : "本線",
				"運営会社" : "京浜急行電鉄"
			}
		},
		{
			"type" : "Feature",
			"geometry" : {
				"type" : "Point",
				"coordinates" : [ 139.6012799132, 35.433964425 ]
			},
			"properties" : {
				"駅名" : "井土ヶ谷駅",
				"高さ" : "7.2",
				"鉄道区分" : "普通鉄道",
				"事業者種別" : "民営鉄道",
				"路線名" : "本線",
				"運営会社" : "京浜急行電鉄"
			}
		}
	]
}