{
	"type" : "FeatureCollection",
	"name" : "14108_yokohama-shi_kanazawa-ku_shelter",
	"features" : [
		{
			"type" : "Feature",
			"geometry" : {
				"type" : "Point",
				"coordinates" : [ 139.6079931425, 35.3436988513 ]
			},
			"properties" : {
				"高さ" : "11.4",
				"行政区域" : "14108",
				"名称" : "釜利谷小学校",
				"住所" : "神奈川県横浜市金沢区釜利谷東6-37-1",
				"施設の種類" : "避難所",
				"収容人数" : null,
				"施設規模" : "5463",
				"対象とする災害の分類" : "指定なし",
				"レベル" : "1"
			}
		},
		{
			"type" : "Feature",
			"geometry" : {
				"type" : "Point",
				"coordinates" : [ 139.5935771232, 35.3439058538 ]
			},
			"properties" : {
				"高さ" : "14.6",
				"行政区域" : "14108",
				"名称" : "釜利谷西小学校",
				"住所" : "神奈川県横浜市金沢区釜利谷西4-19-1",
				"施設の種類" : "避難所",
				"収容人数" : null,
				"施設規模" : "6273",
				"対象とする災害の分類" : "地震災害",
				"レベル" : "1"
			}
		},
		{
			"type" : "Feature",
			"geometry" : {
				"type" : "Point",
				"coordinates" : [ 139.6174535759, 35.3446149595 ]
			},
			"properties" : {
				"高さ" : "11.1",
				"行政区域" : "14108",
				"名称" : "釜利谷東小学校",
				"住所" : "神奈川県横浜市金沢区釜利谷東2-12-1",
				"施設の種類" : "避難所",
				"収容人数" : null,
				"施設規模" : "4846",
				"対象とする災害の分類" : "地震災害",
				"レベル" : "1"
			}
		},
		{
			"type" : "Feature",
			"geometry" : {
				"type" : "Point",
				"coordinates" : [ 139.6060271157, 35.3387858851 ]
			},
			"properties" : {
				"高さ" : "11.3",
				"行政区域" : "14108",
				"名称" : "釜利谷南小学校",
				"住所" : "神奈川県横浜市金沢区釜利谷南4-12-1",
				"施設の種類" : "避難所",
				"収容人数" : null,
				"施設規模" : "4802",
				"対象とする災害の分類" : "地震災害",
				"レベル" : "1"
			}
		},
		{
			"type" : "Feature",
			"geometry" : {
				"type" : "Point",
				"coordinates" : [ 139.637790391, 35.3631105275 ]
			},
			"properties" : {
				"高さ" : "11.2",
				"行政区域" : "14108",
				"名称" : "旧並木第三小学校",
				"住所" : "神奈川県横浜市金沢区並木2-8-1",
				"施設の種類" : "避難所",
				"収容人数" : null,
				"施設規模" : "6564",
				"対象とする災害の分類" : "地震災害",
				"レベル" : "3"
			}
		},
		{
			"type" : "Feature",
			"geometry" : {
				"type" : "Point",
				"coordinates" : [ 139.6294921741, 35.3357289071 ]
			},
			"properties" : {
				"高さ" : "11.1",
				"行政区域" : "14108",
				"名称" : "金沢小学校",
				"住所" : "神奈川県横浜市金沢区町屋町26-26",
				"施設の種類" : "避難所",
				"収容人数" : null,
				"施設規模" : "5293",
				"対象とする災害の分類" : "指定なし",
				"レベル" : "1"
			}
		},
		{
			"type" : "Feature",
			"geometry" : {
				"type" : "Point",
				"coordinates" : [ 139.6202143997, 35.3721397214 ]
			},
			"properties" : {
				"高さ" : "11.6",
				"行政区域" : "14108",
				"名称" : "小田小学校",
				"住所" : "神奈川県横浜市金沢区富岡西1-69-1",
				"施設の種類" : "避難所",
				"収容人数" : null,
				"施設規模" : "4689",
				"対象とする災害の分類" : "地震災害",
				"レベル" : "1"
			}
		},
		{
			"type" : "Feature",
			"geometry" : {
				"type" : "Point",
				"coordinates" : [ 139.620131065, 35.3193700149 ]
			},
			"properties" : {
				"高さ" : "11.1",
				"行政区域" : "14108",
				"名称" : "瀬ヶ崎小学校",
				"住所" : "神奈川県横浜市金沢区六浦東3-2-1",
				"施設の種類" : "避難所",
				"収容人数" : null,
				"施設規模" : "5603",
				"対象とする災害の分類" : "指定なし",
				"レベル" : "1"
			}
		},
		{
			"type" : "Feature",
			"geometry" : {
				"type" : "Point",
				"coordinates" : [ 139.6330653489, 35.3476410517 ]
			},
			"properties" : {
				"高さ" : "14.9",
				"行政区域" : "14108",
				"名称" : "西柴小学校",
				"住所" : "神奈川県横浜市金沢区西柴4-23-1",
				"施設の種類" : "避難所",
				"収容人数" : null,
				"施設規模" : "6257",
				"対象とする災害の分類" : "指定なし",
				"レベル" : "1"
			}
		},
		{
			"type" : "Feature",
			"geometry" : {
				"type" : "Point",
				"coordinates" : [ 139.6293532777, 35.3528098114 ]
			},
			"properties" : {
				"高さ" : "14.5",
				"行政区域" : "14108",
				"名称" : "西柴中学校",
				"住所" : "神奈川県横浜市金沢区西柴1-23-1",
				"施設の種類" : "避難所",
				"収容人数" : null,
				"施設規模" : "5492",
				"対象とする災害の分類" : "指定なし",
				"レベル" : "1"
			}
		},
		{
			"type" : "Feature",
			"geometry" : {
				"type" : "Point",
				"coordinates" : [ 139.6141284501, 35.36209993 ]
			},
			"properties" : {
				"高さ" : "14.9",
				"行政区域" : "14108",
				"名称" : "西富岡小学校",
				"住所" : "神奈川県横浜市金沢区富岡西5-49-1",
				"施設の種類" : "避難所",
				"収容人数" : null,
				"施設規模" : "4938",
				"対象とする災害の分類" : "地震災害",
				"レベル" : "1"
			}
		},
		{
			"type" : "Feature",
			"geometry" : {
				"type" : "Point",
				"coordinates" : [ 139.6110200728, 35.3266739692 ]
			},
			"properties" : {
				"高さ" : "11",
				"行政区域" : "14108",
				"名称" : "大道小学校",
				"住所" : "神奈川県横浜市金沢区大道2-3-1",
				"施設の種類" : "避難所",
				"収容人数" : null,
				"施設規模" : "5460",
				"対象とする災害の分類" : "地震災害",
				"レベル" : "1"
			}
		},
		{
			"type" : "Feature",
			"geometry" : {
				"type" : "Point",
				"coordinates" : [ 139.6010770716, 35.3308669418 ]
			},
			"properties" : {
				"高さ" : "11.8",
				"行政区域" : "14108",
				"名称" : "大道中学校",
				"住所" : "神奈川県横浜市金沢区大道1-85-1",
				"施設の種類" : "避難所",
				"収容人数" : null,
				"施設規模" : "5891",
				"対象とする災害の分類" : "地震災害",
				"レベル" : "1"
			}
		},
		{
			"type" : "Feature",
			"geometry" : {
				"type" : "Point",
				"coordinates" : [ 139.5950363405, 35.3232821609 ]
			},
			"properties" : {
				"高さ" : "15",
				"行政区域" : "14108",
				"名称" : "朝比奈小学校",
				"住所" : "神奈川県横浜市金沢区東朝比奈2-53-1",
				"施設の種類" : "避難所",
				"収容人数" : null,
				"施設規模" : "5432",
				"対象とする災害の分類" : "地震災害",
				"レベル" : "1"
			}
		},
		{
			"type" : "Feature",
			"geometry" : {
				"type" : "Point",
				"coordinates" : [ 139.6222422848, 35.3580027788 ]
			},
			"properties" : {
				"高さ" : "11.7",
				"行政区域" : "14108",
				"名称" : "能見台小学校",
				"住所" : "神奈川県横浜市金沢区能見台3-32-1",
				"施設の種類" : "避難所",
				"収容人数" : null,
				"施設規模" : "5053",
				"対象とする災害の分類" : "地震災害",
				"レベル" : "1"
			}
		},
		{
			"type" : "Feature",
			"geometry" : {
				"type" : "Point",
				"coordinates" : [ 139.6149932196, 35.3533917958 ]
			},
			"properties" : {
				"高さ" : "11.6",
				"行政区域" : "14108",
				"名称" : "能見台南小学校",
				"住所" : "神奈川県横浜市金沢区能見台6-3-1",
				"施設の種類" : "避難所",
				"収容人数" : null,
				"施設規模" : "5508",
				"対象とする災害の分類" : "地震災害",
				"レベル" : "1"
			}
		},
		{
			"type" : "Feature",
			"geometry" : {
				"type" : "Point",
				"coordinates" : [ 139.6221591637, 35.3387558872 ]
			},
			"properties" : {
				"高さ" : "7.7",
				"行政区域" : "14108",
				"名称" : "八景小学校",
				"住所" : "神奈川県横浜市金沢区泥亀1-21-2",
				"施設の種類" : "避難所",
				"収容人数" : null,
				"施設規模" : "7826",
				"対象とする災害の分類" : "地震災害",
				"レベル" : "1"
			}
		},
		{
			"type" : "Feature",
			"geometry" : {
				"type" : "Point",
				"coordinates" : [ 139.6248813682, 35.3668077439 ]
			},
			"properties" : {
				"高さ" : "11.1",
				"行政区域" : "14108",
				"名称" : "富岡小学校",
				"住所" : "神奈川県横浜市金沢区富岡西7-13-1",
				"施設の種類" : "避難所",
				"収容人数" : null,
				"施設規模" : "6568",
				"対象とする災害の分類" : "地震災害",
				"レベル" : "1"
			}
		},
		{
			"type" : "Feature",
			"geometry" : {
				"type" : "Point",
				"coordinates" : [ 139.6311582046, 35.3400898816 ]
			},
			"properties" : {
				"高さ" : "10.9",
				"行政区域" : "14108",
				"名称" : "文庫小学校",
				"住所" : "神奈川県横浜市金沢区寺前2-21-7",
				"施設の種類" : "避難所",
				"収容人数" : null,
				"施設規模" : "6533",
				"対象とする災害の分類" : "指定なし",
				"レベル" : "1"
			}
		},
		{
			"type" : "Feature",
			"geometry" : {
				"type" : "Point",
				"coordinates" : [ 139.6390744835, 35.3730017286 ]
			},
			"properties" : {
				"高さ" : "4.3",
				"行政区域" : "14108",
				"名称" : "並木第一小学校",
				"住所" : "神奈川県横浜市金沢区並木1-7-1",
				"施設の種類" : "避難所",
				"収容人数" : null,
				"施設規模" : "6490",
				"対象とする災害の分類" : "地震災害",
				"レベル" : "1"
			}
		},
		{
			"type" : "Feature",
			"geometry" : {
				"type" : "Point",
				"coordinates" : [ 139.6410463504, 35.3561428011 ]
			},
			"properties" : {
				"高さ" : "11.4",
				"行政区域" : "14108",
				"名称" : "並木第四小学校",
				"住所" : "神奈川県横浜市金沢区並木3-10-1",
				"施設の種類" : "避難所",
				"収容人数" : null,
				"施設規模" : "7923",
				"対象とする災害の分類" : "地震災害",
				"レベル" : "1"
			}
		},
		{
			"type" : "Feature",
			"geometry" : {
				"type" : "Point",
				"coordinates" : [ 139.6411643534, 35.3667481592 ]
			},
			"properties" : {
				"高さ" : "4.1",
				"行政区域" : "14108",
				"名称" : "並木中央小学校",
				"住所" : "神奈川県横浜市金沢区並木1-25-1",
				"施設の種類" : "避難所",
				"収容人数" : null,
				"施設規模" : "5763",
				"対象とする災害の分類" : "地震災害",
				"レベル" : "1"
			}
		},
		{
			"type" : "Feature",
			"geometry" : {
				"type" : "Point",
				"coordinates" : [ 139.6077980989, 35.3340059168 ]
			},
			"properties" : {
				"高さ" : "8.8",
				"行政区域" : "14108",
				"名称" : "高舟台小学校",
				"住所" : "神奈川県横浜市金沢区高舟台1-35-1",
				"施設の種類" : "避難所",
				"収容人数" : null,
				"施設規模" : "5135",
				"対象とする災害の分類" : "地震災害",
				"レベル" : "1"
			}
		},
		{
			"type" : "Feature",
			"geometry" : {
				"type" : "Point",
				"coordinates" : [ 139.6125871865, 35.329855642 ]
			},
			"properties" : {
				"高さ" : "14.8",
				"行政区域" : "14108",
				"名称" : "六浦小学校",
				"住所" : "神奈川県横浜市金沢区六浦3-11-1",
				"施設の種類" : "避難所",
				"収容人数" : null,
				"施設規模" : "4630",
				"対象とする災害の分類" : "指定なし",
				"レベル" : "1"
			}
		},
		{
			"type" : "Feature",
			"geometry" : {
				"type" : "Point",
				"coordinates" : [ 139.6177980833, 35.32470198 ]
			},
			"properties" : {
				"高さ" : "14.4",
				"行政区域" : "14108",
				"名称" : "六浦中学校",
				"住所" : "神奈川県横浜市金沢区六浦1-24-4",
				"施設の種類" : "避難所",
				"収容人数" : null,
				"施設規模" : "5287",
				"対象とする災害の分類" : "地震災害",
				"レベル" : "1"
			}
		},
		{
			"type" : "Feature",
			"geometry" : {
				"type" : "Point",
				"coordinates" : [ 139.6110570274, 35.3157860461 ]
			},
			"properties" : {
				"高さ" : "11.2",
				"行政区域" : "14108",
				"名称" : "六浦南小学校",
				"住所" : "神奈川県横浜市金沢区六浦南3-22-1",
				"施設の種類" : "避難所",
				"収容人数" : null,
				"施設規模" : "5889",
				"対象とする災害の分類" : "指定なし",
				"レベル" : "1"
			}
		}
	]
}