{
	"type" : "FeatureCollection",
	"name" : "14102_yokohama-shi_kanagawa-ku_shelter",
	"features" : [
		{
			"type" : "Feature",
			"geometry" : {
				"type" : "Point",
				"coordinates" : [ 139.5873283965, 35.4885415163 ]
			},
			"properties" : {
				"高さ" : "14.4",
				"行政区域" : "14102",
				"名称" : "羽沢小学校",
				"住所" : "神奈川県横浜市神奈川区羽沢町935",
				"施設の種類" : "避難所",
				"収容人数" : null,
				"施設規模" : "4973",
				"対象とする災害の分類" : "指定なし",
				"レベル" : "1"
			}
		},
		{
			"type" : "Feature",
			"geometry" : {
				"type" : "Point",
				"coordinates" : [ 139.6412507097, 35.4859092982 ]
			},
			"properties" : {
				"高さ" : "11",
				"行政区域" : "14102",
				"名称" : "浦島丘中学校",
				"住所" : "神奈川県横浜市神奈川区白幡東町27-1",
				"施設の種類" : "避難所",
				"収容人数" : null,
				"施設規模" : "6529",
				"対象とする災害の分類" : "地震災害",
				"レベル" : "1"
			}
		},
		{
			"type" : "Feature",
			"geometry" : {
				"type" : "Point",
				"coordinates" : [ 139.6367216301, 35.4839617985 ]
			},
			"properties" : {
				"高さ" : "14.6",
				"行政区域" : "14102",
				"名称" : "浦島小学校",
				"住所" : "神奈川県横浜市神奈川区浦島丘16",
				"施設の種類" : "避難所",
				"収容人数" : null,
				"施設規模" : "5498",
				"対象とする災害の分類" : "地震災害",
				"レベル" : "1"
			}
		},
		{
			"type" : "Feature",
			"geometry" : {
				"type" : "Point",
				"coordinates" : [ 139.6510996069, 35.4960414722 ]
			},
			"properties" : {
				"高さ" : "11.4",
				"行政区域" : "14102",
				"名称" : "錦台中学校",
				"住所" : "神奈川県横浜市神奈川区西寺尾3-10-1",
				"施設の種類" : "避難所",
				"収容人数" : null,
				"施設規模" : "6357",
				"対象とする災害の分類" : "指定なし",
				"レベル" : "1"
			}
		},
		{
			"type" : "Feature",
			"geometry" : {
				"type" : "Point",
				"coordinates" : [ 139.6243447377, 35.4770276688 ]
			},
			"properties" : {
				"高さ" : "14.6",
				"行政区域" : "14102",
				"名称" : "栗田谷中学校",
				"住所" : "神奈川県横浜市神奈川区栗田谷3-1",
				"施設の種類" : "避難所",
				"収容人数" : null,
				"施設規模" : "5906",
				"対象とする災害の分類" : "地震災害",
				"レベル" : "1"
			}
		},
		{
			"type" : "Feature",
			"geometry" : {
				"type" : "Point",
				"coordinates" : [ 139.6309030829, 35.4716490728 ]
			},
			"properties" : {
				"高さ" : "18.2",
				"行政区域" : "14102",
				"名称" : "幸ヶ谷小学校",
				"住所" : "神奈川県横浜市神奈川区幸ヶ谷1-1",
				"施設の種類" : "避難所",
				"収容人数" : null,
				"施設規模" : "4773",
				"対象とする災害の分類" : "地震災害",
				"レベル" : "4"
			}
		},
		{
			"type" : "Feature",
			"geometry" : {
				"type" : "Point",
				"coordinates" : [ 139.6082181343, 35.4760693704 ]
			},
			"properties" : {
				"高さ" : "15.4",
				"行政区域" : "14102",
				"名称" : "三ツ沢小学校",
				"住所" : "神奈川県横浜市神奈川区三ツ沢中町4-17",
				"施設の種類" : "避難所",
				"収容人数" : null,
				"施設規模" : "6825",
				"対象とする災害の分類" : "地震災害",
				"レベル" : "1"
			}
		},
		{
			"type" : "Feature",
			"geometry" : {
				"type" : "Point",
				"coordinates" : [ 139.6530715551, 35.4885281109 ]
			},
			"properties" : {
				"高さ" : "11.3",
				"行政区域" : "14102",
				"名称" : "子安小学校",
				"住所" : "神奈川県横浜市神奈川区新子安1-24-1",
				"施設の種類" : "避難所",
				"収容人数" : null,
				"施設規模" : "5947",
				"対象とする災害の分類" : "指定なし",
				"レベル" : "1"
			}
		},
		{
			"type" : "Feature",
			"geometry" : {
				"type" : "Point",
				"coordinates" : [ 139.621075488, 35.4899575005 ]
			},
			"properties" : {
				"高さ" : "7.7",
				"行政区域" : "14102",
				"名称" : "神橋小学校",
				"住所" : "神奈川県横浜市神奈川区六角橋2-34-19",
				"施設の種類" : "避難所",
				"収容人数" : null,
				"施設規模" : "5217",
				"対象とする災害の分類" : "地震災害",
				"レベル" : "1"
			}
		},
		{
			"type" : "Feature",
			"geometry" : {
				"type" : "Point",
				"coordinates" : [ 139.6089374416, 35.4878195094 ]
			},
			"properties" : {
				"高さ" : "14.9",
				"行政区域" : "14102",
				"名称" : "神大寺小学校",
				"住所" : "神奈川県横浜市神奈川区神大寺3-34-1",
				"施設の種類" : "避難所",
				"収容人数" : null,
				"施設規模" : "4589",
				"対象とする災害の分類" : "地震災害",
				"レベル" : "1"
			}
		},
		{
			"type" : "Feature",
			"geometry" : {
				"type" : "Point",
				"coordinates" : [ 139.6359624332, 35.477486503 ]
			},
			"properties" : {
				"高さ" : "11.9",
				"行政区域" : "14102",
				"名称" : "神奈川小学校",
				"住所" : "神奈川県横浜市神奈川区東神奈川2-35-1",
				"施設の種類" : "避難所",
				"収容人数" : null,
				"施設規模" : "4894",
				"対象とする災害の分類" : "地震災害",
				"レベル" : "1"
			}
		},
		{
			"type" : "Feature",
			"geometry" : {
				"type" : "Point",
				"coordinates" : [ 139.5781344325, 35.4961795108 ]
			},
			"properties" : {
				"高さ" : "14.5",
				"行政区域" : "14102",
				"名称" : "菅田小学校",
				"住所" : "神奈川県横浜市神奈川区菅田町674",
				"施設の種類" : "避難所",
				"収容人数" : null,
				"施設規模" : "5129",
				"対象とする災害の分類" : "地震災害",
				"レベル" : "1"
			}
		},
		{
			"type" : "Feature",
			"geometry" : {
				"type" : "Point",
				"coordinates" : [ 139.6456556047, 35.4973734765 ]
			},
			"properties" : {
				"高さ" : "11.6",
				"行政区域" : "14102",
				"名称" : "西寺尾小学校",
				"住所" : "神奈川県横浜市神奈川区西寺尾2-5-1",
				"施設の種類" : "避難所",
				"収容人数" : null,
				"施設規模" : "4407",
				"対象とする災害の分類" : "地震災害",
				"レベル" : "1"
			}
		},
		{
			"type" : "Feature",
			"geometry" : {
				"type" : "Point",
				"coordinates" : [ 139.646650023, 35.4991032483 ]
			},
			"properties" : {
				"高さ" : "15",
				"行政区域" : "14102",
				"名称" : "西寺尾第二小学校",
				"住所" : "神奈川県横浜市神奈川区西寺尾2-15-1",
				"施設の種類" : "避難所",
				"収容人数" : null,
				"施設規模" : "3100",
				"対象とする災害の分類" : "指定なし",
				"レベル" : "1"
			}
		},
		{
			"type" : "Feature",
			"geometry" : {
				"type" : "Point",
				"coordinates" : [ 139.6257133777, 35.4735705142 ]
			},
			"properties" : {
				"高さ" : "14.8",
				"行政区域" : "14102",
				"名称" : "青木小学校",
				"住所" : "神奈川県横浜市神奈川区桐畑17",
				"施設の種類" : "避難所",
				"収容人数" : null,
				"施設規模" : "7656",
				"対象とする災害の分類" : "指定なし",
				"レベル" : "1"
			}
		},
		{
			"type" : "Feature",
			"geometry" : {
				"type" : "Point",
				"coordinates" : [ 139.6233594356, 35.4821705069 ]
			},
			"properties" : {
				"高さ" : "11.8",
				"行政区域" : "14102",
				"名称" : "斉藤分小学校",
				"住所" : "神奈川県横浜市神奈川区斉藤分町34-1",
				"施設の種類" : "避難所",
				"収容人数" : null,
				"施設規模" : "4294",
				"対象とする災害の分類" : "地震災害",
				"レベル" : "1"
			}
		},
		{
			"type" : "Feature",
			"geometry" : {
				"type" : "Point",
				"coordinates" : [ 139.6379055725, 35.4955124845 ]
			},
			"properties" : {
				"高さ" : "14.7",
				"行政区域" : "14102",
				"名称" : "大口台小学校",
				"住所" : "神奈川県横浜市神奈川区大口仲町460",
				"施設の種類" : "避難所",
				"収容人数" : null,
				"施設規模" : "4543",
				"対象とする災害の分類" : "地震災害",
				"レベル" : "1"
			}
		},
		{
			"type" : "Feature",
			"geometry" : {
				"type" : "Point",
				"coordinates" : [ 139.5861064515, 35.4963735085 ]
			},
			"properties" : {
				"高さ" : "15.2",
				"行政区域" : "14102",
				"名称" : "池上小学校",
				"住所" : "神奈川県横浜市神奈川区菅田町1393",
				"施設の種類" : "避難所",
				"収容人数" : null,
				"施設規模" : "4882",
				"対象とする災害の分類" : "地震災害",
				"レベル" : "1"
			}
		},
		{
			"type" : "Feature",
			"geometry" : {
				"type" : "Point",
				"coordinates" : [ 139.6028553861, 35.4822645189 ]
			},
			"properties" : {
				"高さ" : "14.6",
				"行政区域" : "14102",
				"名称" : "中丸小学校",
				"住所" : "神奈川県横浜市神奈川区神大寺3-17-1",
				"施設の種類" : "避難所",
				"収容人数" : null,
				"施設規模" : "4199",
				"対象とする災害の分類" : "地震災害",
				"レベル" : "1"
			}
		},
		{
			"type" : "Feature",
			"geometry" : {
				"type" : "Point",
				"coordinates" : [ 139.6122154281, 35.4850425111 ]
			},
			"properties" : {
				"高さ" : "14.9",
				"行政区域" : "14102",
				"名称" : "南神大寺小学校",
				"住所" : "神奈川県横浜市神奈川区神大寺2-9-16",
				"施設の種類" : "避難所",
				"収容人数" : null,
				"施設規模" : "5091",
				"対象とする災害の分類" : "地震災害",
				"レベル" : "1"
			}
		},
		{
			"type" : "Feature",
			"geometry" : {
				"type" : "Point",
				"coordinates" : [ 139.6288244377, 35.4806525055 ]
			},
			"properties" : {
				"高さ" : "14.6",
				"行政区域" : "14102",
				"名称" : "二谷小学校",
				"住所" : "神奈川県横浜市神奈川区平川町11-1",
				"施設の種類" : "避難所",
				"収容人数" : null,
				"施設規模" : "4271",
				"対象とする災害の分類" : "地震災害",
				"レベル" : "1"
			}
		},
		{
			"type" : "Feature",
			"geometry" : {
				"type" : "Point",
				"coordinates" : [ 139.6318235266, 35.4914564917 ]
			},
			"properties" : {
				"高さ" : "11.4",
				"行政区域" : "14102",
				"名称" : "白幡小学校",
				"住所" : "神奈川県横浜市神奈川区白幡上町11-1",
				"施設の種類" : "避難所",
				"収容人数" : null,
				"施設規模" : "5702",
				"対象とする災害の分類" : "地震災害",
				"レベル" : "1"
			}
		}
	]
}