{
	"type" : "FeatureCollection",
	"name" : "14104_yokohama-shi_naka-ku_shelter",
	"features" : [
		{
			"type" : "Feature",
			"geometry" : {
				"type" : "Point",
				"coordinates" : [ 139.6556289824, 35.4179385864 ]
			},
			"properties" : {
				"高さ" : "11",
				"行政区域" : "14104",
				"名称" : "間門小学校",
				"住所" : "神奈川県横浜市中区本牧間門29-1",
				"施設の種類" : "避難所",
				"収容人数" : null,
				"施設規模" : "5407",
				"対象とする災害の分類" : "地震災害",
				"レベル" : "1"
			}
		},
		{
			"type" : "Feature",
			"geometry" : {
				"type" : "Point",
				"coordinates" : [ 139.6327971558, 35.4427975506 ]
			},
			"properties" : {
				"高さ" : "22.8",
				"行政区域" : "14104",
				"名称" : "吉田中学校",
				"住所" : "神奈川県横浜市中区羽衣町3-84",
				"施設の種類" : "避難所",
				"収容人数" : null,
				"施設規模" : "5648",
				"対象とする災害の分類" : "地震災害",
				"レベル" : "1"
			}
		},
		{
			"type" : "Feature",
			"geometry" : {
				"type" : "Point",
				"coordinates" : [ 139.6489883042, 35.4360576334 ]
			},
			"properties" : {
				"高さ" : "14.6",
				"行政区域" : "14104",
				"名称" : "元街小学校",
				"住所" : "神奈川県横浜市中区山手町36",
				"施設の種類" : "避難所",
				"収容人数" : null,
				"施設規模" : "5461",
				"対象とする災害の分類" : "地震災害",
				"レベル" : "1"
			}
		},
		{
			"type" : "Feature",
			"geometry" : {
				"type" : "Point",
				"coordinates" : [ 139.6431851781, 35.4413525451 ]
			},
			"properties" : {
				"高さ" : "16.3",
				"行政区域" : "14104",
				"名称" : "港中学校",
				"住所" : "神奈川県横浜市中区山下町241",
				"施設の種類" : "避難所",
				"収容人数" : null,
				"施設規模" : "5045",
				"対象とする災害の分類" : "地震災害",
				"レベル" : "1"
			}
		},
		{
			"type" : "Feature",
			"geometry" : {
				"type" : "Point",
				"coordinates" : [ 139.6380046607, 35.4276870544 ]
			},
			"properties" : {
				"高さ" : "11.2",
				"行政区域" : "14104",
				"名称" : "山元小学校",
				"住所" : "神奈川県横浜市中区山元町3-152",
				"施設の種類" : "避難所",
				"収容人数" : null,
				"施設規模" : "5242",
				"対象とする災害の分類" : "地震災害",
				"レベル" : "1"
			}
		},
		{
			"type" : "Feature",
			"geometry" : {
				"type" : "Point",
				"coordinates" : [ 139.6565162732, 35.4273308528 ]
			},
			"properties" : {
				"高さ" : "15.4",
				"行政区域" : "14104",
				"名称" : "大鳥小学校",
				"住所" : "神奈川県横浜市中区本牧町1-251",
				"施設の種類" : "避難所",
				"収容人数" : null,
				"施設規模" : "6290",
				"対象とする災害の分類" : "地震災害",
				"レベル" : "1"
			}
		},
		{
			"type" : "Feature",
			"geometry" : {
				"type" : "Point",
				"coordinates" : [ 139.6451063413, 35.4257444728 ]
			},
			"properties" : {
				"高さ" : "15.3",
				"行政区域" : "14104",
				"名称" : "仲尾台中学校",
				"住所" : "神奈川県横浜市中区仲尾台23",
				"施設の種類" : "避難所",
				"収容人数" : null,
				"施設規模" : "6769",
				"対象とする災害の分類" : "地震災害",
				"レベル" : "1"
			}
		},
		{
			"type" : "Feature",
			"geometry" : {
				"type" : "Point",
				"coordinates" : [ 139.6337971288, 35.4392425555 ]
			},
			"properties" : {
				"高さ" : "11.5",
				"行政区域" : "14104",
				"名称" : "富士見中学校",
				"住所" : "神奈川県横浜市中区山田町3-9",
				"施設の種類" : "避難所",
				"収容人数" : null,
				"施設規模" : "3381",
				"対象とする災害の分類" : "地震災害",
				"レベル" : "1"
			}
		},
		{
			"type" : "Feature",
			"geometry" : {
				"type" : "Point",
				"coordinates" : [ 139.6537951746, 35.436522353 ]
			},
			"properties" : {
				"高さ" : "14.9",
				"行政区域" : "14104",
				"名称" : "北方小学校",
				"住所" : "神奈川県横浜市中区諏訪町29",
				"施設の種類" : "避難所",
				"収容人数" : null,
				"施設規模" : "5305",
				"対象とする災害の分類" : "地震災害",
				"レベル" : "1"
			}
		},
		{
			"type" : "Feature",
			"geometry" : {
				"type" : "Point",
				"coordinates" : [ 139.6285842056, 35.4505345415 ]
			},
			"properties" : {
				"高さ" : "12",
				"行政区域" : "14104",
				"名称" : "本町小学校",
				"住所" : "神奈川県横浜市中区花咲町3-86",
				"施設の種類" : "避難所",
				"収容人数" : null,
				"施設規模" : "5449",
				"対象とする災害の分類" : "指定なし",
				"レベル" : "1"
			}
		},
		{
			"type" : "Feature",
			"geometry" : {
				"type" : "Point",
				"coordinates" : [ 139.6622950632, 35.4246595676 ]
			},
			"properties" : {
				"高さ" : "12.1",
				"行政区域" : "14104",
				"名称" : "本牧小学校",
				"住所" : "神奈川県横浜市中区本牧和田5-1",
				"施設の種類" : "避難所",
				"収容人数" : null,
				"施設規模" : "3219",
				"対象とする災害の分類" : "地震災害",
				"レベル" : "1"
			}
		},
		{
			"type" : "Feature",
			"geometry" : {
				"type" : "Point",
				"coordinates" : [ 139.6685303625, 35.4164301605 ]
			},
			"properties" : {
				"高さ" : "15",
				"行政区域" : "14104",
				"名称" : "本牧南小学校",
				"住所" : "神奈川県横浜市中区本牧元町44-1",
				"施設の種類" : "避難所",
				"収容人数" : null,
				"施設規模" : "4757",
				"対象とする災害の分類" : "地震災害",
				"レベル" : "1"
			}
		},
		{
			"type" : "Feature",
			"geometry" : {
				"type" : "Point",
				"coordinates" : [ 139.6451300565, 35.4272715696 ]
			},
			"properties" : {
				"高さ" : "15.5",
				"行政区域" : "14104",
				"名称" : "立野小学校",
				"住所" : "神奈川県横浜市中区立野76",
				"施設の種類" : "避難所",
				"収容人数" : null,
				"施設規模" : "4914",
				"対象とする災害の分類" : "地震災害",
				"レベル" : "1"
			}
		}
	]
}