{
	"type" : "FeatureCollection",
	"name" : "14105_yokohama-shi_minami-ku_shelter",
	"features" : [
		{
			"type" : "Feature",
			"geometry" : {
				"type" : "Point",
				"coordinates" : [ 139.5995499616, 35.4326875917 ]
			},
			"properties" : {
				"高さ" : "15.3",
				"行政区域" : "14105",
				"名称" : "井土ヶ谷小学校",
				"住所" : "神奈川県横浜市南区井土ヶ谷上町2-l",
				"施設の種類" : "避難所",
				"収容人数" : null,
				"施設規模" : "6085",
				"対象とする災害の分類" : "指定なし",
				"レベル" : "1"
			}
		},
		{
			"type" : "Feature",
			"geometry" : {
				"type" : "Point",
				"coordinates" : [ 139.5915276571, 35.435514739 ]
			},
			"properties" : {
				"高さ" : "15.1",
				"行政区域" : "14105",
				"名称" : "永田小学校",
				"住所" : "神奈川県横浜市南区永田北2-6-12",
				"施設の種類" : "避難所",
				"収容人数" : null,
				"施設規模" : "5503",
				"対象とする災害の分類" : "地震災害",
				"レベル" : "1"
			}
		},
		{
			"type" : "Feature",
			"geometry" : {
				"type" : "Point",
				"coordinates" : [ 139.5894399406, 35.4326865977 ]
			},
			"properties" : {
				"高さ" : "14.7",
				"行政区域" : "14105",
				"名称" : "永田台小学校",
				"住所" : "神奈川県横浜市南区永田みなみ台6-l",
				"施設の種類" : "避難所",
				"収容人数" : null,
				"施設規模" : "6158",
				"対象とする災害の分類" : "地震災害",
				"レベル" : "1"
			}
		},
		{
			"type" : "Feature",
			"geometry" : {
				"type" : "Point",
				"coordinates" : [ 139.5873569466, 35.4337975969 ]
			},
			"properties" : {
				"高さ" : "14.7",
				"行政区域" : "14105",
				"名称" : "永田中学校",
				"住所" : "神奈川県横浜市南区永田みなみ台7-l",
				"施設の種類" : "避難所",
				"収容人数" : null,
				"施設規模" : "6048",
				"対象とする災害の分類" : "地震災害",
				"レベル" : "1"
			}
		},
		{
			"type" : "Feature",
			"geometry" : {
				"type" : "Point",
				"coordinates" : [ 139.616965012, 35.4327435787 ]
			},
			"properties" : {
				"高さ" : "12.8",
				"行政区域" : "14105",
				"名称" : "共進中学校",
				"住所" : "神奈川県横浜市南区東蒔田町1-5",
				"施設の種類" : "避難所",
				"収容人数" : null,
				"施設規模" : "6250",
				"対象とする災害の分類" : "地震災害",
				"レベル" : "1"
			}
		},
		{
			"type" : "Feature",
			"geometry" : {
				"type" : "Point",
				"coordinates" : [ 139.6132644084, 35.4258783561 ]
			},
			"properties" : {
				"高さ" : "9.9",
				"行政区域" : "14105",
				"名称" : "蒔田小学校",
				"住所" : "神奈川県横浜市南区蒔田町1020",
				"施設の種類" : "避難所",
				"収容人数" : null,
				"施設規模" : "4747",
				"対象とする災害の分類" : "指定なし",
				"レベル" : "1"
			}
		},
		{
			"type" : "Feature",
			"geometry" : {
				"type" : "Point",
				"coordinates" : [ 139.6093549843, 35.4322705851 ]
			},
			"properties" : {
				"高さ" : "15.6",
				"行政区域" : "14105",
				"名称" : "蒔田中学校",
				"住所" : "神奈川県横浜市南区花之木町2-45",
				"施設の種類" : "避難所",
				"収容人数" : null,
				"施設規模" : "6884",
				"対象とする災害の分類" : "地震災害",
				"レベル" : "1"
			}
		},
		{
			"type" : "Feature",
			"geometry" : {
				"type" : "Point",
				"coordinates" : [ 139.6357690933, 35.4344095617 ]
			},
			"properties" : {
				"高さ" : "13.4",
				"行政区域" : "14105",
				"名称" : "石川小学校",
				"住所" : "神奈川県横浜市南区中村町1-66",
				"施設の種類" : "避難所",
				"収容人数" : null,
				"施設規模" : "5068",
				"対象とする災害の分類" : "指定なし",
				"レベル" : "1"
			}
		},
		{
			"type" : "Feature",
			"geometry" : {
				"type" : "Point",
				"coordinates" : [ 139.6174943106, 35.4410250866 ]
			},
			"properties" : {
				"高さ" : "14.9",
				"行政区域" : "14105",
				"名称" : "太田小学校",
				"住所" : "神奈川県横浜市南区三春台42",
				"施設の種類" : "避難所",
				"収容人数" : null,
				"施設規模" : "4484",
				"対象とする災害の分類" : "指定なし",
				"レベル" : "1"
			}
		},
		{
			"type" : "Feature",
			"geometry" : {
				"type" : "Point",
				"coordinates" : [ 139.6008829004, 35.4258826018 ]
			},
			"properties" : {
				"高さ" : "11.2",
				"行政区域" : "14105",
				"名称" : "大岡小学校",
				"住所" : "神奈川県横浜市南区大橋町3-49",
				"施設の種類" : "避難所",
				"収容人数" : null,
				"施設規模" : "5643",
				"対象とする災害の分類" : "地震災害",
				"レベル" : "1"
			}
		},
		{
			"type" : "Feature",
			"geometry" : {
				"type" : "Point",
				"coordinates" : [ 139.6260200447, 35.4329655709 ]
			},
			"properties" : {
				"高さ" : "15.2",
				"行政区域" : "14105",
				"名称" : "中村小学校",
				"住所" : "神奈川県横浜市南区中村町4-269-l",
				"施設の種類" : "避難所",
				"収容人数" : null,
				"施設規模" : "5160",
				"対象とする災害の分類" : "地震災害",
				"レベル" : "1"
			}
		},
		{
			"type" : "Feature",
			"geometry" : {
				"type" : "Point",
				"coordinates" : [ 139.6049107781, 35.412440625 ]
			},
			"properties" : {
				"高さ" : "11.2",
				"行政区域" : "14105",
				"名称" : "藤の木小学校",
				"住所" : "神奈川県横浜市南区大岡4-10-l",
				"施設の種類" : "避難所",
				"収容人数" : null,
				"施設規模" : "5090",
				"対象とする災害の分類" : "指定なし",
				"レベル" : "1"
			}
		},
		{
			"type" : "Feature",
			"geometry" : {
				"type" : "Point",
				"coordinates" : [ 139.6061486647, 35.4107536264 ]
			},
			"properties" : {
				"高さ" : "9.8",
				"行政区域" : "14105",
				"名称" : "藤の木中学校",
				"住所" : "神奈川県横浜市南区大岡4-44-1",
				"施設の種類" : "避難所",
				"収容人数" : null,
				"施設規模" : "5257",
				"対象とする災害の分類" : "指定なし",
				"レベル" : "1"
			}
		},
		{
			"type" : "Feature",
			"geometry" : {
				"type" : "Point",
				"coordinates" : [ 139.5906396145, 35.4138054078 ]
			},
			"properties" : {
				"高さ" : "14.9",
				"行政区域" : "14105",
				"名称" : "南が丘中学校",
				"住所" : "神奈川県横浜市南区別所3-6-l",
				"施設の種類" : "避難所",
				"収容人数" : null,
				"施設規模" : "5849",
				"対象とする災害の分類" : "指定なし",
				"レベル" : "1"
			}
		},
		{
			"type" : "Feature",
			"geometry" : {
				"type" : "Point",
				"coordinates" : [ 139.6267700805, 35.4366035652 ]
			},
			"properties" : {
				"高さ" : "14.7",
				"行政区域" : "14105",
				"名称" : "南吉田小学校",
				"住所" : "神奈川県横浜市南区同根町2-14",
				"施設の種類" : "避難所",
				"収容人数" : null,
				"施設規模" : "5493",
				"対象とする災害の分類" : "地震災害",
				"レベル" : "1"
			}
		},
		{
			"type" : "Feature",
			"geometry" : {
				"type" : "Point",
				"coordinates" : [ 139.5987022557, 35.4190924173 ]
			},
			"properties" : {
				"高さ" : "11.5",
				"行政区域" : "14105",
				"名称" : "南小学校",
				"住所" : "神奈川県横浜市南区中里1-6-16",
				"施設の種類" : "避難所",
				"収容人数" : null,
				"施設規模" : "5343",
				"対象とする災害の分類" : "地震災害",
				"レベル" : "1"
			}
		},
		{
			"type" : "Feature",
			"geometry" : {
				"type" : "Point",
				"coordinates" : [ 139.6113990182, 35.4353015786 ]
			},
			"properties" : {
				"高さ" : "15.1",
				"行政区域" : "14105",
				"名称" : "南太田小学校",
				"住所" : "神奈川県横浜市南区南太田l-17-l",
				"施設の種類" : "避難所",
				"収容人数" : null,
				"施設規模" : "5572",
				"対象とする災害の分類" : "地震災害",
				"レベル" : "1"
			}
		},
		{
			"type" : "Feature",
			"geometry" : {
				"type" : "Point",
				"coordinates" : [ 139.5971059033, 35.4270216025 ]
			},
			"properties" : {
				"高さ" : "15.1",
				"行政区域" : "14105",
				"名称" : "南中学校",
				"住所" : "神奈川県横浜市南区六ツ川l-14",
				"施設の種類" : "避難所",
				"収容人数" : null,
				"施設規模" : "6244",
				"対象とする災害の分類" : "指定なし",
				"レベル" : "1"
			}
		},
		{
			"type" : "Feature",
			"geometry" : {
				"type" : "Point",
				"coordinates" : [ 139.6166040379, 35.4356595745 ]
			},
			"properties" : {
				"高さ" : "15.3",
				"行政区域" : "14105",
				"名称" : "日枝小学校",
				"住所" : "神奈川県横浜市南区山王町5-31",
				"施設の種類" : "避難所",
				"収容人数" : null,
				"施設規模" : "5077",
				"対象とする災害の分類" : "地震災害",
				"レベル" : "1"
			}
		},
		{
			"type" : "Feature",
			"geometry" : {
				"type" : "Point",
				"coordinates" : [ 139.6335200557, 35.4312985695 ]
			},
			"properties" : {
				"高さ" : "16.3",
				"行政区域" : "14105",
				"名称" : "平楽中学校",
				"住所" : "神奈川県横浜市南区平楽1",
				"施設の種類" : "避難所",
				"収容人数" : null,
				"施設規模" : "5990",
				"対象とする災害の分類" : "指定なし",
				"レベル" : "1"
			}
		},
		{
			"type" : "Feature",
			"geometry" : {
				"type" : "Point",
				"coordinates" : [ 139.5817902139, 35.4170519091 ]
			},
			"properties" : {
				"高さ" : "15.2",
				"行政区域" : "14105",
				"名称" : "別所小学校",
				"住所" : "神奈川県横浜市南区別所6-3-l",
				"施設の種類" : "避難所",
				"収容人数" : null,
				"施設規模" : "4999",
				"対象とする災害の分類" : "地震災害",
				"レベル" : "1"
			}
		},
		{
			"type" : "Feature",
			"geometry" : {
				"type" : "Point",
				"coordinates" : [ 139.5841299155, 35.4289606393 ]
			},
			"properties" : {
				"高さ" : "11.9",
				"行政区域" : "14105",
				"名称" : "六つ川小学校",
				"住所" : "神奈川県横浜市南区六ツ川3-4-12",
				"施設の種類" : "避難所",
				"収容人数" : null,
				"施設規模" : "5300",
				"対象とする災害の分類" : "地震災害",
				"レベル" : "1"
			}
		},
		{
			"type" : "Feature",
			"geometry" : {
				"type" : "Point",
				"coordinates" : [ 139.577807849, 35.4248856206 ]
			},
			"properties" : {
				"高さ" : "8.9",
				"行政区域" : "14105",
				"名称" : "六つ川西小学校",
				"住所" : "神奈川県横浜市南区六ツ川2-156-1",
				"施設の種類" : "避難所",
				"収容人数" : null,
				"施設規模" : "4975",
				"対象とする災害の分類" : "地震災害",
				"レベル" : "1"
			}
		},
		{
			"type" : "Feature",
			"geometry" : {
				"type" : "Point",
				"coordinates" : [ 139.5805238901, 35.428881611 ]
			},
			"properties" : {
				"高さ" : "7.7",
				"行政区域" : "14105",
				"名称" : "六つ川台小学校",
				"住所" : "神奈川県横浜市南区六ツ川3-65-9",
				"施設の種類" : "避難所",
				"収容人数" : null,
				"施設規模" : "5975",
				"対象とする災害の分類" : "地震災害",
				"レベル" : "1"
			}
		},
		{
			"type" : "Feature",
			"geometry" : {
				"type" : "Point",
				"coordinates" : [ 139.5783578866, 35.4288816127 ]
			},
			"properties" : {
				"高さ" : "11.5",
				"行政区域" : "14105",
				"名称" : "六ツ川中学校",
				"住所" : "神奈川県横浜市南区六ツ川3-81-11",
				"施設の種類" : "避難所",
				"収容人数" : null,
				"施設規模" : "5952",
				"対象とする災害の分類" : "地震災害",
				"レベル" : "1"
			}
		}
	]
}