{
	"type" : "FeatureCollection",
	"name" : "14103_yokohama-shi_nishi-ku_shelter",
	"features" : [
		{
			"type" : "Feature",
			"geometry" : {
				"type" : "Point",
				"coordinates" : [ 139.6188811456, 35.4468525546 ]
			},
			"properties" : {
				"高さ" : "16.2",
				"行政区域" : "14103",
				"名称" : "一本松小学校",
				"住所" : "神奈川県横浜市西区西戸部町1-115",
				"施設の種類" : "避難所",
				"収容人数" : null,
				"施設規模" : "4295",
				"対象とする災害の分類" : "地震災害",
				"レベル" : "1"
			}
		},
		{
			"type" : "Feature",
			"geometry" : {
				"type" : "Point",
				"coordinates" : [ 139.6124101436, 35.4488795562 ]
			},
			"properties" : {
				"高さ" : "11.2",
				"行政区域" : "14103",
				"名称" : "稲荷台小学校",
				"住所" : "神奈川県横浜市西区藤棚町2-220",
				"施設の種類" : "避難所",
				"収容人数" : null,
				"施設規模" : "4508",
				"対象とする災害の分類" : "指定なし",
				"レベル" : "1"
			}
		},
		{
			"type" : "Feature",
			"geometry" : {
				"type" : "Point",
				"coordinates" : [ 139.6119638932, 35.4619754494 ]
			},
			"properties" : {
				"高さ" : "10.9",
				"行政区域" : "14103",
				"名称" : "岡野中学校",
				"住所" : "神奈川県横浜市西区岡野2-14-1",
				"施設の種類" : "避難所",
				"収容人数" : null,
				"施設規模" : "4053",
				"対象とする災害の分類" : "地震災害",
				"レベル" : "1"
			}
		},
		{
			"type" : "Feature",
			"geometry" : {
				"type" : "Point",
				"coordinates" : [ 139.6085492755, 35.4662665342 ]
			},
			"properties" : {
				"高さ" : "15.2",
				"行政区域" : "14103",
				"名称" : "宮谷小学校",
				"住所" : "神奈川県横浜市西区宮ケ谷6-7",
				"施設の種類" : "避難所",
				"収容人数" : null,
				"施設規模" : "5827",
				"対象とする災害の分類" : "指定なし",
				"レベル" : "1"
			}
		},
		{
			"type" : "Feature",
			"geometry" : {
				"type" : "Point",
				"coordinates" : [ 139.6096084039, 35.468881 ]
			},
			"properties" : {
				"高さ" : "18.9",
				"行政区域" : "14103",
				"名称" : "軽井沢中学校",
				"住所" : "神奈川県横浜市西区北軽井沢24",
				"施設の種類" : "避難所",
				"収容人数" : null,
				"施設規模" : "3491",
				"対象とする災害の分類" : "地震災害",
				"レベル" : "1"
			}
		},
		{
			"type" : "Feature",
			"geometry" : {
				"type" : "Point",
				"coordinates" : [ 139.6218024753, 35.453119961 ]
			},
			"properties" : {
				"高さ" : "14.8",
				"行政区域" : "14103",
				"名称" : "戸部小学校",
				"住所" : "神奈川県横浜市西区伊勢町2-115",
				"施設の種類" : "避難所",
				"収容人数" : null,
				"施設規模" : "4840",
				"対象とする災害の分類" : "指定なし",
				"レベル" : "1"
			}
		},
		{
			"type" : "Feature",
			"geometry" : {
				"type" : "Point",
				"coordinates" : [ 139.6157701935, 35.4537405461 ]
			},
			"properties" : {
				"高さ" : "11.1",
				"行政区域" : "14103",
				"名称" : "西前小学校",
				"住所" : "神奈川県横浜市西区中央2-27-7",
				"施設の種類" : "避難所",
				"収容人数" : null,
				"施設規模" : "5269",
				"対象とする災害の分類" : "指定なし",
				"レベル" : "1"
			}
		},
		{
			"type" : "Feature",
			"geometry" : {
				"type" : "Point",
				"coordinates" : [ 139.6184091875, 35.4519905469 ]
			},
			"properties" : {
				"高さ" : "11.4",
				"行政区域" : "14103",
				"名称" : "西中学校",
				"住所" : "神奈川県横浜市西区西戸部町3-286",
				"施設の種類" : "避難所",
				"収容人数" : null,
				"施設規模" : "4571",
				"対象とする災害の分類" : "地震災害",
				"レベル" : "1"
			}
		},
		{
			"type" : "Feature",
			"geometry" : {
				"type" : "Point",
				"coordinates" : [ 139.6061052338, 35.4618505412 ]
			},
			"properties" : {
				"高さ" : "14.3",
				"行政区域" : "14103",
				"名称" : "浅間台小学校",
				"住所" : "神奈川県横浜市西区浅間町3-237",
				"施設の種類" : "避難所",
				"収容人数" : null,
				"施設規模" : "4329",
				"対象とする災害の分類" : "指定なし",
				"レベル" : "1"
			}
		},
		{
			"type" : "Feature",
			"geometry" : {
				"type" : "Point",
				"coordinates" : [ 139.6238251302, 35.443269556 ]
			},
			"properties" : {
				"高さ" : "16.1",
				"行政区域" : "14103",
				"名称" : "東小学校",
				"住所" : "神奈川県横浜市西区東ヶ丘59",
				"施設の種類" : "避難所",
				"収容人数" : null,
				"施設規模" : "4937",
				"対象とする災害の分類" : "地震災害",
				"レベル" : "1"
			}
		},
		{
			"type" : "Feature",
			"geometry" : {
				"type" : "Point",
				"coordinates" : [ 139.6157702241, 35.4575175406 ]
			},
			"properties" : {
				"高さ" : "7.9",
				"行政区域" : "14103",
				"名称" : "平沼小学校",
				"住所" : "神奈川県横浜市西区平沼2-11-36",
				"施設の種類" : "避難所",
				"収容人数" : null,
				"施設規模" : "5596",
				"対象とする災害の分類" : "地震災害",
				"レベル" : "1"
			}
		},
		{
			"type" : "Feature",
			"geometry" : {
				"type" : "Point",
				"coordinates" : [ 139.6248441626, 35.4478286571 ]
			},
			"properties" : {
				"高さ" : "15.5",
				"行政区域" : "14103",
				"名称" : "老松中学校",
				"住所" : "神奈川県横浜市西区老松町27",
				"施設の種類" : "避難所",
				"収容人数" : null,
				"施設規模" : "5646",
				"対象とする災害の分類" : "地震災害",
				"レベル" : "1"
			}
		}
	]
}