{
	"type" : "FeatureCollection",
	"name" : "14109_yokohama-shi_kohoku-ku_shelter",
	"features" : [
		{
			"type" : "Feature",
			"geometry" : {
				"type" : "Point",
				"coordinates" : [ 139.629961965, 35.5575604514 ]
			},
			"properties" : {
				"高さ" : "15.1",
				"行政区域" : "14109",
				"名称" : "下田小学校",
				"住所" : "神奈川県横浜市港北区下田町4-10-1",
				"施設の種類" : "避難所",
				"収容人数" : null,
				"施設規模" : "6424",
				"対象とする災害の分類" : "指定なし",
				"レベル" : "1"
			}
		},
		{
			"type" : "Feature",
			"geometry" : {
				"type" : "Point",
				"coordinates" : [ 139.6347923431, 35.5130818909 ]
			},
			"properties" : {
				"高さ" : "14",
				"行政区域" : "14109",
				"名称" : "菊名小学校",
				"住所" : "神奈川県横浜市港北区菊名5-18-1",
				"施設の種類" : "避難所",
				"収容人数" : null,
				"施設規模" : "5707",
				"対象とする災害の分類" : "指定なし",
				"レベル" : "1"
			}
		},
		{
			"type" : "Feature",
			"geometry" : {
				"type" : "Point",
				"coordinates" : [ 139.635155953, 35.5525334514 ]
			},
			"properties" : {
				"高さ" : "14.7",
				"行政区域" : "14109",
				"名称" : "駒林小学校",
				"住所" : "神奈川県横浜市港北区日吉本町2-51-1",
				"施設の種類" : "避難所",
				"収容人数" : null,
				"施設規模" : "5425",
				"対象とする災害の分類" : "指定なし",
				"レベル" : "1"
			}
		},
		{
			"type" : "Feature",
			"geometry" : {
				"type" : "Point",
				"coordinates" : [ 139.6361566028, 35.5001514818 ]
			},
			"properties" : {
				"高さ" : "11",
				"行政区域" : "14109",
				"名称" : "港北小学校",
				"住所" : "神奈川県横浜市港北区菊名2-15-1",
				"施設の種類" : "避難所",
				"収容人数" : null,
				"施設規模" : "5558",
				"対象とする災害の分類" : "地震災害",
				"レベル" : "1"
			}
		},
		{
			"type" : "Feature",
			"geometry" : {
				"type" : "Point",
				"coordinates" : [ 139.6279628365, 35.5373974617 ]
			},
			"properties" : {
				"高さ" : "11.2",
				"行政区域" : "14109",
				"名称" : "綱島小学校",
				"住所" : "神奈川県横浜市港北区綱島西3-11-1",
				"施設の種類" : "避難所",
				"収容人数" : null,
				"施設規模" : "7517",
				"対象とする災害の分類" : "地震災害",
				"レベル" : "1"
			}
		},
		{
			"type" : "Feature",
			"geometry" : {
				"type" : "Point",
				"coordinates" : [ 139.640572876, 35.5377584563 ]
			},
			"properties" : {
				"高さ" : "14.8",
				"行政区域" : "14109",
				"名称" : "綱島東小学校",
				"住所" : "神奈川県横浜市港北区綱島東3-1-30",
				"施設の種類" : "避難所",
				"収容人数" : null,
				"施設規模" : "5712",
				"対象とする災害の分類" : "地震災害",
				"レベル" : "1"
			}
		},
		{
			"type" : "Feature",
			"geometry" : {
				"type" : "Point",
				"coordinates" : [ 139.6196849277, 35.5564494546 ]
			},
			"properties" : {
				"高さ" : "11.2",
				"行政区域" : "14109",
				"名称" : "高田小学校",
				"住所" : "神奈川県横浜市港北区両田町1774",
				"施設の種類" : "避難所",
				"収容人数" : null,
				"施設規模" : "4091",
				"対象とする災害の分類" : "指定なし",
				"レベル" : "1"
			}
		},
		{
			"type" : "Feature",
			"geometry" : {
				"type" : "Point",
				"coordinates" : [ 139.624990919, 35.5523114561 ]
			},
			"properties" : {
				"高さ" : "14.9",
				"行政区域" : "14109",
				"名称" : "高田東小学校",
				"住所" : "神奈川県横浜市港北区向田東2-33-1",
				"施設の種類" : "避難所",
				"収容人数" : null,
				"施設規模" : "4068",
				"対象とする災害の分類" : "指定なし",
				"レベル" : "1"
			}
		},
		{
			"type" : "Feature",
			"geometry" : {
				"type" : "Point",
				"coordinates" : [ 139.6387677756, 35.5237324635 ]
			},
			"properties" : {
				"高さ" : "14.6",
				"行政区域" : "14109",
				"名称" : "師岡小学校",
				"住所" : "神奈川県横浜市港北区師岡町986",
				"施設の種類" : "避難所",
				"収容人数" : null,
				"施設規模" : "5935",
				"対象とする災害の分類" : "指定なし",
				"レベル" : "1"
			}
		},
		{
			"type" : "Feature",
			"geometry" : {
				"type" : "Point",
				"coordinates" : [ 139.6269226411, 35.5029228601 ]
			},
			"properties" : {
				"高さ" : "15.4",
				"行政区域" : "14109",
				"名称" : "篠原小学校",
				"住所" : "神奈川県横浜市港北区篠原東3-27-1",
				"施設の種類" : "避難所",
				"収容人数" : null,
				"施設規模" : "4455",
				"対象とする災害の分類" : "地震災害",
				"レベル" : "1"
			}
		},
		{
			"type" : "Feature",
			"geometry" : {
				"type" : "Point",
				"coordinates" : [ 139.6151315616, 35.5019844939 ]
			},
			"properties" : {
				"高さ" : "14.3",
				"行政区域" : "14109",
				"名称" : "篠原西小学校",
				"住所" : "神奈川県横浜市港北区篠原町1241-1",
				"施設の種類" : "避難所",
				"収容人数" : null,
				"施設規模" : "4901",
				"対象とする災害の分類" : "指定なし",
				"レベル" : "1"
			}
		},
		{
			"type" : "Feature",
			"geometry" : {
				"type" : "Point",
				"coordinates" : [ 139.5977995434, 35.5054564967 ]
			},
			"properties" : {
				"高さ" : "15",
				"行政区域" : "14109",
				"名称" : "小机小学校",
				"住所" : "神奈川県横浜市港北区小机町1382-10",
				"施設の種類" : "避難所",
				"収容人数" : null,
				"施設規模" : "5216",
				"対象とする災害の分類" : "指定なし",
				"レベル" : "1"
			}
		},
		{
			"type" : "Feature",
			"geometry" : {
				"type" : "Point",
				"coordinates" : [ 139.6024665515, 35.5051504959 ]
			},
			"properties" : {
				"高さ" : "11.3",
				"行政区域" : "14109",
				"名称" : "城郷小学校",
				"住所" : "神奈川県横浜市港北区鳥山町814",
				"施設の種類" : "避難所",
				"収容人数" : null,
				"施設規模" : "5471",
				"対象とする災害の分類" : "指定なし",
				"レベル" : "1"
			}
		},
		{
			"type" : "Feature",
			"geometry" : {
				"type" : "Point",
				"coordinates" : [ 139.5874115176, 35.5052334983 ]
			},
			"properties" : {
				"高さ" : "11.8",
				"行政区域" : "14109",
				"名称" : "城郷中学校",
				"住所" : "神奈川県横浜市港北区小机町325",
				"施設の種類" : "避難所",
				"収容人数" : null,
				"施設規模" : "5785",
				"対象とする災害の分類" : "指定なし",
				"レベル" : "1"
			}
		},
		{
			"type" : "Feature",
			"geometry" : {
				"type" : "Point",
				"coordinates" : [ 139.6079926874, 35.5227604784 ]
			},
			"properties" : {
				"高さ" : "15.7",
				"行政区域" : "14109",
				"名称" : "新羽小学校",
				"住所" : "神奈川県横浜市港北区新羽町1452-2",
				"施設の種類" : "避難所",
				"収容人数" : null,
				"施設規模" : "3877",
				"対象とする災害の分類" : "指定なし",
				"レベル" : "1"
			}
		},
		{
			"type" : "Feature",
			"geometry" : {
				"type" : "Point",
				"coordinates" : [ 139.6177886151, 35.5384756846 ]
			},
			"properties" : {
				"高さ" : "14.3",
				"行政区域" : "14109",
				"名称" : "新吉田小学校",
				"住所" : "神奈川県横浜市港北区新吉田東6-44-1",
				"施設の種類" : "避難所",
				"収容人数" : null,
				"施設規模" : "5104",
				"対象とする災害の分類" : "地震災害",
				"レベル" : "1"
			}
		},
		{
			"type" : "Feature",
			"geometry" : {
				"type" : "Point",
				"coordinates" : [ 139.6127698705, 35.5498394586 ]
			},
			"properties" : {
				"高さ" : "14.4",
				"行政区域" : "14109",
				"名称" : "新吉田第二小学校",
				"住所" : "神奈川県横浜市港北区新吉田町491-1",
				"施設の種類" : "避難所",
				"収容人数" : null,
				"施設規模" : "4758",
				"対象とする災害の分類" : "指定なし",
				"レベル" : "1"
			}
		},
		{
			"type" : "Feature",
			"geometry" : {
				"type" : "Point",
				"coordinates" : [ 139.6098996629, 35.5333090349 ]
			},
			"properties" : {
				"高さ" : "8.7",
				"行政区域" : "14109",
				"名称" : "新田小学校",
				"住所" : "神奈川県横浜市港北区新吉田町3226-1",
				"施設の種類" : "避難所",
				"収容人数" : null,
				"施設規模" : "4908",
				"対象とする災害の分類" : "指定なし",
				"レベル" : "1"
			}
		},
		{
			"type" : "Feature",
			"geometry" : {
				"type" : "Point",
				"coordinates" : [ 139.6225898665, 35.5412140537 ]
			},
			"properties" : {
				"高さ" : "14.9",
				"行政区域" : "14109",
				"名称" : "新田中学校",
				"住所" : "神奈川県横浜市港北区新吉田東5-25-1",
				"施設の種類" : "避難所",
				"収容人数" : null,
				"施設規模" : "6143",
				"対象とする災害の分類" : "地震災害",
				"レベル" : "1"
			}
		},
		{
			"type" : "Feature",
			"geometry" : {
				"type" : "Point",
				"coordinates" : [ 139.6192417263, 35.5242604734 ]
			},
			"properties" : {
				"高さ" : "16",
				"行政区域" : "14109",
				"名称" : "太尾小学校",
				"住所" : "神奈川県横浜市港北区太尾町1880",
				"施設の種類" : "避難所",
				"収容人数" : null,
				"施設規模" : "5411",
				"対象とする災害の分類" : "指定なし",
				"レベル" : "1"
			}
		},
		{
			"type" : "Feature",
			"geometry" : {
				"type" : "Point",
				"coordinates" : [ 139.6256027071, 35.5189274748 ]
			},
			"properties" : {
				"高さ" : "14.5",
				"行政区域" : "14109",
				"名称" : "大綱小学校",
				"住所" : "神奈川県横浜市港北区太尾町976",
				"施設の種類" : "避難所",
				"収容人数" : null,
				"施設規模" : "5118",
				"対象とする災害の分類" : "指定なし",
				"レベル" : "1"
			}
		},
		{
			"type" : "Feature",
			"geometry" : {
				"type" : "Point",
				"coordinates" : [ 139.6297590658, 35.531846042 ]
			},
			"properties" : {
				"高さ" : "14.6",
				"行政区域" : "14109",
				"名称" : "大曽根小学校",
				"住所" : "神奈川県横浜市港北区大曽根2-31-1",
				"施設の種類" : "避難所",
				"収容人数" : null,
				"施設規模" : "4738",
				"対象とする災害の分類" : "地震災害",
				"レベル" : "1"
			}
		},
		{
			"type" : "Feature",
			"geometry" : {
				"type" : "Point",
				"coordinates" : [ 139.6219066726, 35.5160129828 ]
			},
			"properties" : {
				"高さ" : "14.7",
				"行政区域" : "14109",
				"名称" : "大豆戸小学校",
				"住所" : "神奈川県横浜市港北区大豆戸町759",
				"施設の種類" : "避難所",
				"収容人数" : null,
				"施設規模" : "5644",
				"対象とする災害の分類" : "指定なし",
				"レベル" : "4"
			}
		},
		{
			"type" : "Feature",
			"geometry" : {
				"type" : "Point",
				"coordinates" : [ 139.642322818, 35.528398459 ]
			},
			"properties" : {
				"高さ" : "14.5",
				"行政区域" : "14109",
				"名称" : "樽町中学校",
				"住所" : "神奈川県横浜市港北区樽町4-15-1",
				"施設の種類" : "避難所",
				"収容人数" : null,
				"施設規模" : "7062",
				"対象とする災害の分類" : "指定なし",
				"レベル" : "1"
			}
		},
		{
			"type" : "Feature",
			"geometry" : {
				"type" : "Point",
				"coordinates" : [ 139.6434609832, 35.5527834476 ]
			},
			"properties" : {
				"高さ" : "11.1",
				"行政区域" : "14109",
				"名称" : "日吉台小学校",
				"住所" : "神奈川県横浜市港北区日吉本町1-34-21",
				"施設の種類" : "避難所",
				"収容人数" : null,
				"施設規模" : "4728",
				"対象とする災害の分類" : "指定なし",
				"レベル" : "1"
			}
		},
		{
			"type" : "Feature",
			"geometry" : {
				"type" : "Point",
				"coordinates" : [ 139.6394059184, 35.5448684529 ]
			},
			"properties" : {
				"高さ" : "14.7",
				"行政区域" : "14109",
				"名称" : "日吉南小学校",
				"住所" : "神奈川県横浜市港北区日吉本町4-2-6",
				"施設の種類" : "避難所",
				"収容人数" : null,
				"施設規模" : "5387",
				"対象とする災害の分類" : "地震災害",
				"レベル" : "1"
			}
		},
		{
			"type" : "Feature",
			"geometry" : {
				"type" : "Point",
				"coordinates" : [ 139.6307678853, 35.5439244573 ]
			},
			"properties" : {
				"高さ" : "15.4",
				"行政区域" : "14109",
				"名称" : "北綱島小学校",
				"住所" : "神奈川県横浜市港北区綱島西5-14-40",
				"施設の種類" : "避難所",
				"収容人数" : null,
				"施設規模" : "4707",
				"対象とする災害の分類" : "地震災害",
				"レベル" : "1"
			}
		},
		{
			"type" : "Feature",
			"geometry" : {
				"type" : "Point",
				"coordinates" : [ 139.657627041, 35.5541724381 ]
			},
			"properties" : {
				"高さ" : "24.4",
				"行政区域" : "14109",
				"名称" : "矢上小学校",
				"住所" : "神奈川県横浜市港北区日吉3-23-1",
				"施設の種類" : "避難所",
				"収容人数" : null,
				"施設規模" : "4237",
				"対象とする災害の分類" : "指定なし",
				"レベル" : "1"
			}
		}
	]
}