{
	"type" : "FeatureCollection",
	"name" : "14101_yokohama-shi_tsurumi-ku_station",
	"features" : [
		{
			"type" : "Feature",
			"geometry" : {
				"type" : "Point",
				"coordinates" : [ 139.6775702939, 35.5066682746 ]
			},
			"properties" : {
				"駅名" : "京急鶴見駅",
				"高さ" : "0",
				"鉄道区分" : "普通鉄道",
				"事業者種別" : "民営鉄道",
				"路線名" : "本線",
				"運営会社" : "京浜急行電鉄"
			}
		},
		{
			"type" : "Feature",
			"geometry" : {
				"type" : "Point",
				"coordinates" : [ 139.6673124393, 35.4956793099 ]
			},
			"properties" : {
				"駅名" : "生麦駅",
				"高さ" : "10.6",
				"鉄道区分" : "普通鉄道",
				"事業者種別" : "民営鉄道",
				"路線名" : "本線",
				"運営会社" : "京浜急行電鉄"
			}
		},
		{
			"type" : "Feature",
			"geometry" : {
				"type" : "Point",
				"coordinates" : [ 139.6729088251, 35.5004233454 ]
			},
			"properties" : {
				"駅名" : "花月総持寺駅",
				"高さ" : "10.8",
				"鉄道区分" : "普通鉄道",
				"事業者種別" : "民営鉄道",
				"路線名" : "本線",
				"運営会社" : "京浜急行電鉄"
			}
		},
		{
			"type" : "Feature",
			"geometry" : {
				"type" : "Point",
				"coordinates" : [ 139.6866544711, 35.517865377 ]
			},
			"properties" : {
				"駅名" : "鶴見市場駅",
				"高さ" : "11.4",
				"鉄道区分" : "普通鉄道",
				"事業者種別" : "民営鉄道",
				"路線名" : "本線",
				"運営会社" : "京浜急行電鉄"
			}
		},
		{
			"type" : "Feature",
			"geometry" : {
				"type" : "Point",
				"coordinates" : [ 139.6760434621, 35.5083833663 ]
			},
			"properties" : {
				"駅名" : "鶴見駅",
				"高さ" : "10.2",
				"鉄道区分" : "普通鉄道JR",
				"事業者種別" : "JR在来線",
				"路線名" : "鶴見線",
				"運営会社" : "東日本旅客鉄道"
			}
		},
		{
			"type" : "Feature",
			"geometry" : {
				"type" : "Point",
				"coordinates" : [ 139.6809907036, 35.4973343988 ]
			},
			"properties" : {
				"駅名" : "鶴見小野駅",
				"高さ" : "4.9",
				"鉄道区分" : "普通鉄道JR",
				"事業者種別" : "JR在来線",
				"路線名" : "鶴見線",
				"運営会社" : "東日本旅客鉄道"
			}
		},
		{
			"type" : "Feature",
			"geometry" : {
				"type" : "Point",
				"coordinates" : [ 139.7012533782, 35.4998431636 ]
			},
			"properties" : {
				"駅名" : "安善駅",
				"高さ" : "0",
				"鉄道区分" : "普通鉄道JR",
				"事業者種別" : "JR在来線",
				"路線名" : "鶴見線",
				"運営会社" : "東日本旅客鉄道"
			}
		},
		{
			"type" : "Feature",
			"geometry" : {
				"type" : "Point",
				"coordinates" : [ 139.6894933761, 35.4957981649 ]
			},
			"properties" : {
				"駅名" : "弁天橋駅",
				"高さ" : "0",
				"鉄道区分" : "普通鉄道JR",
				"事業者種別" : "JR在来線",
				"路線名" : "鶴見線",
				"運営会社" : "東日本旅客鉄道"
			}
		},
		{
			"type" : "Feature",
			"geometry" : {
				"type" : "Point",
				"coordinates" : [ 139.7002237987, 35.491669509 ]
			},
			"properties" : {
				"駅名" : "新芝浦駅",
				"高さ" : "5.2",
				"鉄道区分" : "普通鉄道JR",
				"事業者種別" : "JR在来線",
				"路線名" : "鶴見線",
				"運営会社" : "東日本旅客鉄道"
			}
		},
		{
			"type" : "Feature",
			"geometry" : {
				"type" : "Point",
				"coordinates" : [ 139.695683378, 35.4976081644 ]
			},
			"properties" : {
				"駅名" : "浅野駅",
				"高さ" : "0",
				"鉄道区分" : "普通鉄道JR",
				"事業者種別" : "JR在来線",
				"路線名" : "鶴見線",
				"運営会社" : "東日本旅客鉄道"
			}
		},
		{
			"type" : "Feature",
			"geometry" : {
				"type" : "Point",
				"coordinates" : [ 139.675718377, 35.5007731661 ]
			},
			"properties" : {
				"駅名" : "国道駅",
				"高さ" : "0",
				"鉄道区分" : "普通鉄道JR",
				"事業者種別" : "JR在来線",
				"路線名" : "鶴見線",
				"運営会社" : "東日本旅客鉄道"
			}
		},
		{
			"type" : "Feature",
			"geometry" : {
				"type" : "Point",
				"coordinates" : [ 139.6957319633, 35.4974038061 ]
			},
			"properties" : {
				"駅名" : "浅野駅",
				"高さ" : "5.8",
				"鉄道区分" : "普通鉄道JR",
				"事業者種別" : "JR在来線",
				"路線名" : "鶴見線",
				"運営会社" : "東日本旅客鉄道"
			}
		},
		{
			"type" : "Feature",
			"geometry" : {
				"type" : "Point",
				"coordinates" : [ 139.700651254, 35.4860867636 ]
			},
			"properties" : {
				"駅名" : "海芝浦駅",
				"高さ" : "0",
				"鉄道区分" : "普通鉄道JR",
				"事業者種別" : "JR在来線",
				"路線名" : "鶴見線",
				"運営会社" : "東日本旅客鉄道"
			}
		},
		{
			"type" : "Feature",
			"geometry" : {
				"type" : "Point",
				"coordinates" : [ 139.6762557944, 35.508492803 ]
			},
			"properties" : {
				"駅名" : "鶴見駅",
				"高さ" : "9.3",
				"鉄道区分" : "普通鉄道JR",
				"事業者種別" : "JR在来線",
				"路線名" : "東海道線",
				"運営会社" : "東日本旅客鉄道"
			}
		},
		{
			"type" : "Feature",
			"geometry" : {
				"type" : "Point",
				"coordinates" : [ 139.6802594445, 35.5396143607 ]
			},
			"properties" : {
				"駅名" : "矢向駅",
				"高さ" : "5.7",
				"鉄道区分" : "普通鉄道JR",
				"事業者種別" : "JR在来線",
				"路線名" : "南武線",
				"運営会社" : "東日本旅客鉄道"
			}
		}
	]
}