{
	"type" : "FeatureCollection",
	"name" : "14109_yokohama-shi_kohoku-ku_station",
	"features" : [
		{
			"type" : "Feature",
			"geometry" : {
				"type" : "Point",
				"coordinates" : [ 139.6128583722, 35.5192181734 ]
			},
			"properties" : {
				"駅名" : "北新横浜駅",
				"高さ" : "6.9",
				"鉄道区分" : "普通鉄道",
				"事業者種別" : "公営鉄道",
				"路線名" : "3号線",
				"運営会社" : "横浜市"
			}
		},
		{
			"type" : "Feature",
			"geometry" : {
				"type" : "Point",
				"coordinates" : [ 139.6121933773, 35.52686178 ]
			},
			"properties" : {
				"駅名" : "新羽駅",
				"高さ" : "13.5",
				"鉄道区分" : "普通鉄道",
				"事業者種別" : "公営鉄道",
				"路線名" : "3号線",
				"運営会社" : "横浜市"
			}
		},
		{
			"type" : "Feature",
			"geometry" : {
				"type" : "Point",
				"coordinates" : [ 139.6165533672, 35.4955131713 ]
			},
			"properties" : {
				"駅名" : "岸根公園駅",
				"高さ" : "0",
				"鉄道区分" : "普通鉄道",
				"事業者種別" : "公営鉄道",
				"路線名" : "3号線",
				"運営会社" : "横浜市"
			}
		},
		{
			"type" : "Feature",
			"geometry" : {
				"type" : "Point",
				"coordinates" : [ 139.6172533716, 35.5090581724 ]
			},
			"properties" : {
				"駅名" : "新横浜駅",
				"高さ" : "0",
				"鉄道区分" : "普通鉄道",
				"事業者種別" : "公営鉄道",
				"路線名" : "3号線",
				"運営会社" : "横浜市"
			}
		},
		{
			"type" : "Feature",
			"geometry" : {
				"type" : "Point",
				"coordinates" : [ 139.6176528619, 35.5073393937 ]
			},
			"properties" : {
				"駅名" : "新横浜駅",
				"高さ" : "0",
				"鉄道区分" : "普通鉄道JR",
				"事業者種別" : "JRの新幹線",
				"路線名" : "東海道新幹線",
				"運営会社" : "東海旅客鉄道"
			}
		},
		{
			"type" : "Feature",
			"geometry" : {
				"type" : "Point",
				"coordinates" : [ 139.6348033755, 35.5368181729 ]
			},
			"properties" : {
				"駅名" : "綱島駅",
				"高さ" : "0",
				"鉄道区分" : "普通鉄道",
				"事業者種別" : "民営鉄道",
				"路線名" : "東横線",
				"運営会社" : "東急電鉄"
			}
		},
		{
			"type" : "Feature",
			"geometry" : {
				"type" : "Point",
				"coordinates" : [ 139.6298212361, 35.5222647047 ]
			},
			"properties" : {
				"駅名" : "大倉山駅",
				"高さ" : "9.7",
				"鉄道区分" : "普通鉄道",
				"事業者種別" : "民営鉄道",
				"路線名" : "東横線",
				"運営会社" : "東急電鉄"
			}
		},
		{
			"type" : "Feature",
			"geometry" : {
				"type" : "Point",
				"coordinates" : [ 139.6470383756, 35.5539931731 ]
			},
			"properties" : {
				"駅名" : "日吉駅",
				"高さ" : "19.6",
				"鉄道区分" : "普通鉄道",
				"事業者種別" : "民営鉄道",
				"路線名" : "東横線",
				"運営会社" : "東急電鉄"
			}
		},
		{
			"type" : "Feature",
			"geometry" : {
				"type" : "Point",
				"coordinates" : [ 139.6313093245, 35.5104963606 ]
			},
			"properties" : {
				"駅名" : "菊名駅",
				"高さ" : "11",
				"鉄道区分" : "普通鉄道",
				"事業者種別" : "民営鉄道",
				"路線名" : "東横線",
				"運営会社" : "東急電鉄"
			}
		},
		{
			"type" : "Feature",
			"geometry" : {
				"type" : "Point",
				"coordinates" : [ 139.6331253937, 35.4983903175 ]
			},
			"properties" : {
				"駅名" : "妙蓮寺駅",
				"高さ" : "6.1",
				"鉄道区分" : "普通鉄道",
				"事業者種別" : "民営鉄道",
				"路線名" : "東横線",
				"運営会社" : "東急電鉄"
			}
		},
		{
			"type" : "Feature",
			"geometry" : {
				"type" : "Point",
				"coordinates" : [ 139.6174333689, 35.5067681769 ]
			},
			"properties" : {
				"駅名" : "新横浜駅",
				"高さ" : "0",
				"鉄道区分" : "普通鉄道JR",
				"事業者種別" : "JR在来線",
				"路線名" : "横浜線",
				"運営会社" : "東日本旅客鉄道"
			}
		},
		{
			"type" : "Feature",
			"geometry" : {
				"type" : "Point",
				"coordinates" : [ 139.5997749472, 35.5085525167 ]
			},
			"properties" : {
				"駅名" : "小机駅",
				"高さ" : "11",
				"鉄道区分" : "普通鉄道JR",
				"事業者種別" : "JR在来線",
				"路線名" : "横浜線",
				"運営会社" : "東日本旅客鉄道"
			}
		},
		{
			"type" : "Feature",
			"geometry" : {
				"type" : "Point",
				"coordinates" : [ 139.63028164, 35.5097034145 ]
			},
			"properties" : {
				"駅名" : "菊名駅",
				"高さ" : "13.9",
				"鉄道区分" : "普通鉄道JR",
				"事業者種別" : "JR在来線",
				"路線名" : "横浜線",
				"運営会社" : "東日本旅客鉄道"
			}
		},
		{
			"type" : "Feature",
			"geometry" : {
				"type" : "Point",
				"coordinates" : [ 139.6468483818, 35.5533281732 ]
			},
			"properties" : {
				"駅名" : "日吉駅",
				"高さ" : "19.6",
				"鉄道区分" : "普通鉄道",
				"事業者種別" : "公営鉄道",
				"路線名" : "4号線",
				"運営会社" : "横浜市"
			}
		},
		{
			"type" : "Feature",
			"geometry" : {
				"type" : "Point",
				"coordinates" : [ 139.6334927591, 35.550043714 ]
			},
			"properties" : {
				"駅名" : "日吉本町駅",
				"高さ" : "7.5",
				"鉄道区分" : "普通鉄道",
				"事業者種別" : "公営鉄道",
				"路線名" : "4号線",
				"運営会社" : "横浜市"
			}
		},
		{
			"type" : "Feature",
			"geometry" : {
				"type" : "Point",
				"coordinates" : [ 139.6205983806, 35.5495531779 ]
			},
			"properties" : {
				"駅名" : "高田駅",
				"高さ" : "0",
				"鉄道区分" : "普通鉄道",
				"事業者種別" : "公営鉄道",
				"路線名" : "4号線",
				"運営会社" : "横浜市"
			}
		}
	]
}