{
	"type" : "FeatureCollection",
	"name" : "14106_yokohama-shi_hodogaya-ku_station",
	"features" : [
		{
			"type" : "Feature",
			"geometry" : {
				"type" : "Point",
				"coordinates" : [ 139.602538363, 35.4540131714 ]
			},
			"properties" : {
				"駅名" : "天王町駅",
				"高さ" : "0",
				"鉄道区分" : "普通鉄道",
				"事業者種別" : "民営鉄道",
				"路線名" : "本線",
				"運営会社" : "相模鉄道"
			}
		},
		{
			"type" : "Feature",
			"geometry" : {
				"type" : "Point",
				"coordinates" : [ 139.5867833527, 35.4636108559 ]
			},
			"properties" : {
				"駅名" : "和田町駅",
				"高さ" : "11",
				"鉄道区分" : "普通鉄道",
				"事業者種別" : "民営鉄道",
				"路線名" : "本線",
				"運営会社" : "相模鉄道"
			}
		},
		{
			"type" : "Feature",
			"geometry" : {
				"type" : "Point",
				"coordinates" : [ 139.5952033649, 35.458238172 ]
			},
			"properties" : {
				"駅名" : "星川駅",
				"高さ" : "15.4",
				"鉄道区分" : "普通鉄道",
				"事業者種別" : "民営鉄道",
				"路線名" : "本線",
				"運営会社" : "相模鉄道"
			}
		},
		{
			"type" : "Feature",
			"geometry" : {
				"type" : "Point",
				"coordinates" : [ 139.5804463668, 35.4674704132 ]
			},
			"properties" : {
				"駅名" : "上星川駅",
				"高さ" : "4.4",
				"鉄道区分" : "普通鉄道",
				"事業者種別" : "民営鉄道",
				"路線名" : "本線",
				"運営会社" : "相模鉄道"
			}
		},
		{
			"type" : "Feature",
			"geometry" : {
				"type" : "Point",
				"coordinates" : [ 139.565529191, 35.4780679965 ]
			},
			"properties" : {
				"駅名" : "西谷駅",
				"高さ" : "11.3",
				"鉄道区分" : "普通鉄道",
				"事業者種別" : "民営鉄道",
				"路線名" : "本線",
				"運営会社" : "相模鉄道"
			}
		},
		{
			"type" : "Feature",
			"geometry" : {
				"type" : "Point",
				"coordinates" : [ 139.5996549836, 35.4467130199 ]
			},
			"properties" : {
				"駅名" : "保土ヶ谷駅",
				"高さ" : "12.5",
				"鉄道区分" : "普通鉄道JR",
				"事業者種別" : "JR在来線",
				"路線名" : "東海道線",
				"運営会社" : "東日本旅客鉄道"
			}
		},
		{
			"type" : "Feature",
			"geometry" : {
				"type" : "Point",
				"coordinates" : [ 139.565529191, 35.4780679965 ]
			},
			"properties" : {
				"駅名" : "西谷駅",
				"高さ" : "11.3",
				"鉄道区分" : "普通鉄道",
				"事業者種別" : "民営鉄道",
				"路線名" : "相鉄新横浜線",
				"運営会社" : "相模鉄道"
			}
		}
	]
}