{"features":[{"type":"Feature","geometry":{"type":"Point","coordinates":[139.6775702939,35.5066682746]},"properties":{"事業者種別":"民営鉄道","路線名":"本線","運営会社":"京浜急行電鉄","鉄道区分":"普通鉄道","駅名":"京急鶴見駅","高さ":"0"}},{"type":"Feature","geometry":{"type":"Point","coordinates":[139.6673124393,35.4956793099]},"properties":{"事業者種別":"民営鉄道","路線名":"本線","運営会社":"京浜急行電鉄","鉄道区分":"普通鉄道","駅名":"生麦駅","高さ":"10.6"}},{"type":"Feature","geometry":{"type":"Point","coordinates":[139.6729088251,35.5004233454]},"properties":{"事業者種別":"民営鉄道","路線名":"本線","運営会社":"京浜急行電鉄","鉄道区分":"普通鉄道","駅名":"花月総持寺駅","高さ":"10.8"}},{"type":"Feature","geometry":{"type":"Point","coordinates":[139.6866544711,35.517865377]},"properties":{"事業者種別":"民営鉄道","路線名":"本線","運営会社":"京浜急行電鉄","鉄道区分":"普通鉄道","駅名":"鶴見市場駅","高さ":"11.4"}},{"type":"Feature","geometry":{"type":"Point","coordinates":[139.6760434621,35.5083833663]},"properties":{"事業者種別":"JR在来線","路線名":"鶴見線","運営会社":"東日本旅客鉄道","鉄道区分":"普通鉄道JR","駅名":"鶴見駅","高さ":"10.2"}},{"type":"Feature","geometry":{"type":"Point","coordinates":[139.6809907036,35.4973343988]},"properties":{"事業者種別":"JR在来線","路線名":"鶴見線","運営会社":"東日本旅客鉄道","鉄道区分":"普通鉄道JR","駅名":"鶴見小野駅","高さ":"4.9"}},{"type":"Feature","geometry":{"type":"Point","coordinates":[139.7012533782,35.4998431636]},"properties":{"事業者種別":"JR在来線","路線名":"鶴見線","運営会社":"東日本旅客鉄道","鉄道区分":"普通鉄道JR","駅名":"安善駅","高さ":"0"}},{"type":"Feature","geometry":{"type":"Point","coordinates":[139.6894933761,35.4957981649]},"properties":{"事業者種別":"JR在来線","路線名":"鶴見線","運営会社":"東日本旅客鉄道","鉄道区分":"普通鉄道JR","駅名":"弁天橋駅","高さ":"0"}},{"type":"Feature","geometry":{"type":"Point","coordinates":[139.7002237987,35.491669509]},"properties":{"事業者種別":"JR在来線","路線名":"鶴見線","運営会社":"東日本旅客鉄道","鉄道区分":"普通鉄道JR","駅名":"新芝浦駅","高さ":"5.2"}},{"type":"Feature","geometry":{"type":"Point","coordinates":[139.695683378,35.4976081644]},"properties":{"事業者種別":"JR在来線","路線名":"鶴見線","運営会社":"東日本旅客鉄道","鉄道区分":"普通鉄道JR","駅名":"浅野駅","高さ":"0"}},{"type":"Feature","geometry":{"type":"Point","coordinates":[139.675718377,35.5007731661]},"properties":{"事業者種別":"JR在来線","路線名":"鶴見線","運営会社":"東日本旅客鉄道","鉄道区分":"普通鉄道JR","駅名":"国道駅","高さ":"0"}},{"type":"Feature","geometry":{"type":"Point","coordinates":[139.6957319633,35.4974038061]},"properties":{"事業者種別":"JR在来線","路線名":"鶴見線","運営会社":"東日本旅客鉄道","鉄道区分":"普通鉄道JR","駅名":"浅野駅","高さ":"5.8"}},{"type":"Feature","geometry":{"type":"Point","coordinates":[139.700651254,35.4860867636]},"properties":{"事業者種別":"JR在来線","路線名":"鶴見線","運営会社":"東日本旅客鉄道","鉄道区分":"普通鉄道JR","駅名":"海芝浦駅","高さ":"0"}},{"type":"Feature","geometry":{"type":"Point","coordinates":[139.6762557944,35.508492803]},"properties":{"事業者種別":"JR在来線","路線名":"東海道線","運営会社":"東日本旅客鉄道","鉄道区分":"普通鉄道JR","駅名":"鶴見駅","高さ":"9.3"}},{"type":"Feature","geometry":{"type":"Point","coordinates":[139.6802594445,35.5396143607]},"properties":{"事業者種別":"JR在来線","路線名":"南武線","運営会社":"東日本旅客鉄道","鉄道区分":"普通鉄道JR","駅名":"矢向駅","高さ":"5.7"}},{"type":"Feature","geometry":{"type":"Point","coordinates":[139.6054634131,35.4764204612]},"properties":{"事業者種別":"公営鉄道","路線名":"3号線","運営会社":"横浜市","鉄道区分":"普通鉄道","駅名":"三ツ沢上町駅","高さ":"0"}},{"type":"Feature","geometry":{"type":"Point","coordinates":[139.6064383636,35.490003173]},"properties":{"事業者種別":"公営鉄道","路線名":"3号線","運営会社":"横浜市","鉄道区分":"普通鉄道","駅名":"片倉町駅","高さ":"0"}},{"type":"Feature","geometry":{"type":"Point","coordinates":[139.6152233654,35.4764881737]},"properties":{"事業者種別":"公営鉄道","路線名":"3号線","運営会社":"横浜市","鉄道区分":"普通鉄道","駅名":"三ツ沢下町駅","高さ":"0"}},{"type":"Feature","geometry":{"type":"Point","coordinates":[139.6554847955,35.4870994355]},"properties":{"事業者種別":"民営鉄道","路線名":"本線","運営会社":"京浜急行電鉄","鉄道区分":"普通鉄道","駅名":"京急新子安駅","高さ":"10.6"}},{"type":"Feature","geometry":{"type":"Point","coordinates":[139.6271045179,35.4709938072]},"properties":{"事業者種別":"民営鉄道","路線名":"本線","運営会社":"京浜急行電鉄","鉄道区分":"普通鉄道","駅名":"神奈川駅","高さ":"7.5"}},{"type":"Feature","geometry":{"type":"Point","coordinates":[139.6346326017,35.4772326589]},"properties":{"事業者種別":"民営鉄道","路線名":"本線","運営会社":"京浜急行電鉄","鉄道区分":"普通鉄道","駅名":"京急東神奈川駅","高さ":"6.7"}},{"type":"Feature","geometry":{"type":"Point","coordinates":[139.6455393036,35.48493329]},"properties":{"事業者種別":"民営鉄道","路線名":"本線","運営会社":"京浜急行電鉄","鉄道区分":"普通鉄道","駅名":"子安駅","高さ":"3.8"}},{"type":"Feature","geometry":{"type":"Point","coordinates":[139.6396736816,35.4812240679]},"properties":{"事業者種別":"民営鉄道","路線名":"本線","運営会社":"京浜急行電鉄","鉄道区分":"普通鉄道","駅名":"神奈川新町駅","高さ":"0"}},{"type":"Feature","geometry":{"type":"Point","coordinates":[139.6252646963,35.4746557828]},"properties":{"事業者種別":"民営鉄道","路線名":"東横線","運営会社":"東急電鉄","鉄道区分":"普通鉄道","駅名":"反町駅","高さ":"10.9"}},{"type":"Feature","geometry":{"type":"Point","coordinates":[139.6295333685,35.4834031691]},"properties":{"事業者種別":"民営鉄道","路線名":"東横線","運営会社":"東急電鉄","鉄道区分":"普通鉄道","駅名":"東白楽駅","高さ":"0"}},{"type":"Feature","geometry":{"type":"Point","coordinates":[139.6279035983,35.4896996833]},"properties":{"事業者種別":"民営鉄道","路線名":"東横線","運営会社":"東急電鉄","鉄道区分":"普通鉄道","駅名":"白楽駅","高さ":"8.3"}},{"type":"Feature","geometry":{"type":"Point","coordinates":[139.6332533105,35.4778743633]},"properties":{"事業者種別":"JR在来線","路線名":"横浜線","運営会社":"東日本旅客鉄道","鉄道区分":"普通鉄道JR","駅名":"東神奈川駅","高さ":"9.3"}},{"type":"Feature","geometry":{"type":"Point","coordinates":[139.6462938797,35.4923590823]},"properties":{"事業者種別":"JR在来線","路線名":"横浜線","運営会社":"東日本旅客鉄道","鉄道区分":"普通鉄道JR","駅名":"大口駅","高さ":"9"}},{"type":"Feature","geometry":{"type":"Point","coordinates":[139.6540619347,35.4867799491]},"properties":{"事業者種別":"JR在来線","路線名":"東海道線","運営会社":"東日本旅客鉄道","鉄道区分":"普通鉄道JR","駅名":"新子安駅","高さ":"0"}},{"type":"Feature","geometry":{"type":"Point","coordinates":[139.6332533105,35.4778743633]},"properties":{"事業者種別":"JR在来線","路線名":"東海道線","運営会社":"東日本旅客鉄道","鉄道区分":"普通鉄道JR","駅名":"東神奈川駅","高さ":"9.3"}},{"type":"Feature","geometry":{"type":"Point","coordinates":[139.5861431051,35.4812324178]},"properties":{"事業者種別":"民営鉄道","路線名":"相鉄新横浜線","運営会社":"相模鉄道","鉄道区分":"普通鉄道","駅名":"羽沢横浜国大駅","高さ":"7"}},{"type":"Feature","geometry":{"type":"Point","coordinates":[139.5861431051,35.4812324178]},"properties":{"事業者種別":"JR在来線","路線名":"東海道線","運営会社":"東日本旅客鉄道","鉄道区分":"普通鉄道JR","駅名":"羽沢横浜国大駅","高さ":"7"}},{"type":"Feature","geometry":{"type":"Point","coordinates":[139.6323041886,35.4575092265]},"properties":{"事業者種別":"第三セクター","路線名":"みなとみらい21線","運営会社":"横浜高速鉄道","鉄道区分":"普通鉄道","駅名":"みなとみらい駅","高さ":"42.4"}},{"type":"Feature","geometry":{"type":"Point","coordinates":[139.6264933646,35.4619581709]},"properties":{"事業者種別":"第三セクター","路線名":"みなとみらい21線","運営会社":"横浜高速鉄道","鉄道区分":"普通鉄道","駅名":"新高島駅","高さ":"0"}},{"type":"Feature","geometry":{"type":"Point","coordinates":[139.6224611552,35.4663715447]},"properties":{"事業者種別":"第三セクター","路線名":"みなとみらい21線","運営会社":"横浜高速鉄道","鉄道区分":"普通鉄道","駅名":"横浜駅","高さ":"6.5"}},{"type":"Feature","geometry":{"type":"Point","coordinates":[139.6236583674,35.4586981685]},"properties":{"事業者種別":"公営鉄道","路線名":"3号線","運営会社":"横浜市","鉄道区分":"普通鉄道","駅名":"高島町駅","高さ":"0"}},{"type":"Feature","geometry":{"type":"Point","coordinates":[139.6201664304,35.4654030047]},"properties":{"事業者種別":"公営鉄道","路線名":"3号線","運営会社":"横浜市","鉄道区分":"普通鉄道","駅名":"横浜駅","高さ":"0"}},{"type":"Feature","geometry":{"type":"Point","coordinates":[139.6195683647,35.4566631685]},"properties":{"事業者種別":"民営鉄道","路線名":"本線","運営会社":"京浜急行電鉄","鉄道区分":"普通鉄道","駅名":"戸部駅","高さ":"0"}},{"type":"Feature","geometry":{"type":"Point","coordinates":[139.6231333565,35.4662531705]},"properties":{"事業者種別":"民営鉄道","路線名":"本線","運営会社":"京浜急行電鉄","鉄道区分":"普通鉄道","駅名":"横浜駅","高さ":"6.4"}},{"type":"Feature","geometry":{"type":"Point","coordinates":[139.6086047833,35.4534577824]},"properties":{"事業者種別":"民営鉄道","路線名":"本線","運営会社":"相模鉄道","鉄道区分":"普通鉄道","駅名":"西横浜駅","高さ":"13"}},{"type":"Feature","geometry":{"type":"Point","coordinates":[139.6162116216,35.4595911875]},"properties":{"事業者種別":"民営鉄道","路線名":"本線","運営会社":"相模鉄道","鉄道区分":"普通鉄道","駅名":"平沼橋駅","高さ":"11.7"}},{"type":"Feature","geometry":{"type":"Point","coordinates":[139.6220805163,35.4659352161]},"properties":{"事業者種別":"民営鉄道","路線名":"本線","運営会社":"相模鉄道","鉄道区分":"普通鉄道","駅名":"横浜駅","高さ":"6.5"}},{"type":"Feature","geometry":{"type":"Point","coordinates":[139.6224611552,35.4663715447]},"properties":{"事業者種別":"民営鉄道","路線名":"東横線","運営会社":"東急電鉄","鉄道区分":"普通鉄道","駅名":"横浜駅","高さ":"6.5"}},{"type":"Feature","geometry":{"type":"Point","coordinates":[139.6225594751,35.465768289]},"properties":{"事業者種別":"JR在来線","路線名":"根岸線","運営会社":"東日本旅客鉄道","鉄道区分":"普通鉄道JR","駅名":"横浜駅","高さ":"6"}},{"type":"Feature","geometry":{"type":"Point","coordinates":[139.6225594751,35.465768289]},"properties":{"事業者種別":"JR在来線","路線名":"東海道線","運営会社":"東日本旅客鉄道","鉄道区分":"普通鉄道JR","駅名":"横浜駅","高さ":"6"}},{"type":"Feature","geometry":{"type":"Point","coordinates":[139.6222555573,35.4658487345]},"properties":{"事業者種別":"JR在来線","路線名":"東海道線","運営会社":"東日本旅客鉄道","鉄道区分":"普通鉄道JR","駅名":"横浜駅","高さ":"13.4"}},{"type":"Feature","geometry":{"type":"Point","coordinates":[139.6507483722,35.442308168]},"properties":{"事業者種別":"第三セクター","路線名":"みなとみらい21線","運営会社":"横浜高速鉄道","鉄道区分":"普通鉄道","駅名":"元町・中華街駅","高さ":"0"}},{"type":"Feature","geometry":{"type":"Point","coordinates":[139.6362083696,35.4500781706]},"properties":{"事業者種別":"第三セクター","路線名":"みなとみらい21線","運営会社":"横浜高速鉄道","鉄道区分":"普通鉄道","駅名":"馬車道駅","高さ":"0"}},{"type":"Feature","geometry":{"type":"Point","coordinates":[139.6427333712,35.4467981688]},"properties":{"事業者種別":"第三セクター","路線名":"みなとみらい21線","運営会社":"横浜高速鉄道","鉄道区分":"普通鉄道","駅名":"日本大通り駅","高さ":"0"}},{"type":"Feature","geometry":{"type":"Point","coordinates":[139.6251501203,35.4376206244]},"properties":{"事業者種別":"公営鉄道","路線名":"1号線","運営会社":"横浜市","鉄道区分":"普通鉄道","駅名":"阪東橋駅","高さ":"0"}},{"type":"Feature","geometry":{"type":"Point","coordinates":[139.6327788443,35.4409954285]},"properties":{"事業者種別":"公営鉄道","路線名":"1号線","運営会社":"横浜市","鉄道区分":"普通鉄道","駅名":"伊勢佐木長者町駅","高さ":"0"}},{"type":"Feature","geometry":{"type":"Point","coordinates":[139.6360283674,35.4457731679]},"properties":{"事業者種別":"公営鉄道","路線名":"1号線","運営会社":"横浜市","鉄道区分":"普通鉄道","駅名":"関内駅","高さ":"0"}},{"type":"Feature","geometry":{"type":"Point","coordinates":[139.6307526061,35.4496377675]},"properties":{"事業者種別":"公営鉄道","路線名":"3号線","運営会社":"横浜市","鉄道区分":"普通鉄道","駅名":"桜木町駅","高さ":"0"}},{"type":"Feature","geometry":{"type":"Point","coordinates":[139.6360283674,35.4457731679]},"properties":{"事業者種別":"公営鉄道","路線名":"3号線","運営会社":"横浜市","鉄道区分":"普通鉄道","駅名":"関内駅","高さ":"0"}},{"type":"Feature","geometry":{"type":"Point","coordinates":[139.6267689847,35.4456554375]},"properties":{"事業者種別":"民営鉄道","路線名":"本線","運営会社":"京浜急行電鉄","鉄道区分":"普通鉄道","駅名":"日ノ出町駅","高さ":"7.5"}},{"type":"Feature","geometry":{"type":"Point","coordinates":[139.646478366,35.4268031642]},"properties":{"事業者種別":"JR在来線","路線名":"根岸線","運営会社":"東日本旅客鉄道","鉄道区分":"普通鉄道JR","駅名":"山手駅","高さ":"0"}},{"type":"Feature","geometry":{"type":"Point","coordinates":[139.6430437938,35.4387807713]},"properties":{"事業者種別":"JR在来線","路線名":"根岸線","運営会社":"東日本旅客鉄道","鉄道区分":"普通鉄道JR","駅名":"石川町駅","高さ":"13.6"}},{"type":"Feature","geometry":{"type":"Point","coordinates":[139.6360369351,35.4441658028]},"properties":{"事業者種別":"JR在来線","路線名":"根岸線","運営会社":"東日本旅客鉄道","鉄道区分":"普通鉄道JR","駅名":"関内駅","高さ":"15.7"}},{"type":"Feature","geometry":{"type":"Point","coordinates":[139.6308883722,35.4511031698]},"properties":{"事業者種別":"JR在来線","路線名":"根岸線","運営会社":"東日本旅客鉄道","鉄道区分":"普通鉄道JR","駅名":"桜木町駅","高さ":"16.4"}},{"type":"Feature","geometry":{"type":"Point","coordinates":[139.6184789312,35.4353667148]},"properties":{"事業者種別":"公営鉄道","路線名":"1号線","運営会社":"横浜市","鉄道区分":"普通鉄道","駅名":"吉野町駅","高さ":"0"}},{"type":"Feature","geometry":{"type":"Point","coordinates":[139.6019885946,35.4229752272]},"properties":{"事業者種別":"公営鉄道","路線名":"1号線","運営会社":"横浜市","鉄道区分":"普通鉄道","駅名":"弘明寺駅","高さ":"0"}},{"type":"Feature","geometry":{"type":"Point","coordinates":[139.6105383554,35.4303131684]},"properties":{"事業者種別":"公営鉄道","路線名":"1号線","運営会社":"横浜市","鉄道区分":"普通鉄道","駅名":"蒔田駅","高さ":"0"}},{"type":"Feature","geometry":{"type":"Point","coordinates":[139.6141573222,35.4370763877]},"properties":{"事業者種別":"民営鉄道","路線名":"本線","運営会社":"京浜急行電鉄","鉄道区分":"普通鉄道","駅名":"南太田駅","高さ":"7.4"}},{"type":"Feature","geometry":{"type":"Point","coordinates":[139.5969183563,35.4241031679]},"properties":{"事業者種別":"民営鉄道","路線名":"本線","運営会社":"京浜急行電鉄","鉄道区分":"普通鉄道","駅名":"弘明寺駅","高さ":"10.8"}},{"type":"Feature","geometry":{"type":"Point","coordinates":[139.62256836,35.4397081679]},"properties":{"事業者種別":"民営鉄道","路線名":"本線","運営会社":"京浜急行電鉄","鉄道区分":"普通鉄道","駅名":"黄金町駅","高さ":"0"}},{"type":"Feature","geometry":{"type":"Point","coordinates":[139.6012799132,35.433964425]},"properties":{"事業者種別":"民営鉄道","路線名":"本線","運営会社":"京浜急行電鉄","鉄道区分":"普通鉄道","駅名":"井土ヶ谷駅","高さ":"7.2"}},{"type":"Feature","geometry":{"type":"Point","coordinates":[139.602538363,35.4540131714]},"properties":{"事業者種別":"民営鉄道","路線名":"本線","運営会社":"相模鉄道","鉄道区分":"普通鉄道","駅名":"天王町駅","高さ":"0"}},{"type":"Feature","geometry":{"type":"Point","coordinates":[139.5867833527,35.4636108559]},"properties":{"事業者種別":"民営鉄道","路線名":"本線","運営会社":"相模鉄道","鉄道区分":"普通鉄道","駅名":"和田町駅","高さ":"11"}},{"type":"Feature","geometry":{"type":"Point","coordinates":[139.5952033649,35.458238172]},"properties":{"事業者種別":"民営鉄道","路線名":"本線","運営会社":"相模鉄道","鉄道区分":"普通鉄道","駅名":"星川駅","高さ":"15.4"}},{"type":"Feature","geometry":{"type":"Point","coordinates":[139.5804463668,35.4674704132]},"properties":{"事業者種別":"民営鉄道","路線名":"本線","運営会社":"相模鉄道","鉄道区分":"普通鉄道","駅名":"上星川駅","高さ":"4.4"}},{"type":"Feature","geometry":{"type":"Point","coordinates":[139.565529191,35.4780679965]},"properties":{"事業者種別":"民営鉄道","路線名":"本線","運営会社":"相模鉄道","鉄道区分":"普通鉄道","駅名":"西谷駅","高さ":"11.3"}},{"type":"Feature","geometry":{"type":"Point","coordinates":[139.5996549836,35.4467130199]},"properties":{"事業者種別":"JR在来線","路線名":"東海道線","運営会社":"東日本旅客鉄道","鉄道区分":"普通鉄道JR","駅名":"保土ヶ谷駅","高さ":"12.5"}},{"type":"Feature","geometry":{"type":"Point","coordinates":[139.565529191,35.4780679965]},"properties":{"事業者種別":"民営鉄道","路線名":"相鉄新横浜線","運営会社":"相模鉄道","鉄道区分":"普通鉄道","駅名":"西谷駅","高さ":"11.3"}},{"type":"Feature","geometry":{"type":"Point","coordinates":[139.6205844126,35.3858654485]},"properties":{"事業者種別":"第三セクター","路線名":"金沢シーサイドライン","運営会社":"横浜シーサイドライン","鉄道区分":"案内軌条式","駅名":"新杉田駅","高さ":"15.6"}},{"type":"Feature","geometry":{"type":"Point","coordinates":[139.6158229871,35.3835679005]},"properties":{"事業者種別":"民営鉄道","路線名":"本線","運営会社":"京浜急行電鉄","鉄道区分":"普通鉄道","駅名":"杉田駅","高さ":"10.3"}},{"type":"Feature","geometry":{"type":"Point","coordinates":[139.6104407419,35.3943216184]},"properties":{"事業者種別":"民営鉄道","路線名":"本線","運営会社":"京浜急行電鉄","鉄道区分":"普通鉄道","駅名":"屏風浦駅","高さ":"0"}},{"type":"Feature","geometry":{"type":"Point","coordinates":[139.5966361927,35.3787100782]},"properties":{"事業者種別":"JR在来線","路線名":"根岸線","運営会社":"東日本旅客鉄道","鉄道区分":"普通鉄道JR","駅名":"洋光台駅","高さ":"7"}},{"type":"Feature","geometry":{"type":"Point","coordinates":[139.6202637973,35.3859021813]},"properties":{"事業者種別":"JR在来線","路線名":"根岸線","運営会社":"東日本旅客鉄道","鉄道区分":"普通鉄道JR","駅名":"新杉田駅","高さ":"12.6"}},{"type":"Feature","geometry":{"type":"Point","coordinates":[139.635336072,35.4157633828]},"properties":{"事業者種別":"JR在来線","路線名":"根岸線","運営会社":"東日本旅客鉄道","鉄道区分":"普通鉄道JR","駅名":"根岸駅","高さ":"11.2"}},{"type":"Feature","geometry":{"type":"Point","coordinates":[139.6182261253,35.4002283846]},"properties":{"事業者種別":"JR在来線","路線名":"根岸線","運営会社":"東日本旅客鉄道","鉄道区分":"普通鉄道JR","駅名":"磯子駅","高さ":"10.5"}},{"type":"Feature","geometry":{"type":"Point","coordinates":[139.640776484,35.3407530106]},"properties":{"事業者種別":"第三セクター","路線名":"金沢シーサイドライン","運営会社":"横浜シーサイドライン","鉄道区分":"案内軌条式","駅名":"八景島駅","高さ":"7.3"}},{"type":"Feature","geometry":{"type":"Point","coordinates":[139.6463333516,35.3534281581]},"properties":{"事業者種別":"第三セクター","路線名":"金沢シーサイドライン","運営会社":"横浜シーサイドライン","鉄道区分":"案内軌条式","駅名":"産業振興センター駅","高さ":"0"}},{"type":"Feature","geometry":{"type":"Point","coordinates":[139.6315633456,35.3305981577]},"properties":{"事業者種別":"第三セクター","路線名":"金沢シーサイドライン","運営会社":"横浜シーサイドライン","鉄道区分":"案内軌条式","駅名":"野島公園駅","高さ":"0"}},{"type":"Feature","geometry":{"type":"Point","coordinates":[139.6436983514,35.3583981583]},"properties":{"事業者種別":"第三セクター","路線名":"金沢シーサイドライン","運営会社":"横浜シーサイドライン","鉄道区分":"案内軌条式","駅名":"幸浦駅","高さ":"0"}},{"type":"Feature","geometry":{"type":"Point","coordinates":[139.6359183479,35.342123158]},"properties":{"事業者種別":"第三セクター","路線名":"金沢シーサイドライン","運営会社":"横浜シーサイドライン","鉄道区分":"案内軌条式","駅名":"海の公園柴口駅","高さ":"0"}},{"type":"Feature","geometry":{"type":"Point","coordinates":[139.6427383535,35.3720181592]},"properties":{"事業者種別":"第三セクター","路線名":"金沢シーサイドライン","運営会社":"横浜シーサイドライン","鉄道区分":"案内軌条式","駅名":"並木北駅","高さ":"10.1"}},{"type":"Feature","geometry":{"type":"Point","coordinates":[139.6418083551,35.37718316]},"properties":{"事業者種別":"第三セクター","路線名":"金沢シーサイドライン","運営会社":"横浜シーサイドライン","鉄道区分":"案内軌条式","駅名":"鳥浜駅","高さ":"0"}},{"type":"Feature","geometry":{"type":"Point","coordinates":[139.6207431604,35.3316091981]},"properties":{"事業者種別":"第三セクター","路線名":"金沢シーサイドライン","運営会社":"横浜シーサイドライン","鉄道区分":"案内軌条式","駅名":"金沢八景駅","高さ":"15.7"}},{"type":"Feature","geometry":{"type":"Point","coordinates":[139.6429933522,35.3654531586]},"properties":{"事業者種別":"第三セクター","路線名":"金沢シーサイドライン","運営会社":"横浜シーサイドライン","鉄道区分":"案内軌条式","駅名":"並木中央駅","高さ":"0"}},{"type":"Feature","geometry":{"type":"Point","coordinates":[139.6320507891,35.3371983991]},"properties":{"事業者種別":"第三セクター","路線名":"金沢シーサイドライン","運営会社":"横浜シーサイドライン","鉄道区分":"案内軌条式","駅名":"海の公園南口駅","高さ":"10.8"}},{"type":"Feature","geometry":{"type":"Point","coordinates":[139.6332133538,35.3801881613]},"properties":{"事業者種別":"第三セクター","路線名":"金沢シーサイドライン","運営会社":"横浜シーサイドライン","鉄道区分":"案内軌条式","駅名":"南部市場駅","高さ":"16.9"}},{"type":"Feature","geometry":{"type":"Point","coordinates":[139.648543351,35.3496131576]},"properties":{"事業者種別":"第三セクター","路線名":"金沢シーサイドライン","運営会社":"横浜シーサイドライン","鉄道区分":"案内軌条式","駅名":"福浦駅","高さ":"0"}},{"type":"Feature","geometry":{"type":"Point","coordinates":[139.6501383501,35.3439081563]},"properties":{"事業者種別":"第三セクター","路線名":"金沢シーサイドライン","運営会社":"横浜シーサイドライン","鉄道区分":"案内軌条式","駅名":"市大医学部駅","高さ":"0"}},{"type":"Feature","geometry":{"type":"Point","coordinates":[139.6112699132,35.3225615974]},"properties":{"事業者種別":"民営鉄道","路線名":"逗子線","運営会社":"京浜急行電鉄","鉄道区分":"普通鉄道","駅名":"六浦駅","高さ":"11.4"}},{"type":"Feature","geometry":{"type":"Point","coordinates":[139.6201333454,35.3311331587]},"properties":{"事業者種別":"民営鉄道","路線名":"逗子線","運営会社":"京浜急行電鉄","鉄道区分":"普通鉄道","駅名":"金沢八景駅","高さ":"15.7"}},{"type":"Feature","geometry":{"type":"Point","coordinates":[139.6201333454,35.3311331587]},"properties":{"事業者種別":"民営鉄道","路線名":"本線","運営会社":"京浜急行電鉄","鉄道区分":"普通鉄道","駅名":"金沢八景駅","高さ":"15.7"}},{"type":"Feature","geometry":{"type":"Point","coordinates":[139.6294217139,35.3608449683]},"properties":{"事業者種別":"民営鉄道","路線名":"本線","運営会社":"京浜急行電鉄","鉄道区分":"普通鉄道","駅名":"能見台駅","高さ":"10.1"}},{"type":"Feature","geometry":{"type":"Point","coordinates":[139.6216574622,35.3429260055]},"properties":{"事業者種別":"民営鉄道","路線名":"本線","運営会社":"京浜急行電鉄","鉄道区分":"普通鉄道","駅名":"金沢文庫駅","高さ":"12.9"}},{"type":"Feature","geometry":{"type":"Point","coordinates":[139.6299339629,35.3670653203]},"properties":{"事業者種別":"民営鉄道","路線名":"本線","運営会社":"京浜急行電鉄","鉄道区分":"普通鉄道","駅名":"京急富岡駅","高さ":"6.4"}},{"type":"Feature","geometry":{"type":"Point","coordinates":[139.6128583722,35.5192181734]},"properties":{"事業者種別":"公営鉄道","路線名":"3号線","運営会社":"横浜市","鉄道区分":"普通鉄道","駅名":"北新横浜駅","高さ":"6.9"}},{"type":"Feature","geometry":{"type":"Point","coordinates":[139.6121933773,35.52686178]},"properties":{"事業者種別":"公営鉄道","路線名":"3号線","運営会社":"横浜市","鉄道区分":"普通鉄道","駅名":"新羽駅","高さ":"13.5"}},{"type":"Feature","geometry":{"type":"Point","coordinates":[139.6165533672,35.4955131713]},"properties":{"事業者種別":"公営鉄道","路線名":"3号線","運営会社":"横浜市","鉄道区分":"普通鉄道","駅名":"岸根公園駅","高さ":"0"}},{"type":"Feature","geometry":{"type":"Point","coordinates":[139.6172533716,35.5090581724]},"properties":{"事業者種別":"公営鉄道","路線名":"3号線","運営会社":"横浜市","鉄道区分":"普通鉄道","駅名":"新横浜駅","高さ":"0"}},{"type":"Feature","geometry":{"type":"Point","coordinates":[139.6176528619,35.5073393937]},"properties":{"事業者種別":"JRの新幹線","路線名":"東海道新幹線","運営会社":"東海旅客鉄道","鉄道区分":"普通鉄道JR","駅名":"新横浜駅","高さ":"0"}},{"type":"Feature","geometry":{"type":"Point","coordinates":[139.6348033755,35.5368181729]},"properties":{"事業者種別":"民営鉄道","路線名":"東横線","運営会社":"東急電鉄","鉄道区分":"普通鉄道","駅名":"綱島駅","高さ":"0"}},{"type":"Feature","geometry":{"type":"Point","coordinates":[139.6298212361,35.5222647047]},"properties":{"事業者種別":"民営鉄道","路線名":"東横線","運営会社":"東急電鉄","鉄道区分":"普通鉄道","駅名":"大倉山駅","高さ":"9.7"}},{"type":"Feature","geometry":{"type":"Point","coordinates":[139.6470383756,35.5539931731]},"properties":{"事業者種別":"民営鉄道","路線名":"東横線","運営会社":"東急電鉄","鉄道区分":"普通鉄道","駅名":"日吉駅","高さ":"19.6"}},{"type":"Feature","geometry":{"type":"Point","coordinates":[139.6313093245,35.5104963606]},"properties":{"事業者種別":"民営鉄道","路線名":"東横線","運営会社":"東急電鉄","鉄道区分":"普通鉄道","駅名":"菊名駅","高さ":"11"}},{"type":"Feature","geometry":{"type":"Point","coordinates":[139.6331253937,35.4983903175]},"properties":{"事業者種別":"民営鉄道","路線名":"東横線","運営会社":"東急電鉄","鉄道区分":"普通鉄道","駅名":"妙蓮寺駅","高さ":"6.1"}},{"type":"Feature","geometry":{"type":"Point","coordinates":[139.6174333689,35.5067681769]},"properties":{"事業者種別":"JR在来線","路線名":"横浜線","運営会社":"東日本旅客鉄道","鉄道区分":"普通鉄道JR","駅名":"新横浜駅","高さ":"0"}},{"type":"Feature","geometry":{"type":"Point","coordinates":[139.5997749472,35.5085525167]},"properties":{"事業者種別":"JR在来線","路線名":"横浜線","運営会社":"東日本旅客鉄道","鉄道区分":"普通鉄道JR","駅名":"小机駅","高さ":"11"}},{"type":"Feature","geometry":{"type":"Point","coordinates":[139.63028164,35.5097034145]},"properties":{"事業者種別":"JR在来線","路線名":"横浜線","運営会社":"東日本旅客鉄道","鉄道区分":"普通鉄道JR","駅名":"菊名駅","高さ":"13.9"}},{"type":"Feature","geometry":{"type":"Point","coordinates":[139.6468483818,35.5533281732]},"properties":{"事業者種別":"公営鉄道","路線名":"4号線","運営会社":"横浜市","鉄道区分":"普通鉄道","駅名":"日吉駅","高さ":"19.6"}},{"type":"Feature","geometry":{"type":"Point","coordinates":[139.6334927591,35.550043714]},"properties":{"事業者種別":"公営鉄道","路線名":"4号線","運営会社":"横浜市","鉄道区分":"普通鉄道","駅名":"日吉本町駅","高さ":"7.5"}},{"type":"Feature","geometry":{"type":"Point","coordinates":[139.6205983806,35.5495531779]},"properties":{"事業者種別":"公営鉄道","路線名":"4号線","運営会社":"横浜市","鉄道区分":"普通鉄道","駅名":"高田駅","高さ":"0"}},{"type":"Feature","geometry":{"type":"Point","coordinates":[139.5512733459,35.4025381733]},"properties":{"事業者種別":"公営鉄道","路線名":"1号線","運営会社":"横浜市","鉄道区分":"普通鉄道","駅名":"舞岡駅","高さ":"0"}},{"type":"Feature","geometry":{"type":"Point","coordinates":[139.5348898321,35.4011014289]},"properties":{"事業者種別":"公営鉄道","路線名":"1号線","運営会社":"横浜市","鉄道区分":"普通鉄道","駅名":"戸塚駅","高さ":"0"}},{"type":"Feature","geometry":{"type":"Point","coordinates":[139.5343095084,35.400436338]},"properties":{"事業者種別":"JR在来線","路線名":"東海道線","運営会社":"東日本旅客鉄道","鉄道区分":"普通鉄道JR","駅名":"戸塚駅","高さ":"11.4"}},{"type":"Feature","geometry":{"type":"Point","coordinates":[139.5567395377,35.4303369633]},"properties":{"事業者種別":"JR在来線","路線名":"東海道線","運営会社":"東日本旅客鉄道","鉄道区分":"普通鉄道JR","駅名":"東戸塚駅","高さ":"14.8"}},{"type":"Feature","geometry":{"type":"Point","coordinates":[139.5912233491,35.4012331687]},"properties":{"事業者種別":"公営鉄道","路線名":"1号線","運営会社":"横浜市","鉄道区分":"普通鉄道","駅名":"港南中央駅","高さ":"0"}},{"type":"Feature","geometry":{"type":"Point","coordinates":[139.5959835942,35.4086775466]},"properties":{"事業者種別":"公営鉄道","路線名":"1号線","運営会社":"横浜市","鉄道区分":"普通鉄道","駅名":"上大岡駅","高さ":"0"}},{"type":"Feature","geometry":{"type":"Point","coordinates":[139.5727983525,35.4013731697]},"properties":{"事業者種別":"公営鉄道","路線名":"1号線","運営会社":"横浜市","鉄道区分":"普通鉄道","駅名":"上永谷駅","高さ":"0"}},{"type":"Feature","geometry":{"type":"Point","coordinates":[139.5590533498,35.4027631718]},"properties":{"事業者種別":"公営鉄道","路線名":"1号線","運営会社":"横浜市","鉄道区分":"普通鉄道","駅名":"下永谷駅","高さ":"0"}},{"type":"Feature","geometry":{"type":"Point","coordinates":[139.5966183544,35.4093481668]},"properties":{"事業者種別":"民営鉄道","路線名":"本線","運営会社":"京浜急行電鉄","鉄道区分":"普通鉄道","駅名":"上大岡駅","高さ":"59.6"}},{"type":"Feature","geometry":{"type":"Point","coordinates":[139.5766372982,35.3752989264]},"properties":{"事業者種別":"JR在来線","路線名":"根岸線","運営会社":"東日本旅客鉄道","鉄道区分":"普通鉄道JR","駅名":"港南台駅","高さ":"7.3"}},{"type":"Feature","geometry":{"type":"Point","coordinates":[139.5263063928,35.4525872099]},"properties":{"事業者種別":"民営鉄道","路線名":"いずみ野線","運営会社":"相模鉄道","鉄道区分":"普通鉄道","駅名":"南万騎が原駅","高さ":"5.5"}},{"type":"Feature","geometry":{"type":"Point","coordinates":[139.5323783482,35.4633931801]},"properties":{"事業者種別":"民営鉄道","路線名":"いずみ野線","運営会社":"相模鉄道","鉄道区分":"普通鉄道","駅名":"二俣川駅","高さ":"21.3"}},{"type":"Feature","geometry":{"type":"Point","coordinates":[139.5493994431,35.4749147177]},"properties":{"事業者種別":"民営鉄道","路線名":"本線","運営会社":"相模鉄道","鉄道区分":"普通鉄道","駅名":"鶴ヶ峰駅","高さ":"10.7"}},{"type":"Feature","geometry":{"type":"Point","coordinates":[139.5140901166,35.4604303963]},"properties":{"事業者種別":"民営鉄道","路線名":"本線","運営会社":"相模鉄道","鉄道区分":"普通鉄道","駅名":"希望ヶ丘駅","高さ":"11.9"}},{"type":"Feature","geometry":{"type":"Point","coordinates":[139.5323783482,35.4633931801]},"properties":{"事業者種別":"民営鉄道","路線名":"本線","運営会社":"相模鉄道","鉄道区分":"普通鉄道","駅名":"二俣川駅","高さ":"21.3"}},{"type":"Feature","geometry":{"type":"Point","coordinates":[139.4941083612,35.5319331926]},"properties":{"事業者種別":"民営鉄道","路線名":"こどもの国線","運営会社":"東急電鉄","鉄道区分":"普通鉄道","駅名":"長津田駅","高さ":"10.3"}},{"type":"Feature","geometry":{"type":"Point","coordinates":[139.4942533595,35.531833191]},"properties":{"事業者種別":"民営鉄道","路線名":"田園都市線","運営会社":"東急電鉄","鉄道区分":"普通鉄道","駅名":"長津田駅","高さ":"10.3"}},{"type":"Feature","geometry":{"type":"Point","coordinates":[139.5392242435,35.514774296]},"properties":{"事業者種別":"JR在来線","路線名":"横浜線","運営会社":"東日本旅客鉄道","鉄道区分":"普通鉄道JR","駅名":"中山駅","高さ":"11.3"}},{"type":"Feature","geometry":{"type":"Point","coordinates":[139.5165028974,35.5262671735]},"properties":{"事業者種別":"JR在来線","路線名":"横浜線","運営会社":"東日本旅客鉄道","鉄道区分":"普通鉄道JR","駅名":"十日市場駅","高さ":"11.6"}},{"type":"Feature","geometry":{"type":"Point","coordinates":[139.4952282979,35.5317332832]},"properties":{"事業者種別":"JR在来線","路線名":"横浜線","運営会社":"東日本旅客鉄道","鉄道区分":"普通鉄道JR","駅名":"長津田駅","高さ":"10.3"}},{"type":"Feature","geometry":{"type":"Point","coordinates":[139.5669583644,35.5108531801]},"properties":{"事業者種別":"JR在来線","路線名":"横浜線","運営会社":"東日本旅客鉄道","鉄道区分":"普通鉄道JR","駅名":"鴨居駅","高さ":"12.1"}},{"type":"Feature","geometry":{"type":"Point","coordinates":[139.5402733622,35.5147431804]},"properties":{"事業者種別":"公営鉄道","路線名":"4号線","運営会社":"横浜市","鉄道区分":"普通鉄道","駅名":"中山駅","高さ":"0"}},{"type":"Feature","geometry":{"type":"Point","coordinates":[139.5025783566,35.4677881851]},"properties":{"事業者種別":"民営鉄道","路線名":"本線","運営会社":"相模鉄道","鉄道区分":"普通鉄道","駅名":"三ツ境駅","高さ":"10.7"}},{"type":"Feature","geometry":{"type":"Point","coordinates":[139.4825983498,35.4704031832]},"properties":{"事業者種別":"民営鉄道","路線名":"本線","運営会社":"相模鉄道","鉄道区分":"普通鉄道","駅名":"瀬谷駅","高さ":"13.7"}},{"type":"Feature","geometry":{"type":"Point","coordinates":[139.5316263212,35.35479656]},"properties":{"事業者種別":"JR在来線","路線名":"横須賀線","運営会社":"東日本旅客鉄道","鉄道区分":"普通鉄道JR","駅名":"大船駅","高さ":"5.5"}},{"type":"Feature","geometry":{"type":"Point","coordinates":[139.5501209596,35.3678891061]},"properties":{"事業者種別":"JR在来線","路線名":"根岸線","運営会社":"東日本旅客鉄道","鉄道区分":"普通鉄道JR","駅名":"本郷台駅","高さ":"6.2"}},{"type":"Feature","geometry":{"type":"Point","coordinates":[139.5318224478,35.3548731966]},"properties":{"事業者種別":"JR在来線","路線名":"根岸線","運営会社":"東日本旅客鉄道","鉄道区分":"普通鉄道JR","駅名":"大船駅","高さ":"5.4"}},{"type":"Feature","geometry":{"type":"Point","coordinates":[139.5314042178,35.354775509]},"properties":{"事業者種別":"JR在来線","路線名":"東海道線","運営会社":"東日本旅客鉄道","鉄道区分":"普通鉄道JR","駅名":"大船駅","高さ":"5.6"}},{"type":"Feature","geometry":{"type":"Point","coordinates":[139.5184246224,35.4056693697]},"properties":{"事業者種別":"公営鉄道","路線名":"1号線","運営会社":"横浜市","鉄道区分":"普通鉄道","駅名":"踊場駅","高さ":"0"}},{"type":"Feature","geometry":{"type":"Point","coordinates":[139.5112283467,35.4111581769]},"properties":{"事業者種別":"公営鉄道","路線名":"1号線","運営会社":"横浜市","鉄道区分":"普通鉄道","駅名":"中田駅","高さ":"0"}},{"type":"Feature","geometry":{"type":"Point","coordinates":[139.5000968217,35.4143236919]},"properties":{"事業者種別":"公営鉄道","路線名":"1号線","運営会社":"横浜市","鉄道区分":"普通鉄道","駅名":"立場駅","高さ":"5.5"}},{"type":"Feature","geometry":{"type":"Point","coordinates":[139.4828933395,35.4033781783]},"properties":{"事業者種別":"公営鉄道","路線名":"1号線","運営会社":"横浜市","鉄道区分":"普通鉄道","駅名":"下飯田駅","高さ":"4.1"}},{"type":"Feature","geometry":{"type":"Point","coordinates":[139.4951283481,35.4294981827]},"properties":{"事業者種別":"民営鉄道","路線名":"いずみ野線","運営会社":"相模鉄道","鉄道区分":"普通鉄道","駅名":"いずみ野駅","高さ":"12"}},{"type":"Feature","geometry":{"type":"Point","coordinates":[139.506499387,35.4299450769]},"properties":{"事業者種別":"民営鉄道","路線名":"いずみ野線","運営会社":"相模鉄道","鉄道区分":"普通鉄道","駅名":"弥生台駅","高さ":"8.9"}},{"type":"Feature","geometry":{"type":"Point","coordinates":[139.5216587247,35.4393678817]},"properties":{"事業者種別":"民営鉄道","路線名":"いずみ野線","運営会社":"相模鉄道","鉄道区分":"普通鉄道","駅名":"緑園都市駅","高さ":"8.6"}},{"type":"Feature","geometry":{"type":"Point","coordinates":[139.4823683377,35.4056481781]},"properties":{"事業者種別":"民営鉄道","路線名":"いずみ野線","運営会社":"相模鉄道","鉄道区分":"普通鉄道","駅名":"ゆめが丘駅","高さ":"0"}},{"type":"Feature","geometry":{"type":"Point","coordinates":[139.487193341,35.4151031785]},"properties":{"事業者種別":"民営鉄道","路線名":"いずみ野線","運営会社":"相模鉄道","鉄道区分":"普通鉄道","駅名":"いずみ中央駅","高さ":"14.7"}},{"type":"Feature","geometry":{"type":"Point","coordinates":[139.5541633726,35.5679581847]},"properties":{"事業者種別":"公営鉄道","路線名":"3号線","運営会社":"横浜市","鉄道区分":"普通鉄道","駅名":"あざみ野駅","高さ":"0"}},{"type":"Feature","geometry":{"type":"Point","coordinates":[139.4864901453,35.5581816489]},"properties":{"事業者種別":"民営鉄道","路線名":"こどもの国線","運営会社":"東急電鉄","鉄道区分":"普通鉄道","駅名":"こどもの国駅","高さ":"7.2"}},{"type":"Feature","geometry":{"type":"Point","coordinates":[139.49216519,35.5456008666]},"properties":{"事業者種別":"民営鉄道","路線名":"こどもの国線","運営会社":"東急電鉄","鉄道区分":"普通鉄道","駅名":"恩田駅","高さ":"10.3"}},{"type":"Feature","geometry":{"type":"Point","coordinates":[139.5173083637,35.5428581865]},"properties":{"事業者種別":"民営鉄道","路線名":"田園都市線","運営会社":"東急電鉄","鉄道区分":"普通鉄道","駅名":"青葉台駅","高さ":"0"}},{"type":"Feature","geometry":{"type":"Point","coordinates":[139.5412683654,35.5512681835]},"properties":{"事業者種別":"民営鉄道","路線名":"田園都市線","運営会社":"東急電鉄","鉄道区分":"普通鉄道","駅名":"市が尾駅","高さ":"4.8"}},{"type":"Feature","geometry":{"type":"Point","coordinates":[139.5586426938,35.5774446232]},"properties":{"事業者種別":"民営鉄道","路線名":"田園都市線","運営会社":"東急電鉄","鉄道区分":"普通鉄道","駅名":"たまプラーザ駅","高さ":"17"}},{"type":"Feature","geometry":{"type":"Point","coordinates":[139.5535551615,35.5687779314]},"properties":{"事業者種別":"民営鉄道","路線名":"田園都市線","運営会社":"東急電鉄","鉄道区分":"普通鉄道","駅名":"あざみ野駅","高さ":"10.2"}},{"type":"Feature","geometry":{"type":"Point","coordinates":[139.5049585606,35.536134179]},"properties":{"事業者種別":"民営鉄道","路線名":"田園都市線","運営会社":"東急電鉄","鉄道区分":"普通鉄道","駅名":"田奈駅","高さ":"11"}},{"type":"Feature","geometry":{"type":"Point","coordinates":[139.5278667625,35.5436054386]},"properties":{"事業者種別":"民営鉄道","路線名":"田園都市線","運営会社":"東急電鉄","鉄道区分":"普通鉄道","駅名":"藤が丘駅","高さ":"7.4"}},{"type":"Feature","geometry":{"type":"Point","coordinates":[139.5514183694,35.5585381829]},"properties":{"事業者種別":"民営鉄道","路線名":"田園都市線","運営会社":"東急電鉄","鉄道区分":"普通鉄道","駅名":"江田駅","高さ":"9.1"}},{"type":"Feature","geometry":{"type":"Point","coordinates":[139.5895233732,35.5353181792]},"properties":{"事業者種別":"公営鉄道","路線名":"3号線","運営会社":"横浜市","鉄道区分":"普通鉄道","駅名":"仲町台駅","高さ":"12.9"}},{"type":"Feature","geometry":{"type":"Point","coordinates":[139.5782233699,35.5532081796]},"properties":{"事業者種別":"公営鉄道","路線名":"3号線","運営会社":"横浜市","鉄道区分":"普通鉄道","駅名":"センター北駅","高さ":"14"}},{"type":"Feature","geometry":{"type":"Point","coordinates":[139.5743105127,35.5453374633]},"properties":{"事業者種別":"公営鉄道","路線名":"3号線","運営会社":"横浜市","鉄道区分":"普通鉄道","駅名":"センター南駅","高さ":"17.5"}},{"type":"Feature","geometry":{"type":"Point","coordinates":[139.5696883755,35.5630881823]},"properties":{"事業者種別":"公営鉄道","路線名":"3号線","運営会社":"横浜市","鉄道区分":"普通鉄道","駅名":"中川駅","高さ":"16.9"}},{"type":"Feature","geometry":{"type":"Point","coordinates":[139.6045314694,35.5541632089]},"properties":{"事業者種別":"公営鉄道","路線名":"4号線","運営会社":"横浜市","鉄道区分":"普通鉄道","駅名":"東山田駅","高さ":"7.1"}},{"type":"Feature","geometry":{"type":"Point","coordinates":[139.5928778023,35.5610771474]},"properties":{"事業者種別":"公営鉄道","路線名":"4号線","運営会社":"横浜市","鉄道区分":"普通鉄道","駅名":"北山田駅","高さ":"0"}},{"type":"Feature","geometry":{"type":"Point","coordinates":[139.5783483691,35.5530081798]},"properties":{"事業者種別":"公営鉄道","路線名":"4号線","運営会社":"横浜市","鉄道区分":"普通鉄道","駅名":"センター北駅","高さ":"14"}},{"type":"Feature","geometry":{"type":"Point","coordinates":[139.5746540564,35.5453526473]},"properties":{"事業者種別":"公営鉄道","路線名":"4号線","運営会社":"横浜市","鉄道区分":"普通鉄道","駅名":"センター南駅","高さ":"11.8"}},{"type":"Feature","geometry":{"type":"Point","coordinates":[139.5489833648,35.5284481808]},"properties":{"事業者種別":"公営鉄道","路線名":"4号線","運営会社":"横浜市","鉄道区分":"普通鉄道","駅名":"川和町駅","高さ":"0"}},{"type":"Feature","geometry":{"type":"Point","coordinates":[139.5613093673,35.5365591813]},"properties":{"事業者種別":"公営鉄道","路線名":"4号線","運営会社":"横浜市","鉄道区分":"普通鉄道","駅名":"都筑ふれあいの丘駅","高さ":"7.1"}}],"name":"14100_yokohama-shi_city_2023_tsurumi-ku_station","type":"FeatureCollection"}