{
	"type" : "FeatureCollection",
	"name" : "14107_yokohama-shi_isogo-ku_station",
	"features" : [
		{
			"type" : "Feature",
			"geometry" : {
				"type" : "Point",
				"coordinates" : [ 139.6205844126, 35.3858654485 ]
			},
			"properties" : {
				"駅名" : "新杉田駅",
				"高さ" : "15.6",
				"鉄道区分" : "案内軌条式",
				"事業者種別" : "第三セクター",
				"路線名" : "金沢シーサイドライン",
				"運営会社" : "横浜シーサイドライン"
			}
		},
		{
			"type" : "Feature",
			"geometry" : {
				"type" : "Point",
				"coordinates" : [ 139.6158229871, 35.3835679005 ]
			},
			"properties" : {
				"駅名" : "杉田駅",
				"高さ" : "10.3",
				"鉄道区分" : "普通鉄道",
				"事業者種別" : "民営鉄道",
				"路線名" : "本線",
				"運営会社" : "京浜急行電鉄"
			}
		},
		{
			"type" : "Feature",
			"geometry" : {
				"type" : "Point",
				"coordinates" : [ 139.6104407419, 35.3943216184 ]
			},
			"properties" : {
				"駅名" : "屏風浦駅",
				"高さ" : "0",
				"鉄道区分" : "普通鉄道",
				"事業者種別" : "民営鉄道",
				"路線名" : "本線",
				"運営会社" : "京浜急行電鉄"
			}
		},
		{
			"type" : "Feature",
			"geometry" : {
				"type" : "Point",
				"coordinates" : [ 139.5966361927, 35.3787100782 ]
			},
			"properties" : {
				"駅名" : "洋光台駅",
				"高さ" : "7",
				"鉄道区分" : "普通鉄道JR",
				"事業者種別" : "JR在来線",
				"路線名" : "根岸線",
				"運営会社" : "東日本旅客鉄道"
			}
		},
		{
			"type" : "Feature",
			"geometry" : {
				"type" : "Point",
				"coordinates" : [ 139.6202637973, 35.3859021813 ]
			},
			"properties" : {
				"駅名" : "新杉田駅",
				"高さ" : "12.6",
				"鉄道区分" : "普通鉄道JR",
				"事業者種別" : "JR在来線",
				"路線名" : "根岸線",
				"運営会社" : "東日本旅客鉄道"
			}
		},
		{
			"type" : "Feature",
			"geometry" : {
				"type" : "Point",
				"coordinates" : [ 139.635336072, 35.4157633828 ]
			},
			"properties" : {
				"駅名" : "根岸駅",
				"高さ" : "11.2",
				"鉄道区分" : "普通鉄道JR",
				"事業者種別" : "JR在来線",
				"路線名" : "根岸線",
				"運営会社" : "東日本旅客鉄道"
			}
		},
		{
			"type" : "Feature",
			"geometry" : {
				"type" : "Point",
				"coordinates" : [ 139.6182261253, 35.4002283846 ]
			},
			"properties" : {
				"駅名" : "磯子駅",
				"高さ" : "10.5",
				"鉄道区分" : "普通鉄道JR",
				"事業者種別" : "JR在来線",
				"路線名" : "根岸線",
				"運営会社" : "東日本旅客鉄道"
			}
		}
	]
}