{
	"type" : "FeatureCollection",
	"name" : "14103_yokohama-shi_nishi-ku_station",
	"features" : [
		{
			"type" : "Feature",
			"geometry" : {
				"type" : "Point",
				"coordinates" : [ 139.6323041886, 35.4575092265 ]
			},
			"properties" : {
				"駅名" : "みなとみらい駅",
				"高さ" : "42.4",
				"鉄道区分" : "普通鉄道",
				"事業者種別" : "第三セクター",
				"路線名" : "みなとみらい21線",
				"運営会社" : "横浜高速鉄道"
			}
		},
		{
			"type" : "Feature",
			"geometry" : {
				"type" : "Point",
				"coordinates" : [ 139.6264933646, 35.4619581709 ]
			},
			"properties" : {
				"駅名" : "新高島駅",
				"高さ" : "0",
				"鉄道区分" : "普通鉄道",
				"事業者種別" : "第三セクター",
				"路線名" : "みなとみらい21線",
				"運営会社" : "横浜高速鉄道"
			}
		},
		{
			"type" : "Feature",
			"geometry" : {
				"type" : "Point",
				"coordinates" : [ 139.6224611552, 35.4663715447 ]
			},
			"properties" : {
				"駅名" : "横浜駅",
				"高さ" : "6.5",
				"鉄道区分" : "普通鉄道",
				"事業者種別" : "第三セクター",
				"路線名" : "みなとみらい21線",
				"運営会社" : "横浜高速鉄道"
			}
		},
		{
			"type" : "Feature",
			"geometry" : {
				"type" : "Point",
				"coordinates" : [ 139.6236583674, 35.4586981685 ]
			},
			"properties" : {
				"駅名" : "高島町駅",
				"高さ" : "0",
				"鉄道区分" : "普通鉄道",
				"事業者種別" : "公営鉄道",
				"路線名" : "3号線",
				"運営会社" : "横浜市"
			}
		},
		{
			"type" : "Feature",
			"geometry" : {
				"type" : "Point",
				"coordinates" : [ 139.6201664304, 35.4654030047 ]
			},
			"properties" : {
				"駅名" : "横浜駅",
				"高さ" : "0",
				"鉄道区分" : "普通鉄道",
				"事業者種別" : "公営鉄道",
				"路線名" : "3号線",
				"運営会社" : "横浜市"
			}
		},
		{
			"type" : "Feature",
			"geometry" : {
				"type" : "Point",
				"coordinates" : [ 139.6195683647, 35.4566631685 ]
			},
			"properties" : {
				"駅名" : "戸部駅",
				"高さ" : "0",
				"鉄道区分" : "普通鉄道",
				"事業者種別" : "民営鉄道",
				"路線名" : "本線",
				"運営会社" : "京浜急行電鉄"
			}
		},
		{
			"type" : "Feature",
			"geometry" : {
				"type" : "Point",
				"coordinates" : [ 139.6231333565, 35.4662531705 ]
			},
			"properties" : {
				"駅名" : "横浜駅",
				"高さ" : "6.4",
				"鉄道区分" : "普通鉄道",
				"事業者種別" : "民営鉄道",
				"路線名" : "本線",
				"運営会社" : "京浜急行電鉄"
			}
		},
		{
			"type" : "Feature",
			"geometry" : {
				"type" : "Point",
				"coordinates" : [ 139.6086047833, 35.4534577824 ]
			},
			"properties" : {
				"駅名" : "西横浜駅",
				"高さ" : "13",
				"鉄道区分" : "普通鉄道",
				"事業者種別" : "民営鉄道",
				"路線名" : "本線",
				"運営会社" : "相模鉄道"
			}
		},
		{
			"type" : "Feature",
			"geometry" : {
				"type" : "Point",
				"coordinates" : [ 139.6162116216, 35.4595911875 ]
			},
			"properties" : {
				"駅名" : "平沼橋駅",
				"高さ" : "11.7",
				"鉄道区分" : "普通鉄道",
				"事業者種別" : "民営鉄道",
				"路線名" : "本線",
				"運営会社" : "相模鉄道"
			}
		},
		{
			"type" : "Feature",
			"geometry" : {
				"type" : "Point",
				"coordinates" : [ 139.6220805163, 35.4659352161 ]
			},
			"properties" : {
				"駅名" : "横浜駅",
				"高さ" : "6.5",
				"鉄道区分" : "普通鉄道",
				"事業者種別" : "民営鉄道",
				"路線名" : "本線",
				"運営会社" : "相模鉄道"
			}
		},
		{
			"type" : "Feature",
			"geometry" : {
				"type" : "Point",
				"coordinates" : [ 139.6224611552, 35.4663715447 ]
			},
			"properties" : {
				"駅名" : "横浜駅",
				"高さ" : "6.5",
				"鉄道区分" : "普通鉄道",
				"事業者種別" : "民営鉄道",
				"路線名" : "東横線",
				"運営会社" : "東急電鉄"
			}
		},
		{
			"type" : "Feature",
			"geometry" : {
				"type" : "Point",
				"coordinates" : [ 139.6225594751, 35.465768289 ]
			},
			"properties" : {
				"駅名" : "横浜駅",
				"高さ" : "6",
				"鉄道区分" : "普通鉄道JR",
				"事業者種別" : "JR在来線",
				"路線名" : "根岸線",
				"運営会社" : "東日本旅客鉄道"
			}
		},
		{
			"type" : "Feature",
			"geometry" : {
				"type" : "Point",
				"coordinates" : [ 139.6225594751, 35.465768289 ]
			},
			"properties" : {
				"駅名" : "横浜駅",
				"高さ" : "6",
				"鉄道区分" : "普通鉄道JR",
				"事業者種別" : "JR在来線",
				"路線名" : "東海道線",
				"運営会社" : "東日本旅客鉄道"
			}
		},
		{
			"type" : "Feature",
			"geometry" : {
				"type" : "Point",
				"coordinates" : [ 139.6222555573, 35.4658487345 ]
			},
			"properties" : {
				"駅名" : "横浜駅",
				"高さ" : "13.4",
				"鉄道区分" : "普通鉄道JR",
				"事業者種別" : "JR在来線",
				"路線名" : "東海道線",
				"運営会社" : "東日本旅客鉄道"
			}
		}
	]
}