{
	"type" : "FeatureCollection",
	"name" : "14106_yokohama-shi_hodogaya-ku_shelter",
	"features" : [
		{
			"type" : "Feature",
			"geometry" : {
				"type" : "Point",
				"coordinates" : [ 139.5592202192, 35.4722645468 ]
			},
			"properties" : {
				"高さ" : "4.3",
				"行政区域" : "14106",
				"名称" : "くぬぎ台小学校",
				"住所" : "神奈川県横浜市保土ヶ谷区川島町1374-1",
				"施設の種類" : "避難所",
				"収容人数" : null,
				"施設規模" : "5072",
				"対象とする災害の分類" : "地震災害",
				"レベル" : "1"
			}
		},
		{
			"type" : "Feature",
			"geometry" : {
				"type" : "Point",
				"coordinates" : [ 139.5867536578, 35.4469397507 ]
			},
			"properties" : {
				"高さ" : "9.2",
				"行政区域" : "14106",
				"名称" : "岩崎小学校",
				"住所" : "神奈川県横浜市保土ヶ谷区岩崎町22-1",
				"施設の種類" : "避難所",
				"収容人数" : null,
				"施設規模" : "4374",
				"対象とする災害の分類" : "指定なし",
				"レベル" : "1"
			}
		},
		{
			"type" : "Feature",
			"geometry" : {
				"type" : "Point",
				"coordinates" : [ 139.5766631187, 35.4559065673 ]
			},
			"properties" : {
				"高さ" : "14.6",
				"行政区域" : "14106",
				"名称" : "橘中学校",
				"住所" : "神奈川県横浜市保土ヶ谷区仏向町1167-2",
				"施設の種類" : "避難所",
				"収容人数" : null,
				"施設規模" : "5975",
				"対象とする災害の分類" : "地震災害",
				"レベル" : "1"
			}
		},
		{
			"type" : "Feature",
			"geometry" : {
				"type" : "Point",
				"coordinates" : [ 139.6051602298, 35.4616285424 ]
			},
			"properties" : {
				"高さ" : "11.1",
				"行政区域" : "14106",
				"名称" : "宮田中学校",
				"住所" : "神奈川県横浜市保土ヶ谷区宮田町1-100",
				"施設の種類" : "避難所",
				"収容人数" : null,
				"施設規模" : "5186",
				"対象とする災害の分類" : "指定なし",
				"レベル" : "1"
			}
		},
		{
			"type" : "Feature",
			"geometry" : {
				"type" : "Point",
				"coordinates" : [ 139.5746359944, 35.4416855906 ]
			},
			"properties" : {
				"高さ" : "14.1",
				"行政区域" : "14106",
				"名称" : "権太坂小学校",
				"住所" : "神奈川県横浜市保土ヶ谷区権太坂2-4-1",
				"施設の種類" : "避難所",
				"収容人数" : null,
				"施設規模" : "5525",
				"対象とする災害の分類" : "指定なし",
				"レベル" : "1"
			}
		},
		{
			"type" : "Feature",
			"geometry" : {
				"type" : "Point",
				"coordinates" : [ 139.5584710159, 35.446657591 ]
			},
			"properties" : {
				"高さ" : "15.1",
				"行政区域" : "14106",
				"名称" : "今井小学校",
				"住所" : "神奈川県横浜市保土ヶ谷区今井町981-1",
				"施設の種類" : "避難所",
				"収容人数" : null,
				"施設規模" : "3763",
				"対象とする災害の分類" : "地震災害",
				"レベル" : "1"
			}
		},
		{
			"type" : "Feature",
			"geometry" : {
				"type" : "Point",
				"coordinates" : [ 139.5798339502, 35.4648755026 ]
			},
			"properties" : {
				"高さ" : "14.6",
				"行政区域" : "14106",
				"名称" : "坂本小学校",
				"住所" : "神奈川県横浜市保土ヶ谷区坂本町6",
				"施設の種類" : "避難所",
				"収容人数" : null,
				"施設規模" : "4441",
				"対象とする災害の分類" : "指定なし",
				"レベル" : "1"
			}
		},
		{
			"type" : "Feature",
			"geometry" : {
				"type" : "Point",
				"coordinates" : [ 139.5907318194, 35.4507446103 ]
			},
			"properties" : {
				"高さ" : "11.2",
				"行政区域" : "14106",
				"名称" : "桜台小学校",
				"住所" : "神奈川県横浜市保土ヶ谷区桜ヶE:1-13-1",
				"施設の種類" : "避難所",
				"収容人数" : null,
				"施設規模" : "5067",
				"対象とする災害の分類" : "地震災害",
				"レベル" : "1"
			}
		},
		{
			"type" : "Feature",
			"geometry" : {
				"type" : "Point",
				"coordinates" : [ 139.5647975005, 35.4927706182 ]
			},
			"properties" : {
				"高さ" : "15.3",
				"行政区域" : "14106",
				"名称" : "笹山小学校",
				"住所" : "神奈川県横浜市保土ヶ谷区上菅田町1422",
				"施設の種類" : "避難所",
				"収容人数" : null,
				"施設規模" : "5436",
				"対象とする災害の分類" : "地震災害",
				"レベル" : "4"
			}
		},
		{
			"type" : "Feature",
			"geometry" : {
				"type" : "Point",
				"coordinates" : [ 139.5975657702, 35.4566146609 ]
			},
			"properties" : {
				"高さ" : "8.4",
				"行政区域" : "14106",
				"名称" : "雌子小学校",
				"住所" : "神奈川県横浜市保土ヶ谷区川辺町65-1",
				"施設の種類" : "避難所",
				"収容人数" : null,
				"施設規模" : "6302",
				"対象とする災害の分類" : "地震災害",
				"レベル" : "1"
			}
		},
		{
			"type" : "Feature",
			"geometry" : {
				"type" : "Point",
				"coordinates" : [ 139.576136051, 35.4479625802 ]
			},
			"properties" : {
				"高さ" : "11.2",
				"行政区域" : "14106",
				"名称" : "初音が丘小学校",
				"住所" : "神奈川県横浜市保土ヶ谷区藤塚町1-1",
				"施設の種類" : "避難所",
				"収容人数" : null,
				"施設規模" : "6150",
				"対象とする災害の分類" : "指定なし",
				"レベル" : "1"
			}
		},
		{
			"type" : "Feature",
			"geometry" : {
				"type" : "Point",
				"coordinates" : [ 139.5664413204, 35.4840415273 ]
			},
			"properties" : {
				"高さ" : "12.6",
				"行政区域" : "14106",
				"名称" : "上菅田小学校",
				"住所" : "神奈川県横浜市保土ヶ谷区上菅田町134",
				"施設の種類" : "避難所",
				"収容人数" : null,
				"施設規模" : "6279",
				"対象とする災害の分類" : "地震災害",
				"レベル" : "1"
			}
		},
		{
			"type" : "Feature",
			"geometry" : {
				"type" : "Point",
				"coordinates" : [ 139.5779962824, 35.4762095351 ]
			},
			"properties" : {
				"高さ" : "14.7",
				"行政区域" : "14106",
				"名称" : "上星川小学校",
				"住所" : "神奈川県横浜市保土ヶ谷区上星川12-51-1",
				"施設の種類" : "避難所",
				"収容人数" : null,
				"施設規模" : "4712",
				"対象とする災害の分類" : "地震災害",
				"レベル" : "1"
			}
		},
		{
			"type" : "Feature",
			"geometry" : {
				"type" : "Point",
				"coordinates" : [ 139.5857832211, 35.469306563 ]
			},
			"properties" : {
				"高さ" : "14.5",
				"行政区域" : "14106",
				"名称" : "常盤台小学校",
				"住所" : "神奈川県横浜市保土ヶ谷区釜台町22-1",
				"施設の種類" : "避難所",
				"収容人数" : null,
				"施設規模" : "5790",
				"対象とする災害の分類" : "地震災害",
				"レベル" : "1"
			}
		},
		{
			"type" : "Feature",
			"geometry" : {
				"type" : "Point",
				"coordinates" : [ 139.5568853887, 35.4957605126 ]
			},
			"properties" : {
				"高さ" : "15",
				"行政区域" : "14106",
				"名称" : "新井小学校",
				"住所" : "神奈川県横浜市保土ヶ谷区上菅田町1574-1",
				"施設の種類" : "避難所",
				"収容人数" : null,
				"施設規模" : "5220",
				"対象とする災害の分類" : "地震災害",
				"レベル" : "1"
			}
		},
		{
			"type" : "Feature",
			"geometry" : {
				"type" : "Point",
				"coordinates" : [ 139.5869960136, 35.4412685847 ]
			},
			"properties" : {
				"高さ" : "15.3",
				"行政区域" : "14106",
				"名称" : "瀬戸ヶ谷小学校",
				"住所" : "神奈川県横浜市保土ヶ谷区瀬戸ケ谷町243",
				"施設の種類" : "避難所",
				"収容人数" : null,
				"施設規模" : "5124",
				"対象とする災害の分類" : "指定なし",
				"レベル" : "1"
			}
		},
		{
			"type" : "Feature",
			"geometry" : {
				"type" : "Point",
				"coordinates" : [ 139.5891954103, 35.4615272615 ]
			},
			"properties" : {
				"高さ" : "11.8",
				"行政区域" : "14106",
				"名称" : "星川小学校",
				"住所" : "神奈川県横浜市保土ヶ谷区星川3-18-l",
				"施設の種類" : "避難所",
				"収容人数" : null,
				"施設規模" : "4831",
				"対象とする災害の分類" : "指定なし",
				"レベル" : "1"
			}
		},
		{
			"type" : "Feature",
			"geometry" : {
				"type" : "Point",
				"coordinates" : [ 139.5646036897, 35.474255735 ]
			},
			"properties" : {
				"高さ" : "15.1",
				"行政区域" : "14106",
				"名称" : "西谷中学校",
				"住所" : "神奈川県横浜市保土ヶ谷区川島町1208",
				"施設の種類" : "避難所",
				"収容人数" : null,
				"施設規模" : "7210",
				"対象とする災害の分類" : "指定なし",
				"レベル" : "1"
			}
		},
		{
			"type" : "Feature",
			"geometry" : {
				"type" : "Point",
				"coordinates" : [ 139.5679629199, 35.4734360848 ]
			},
			"properties" : {
				"高さ" : "12.9",
				"行政区域" : "14106",
				"名称" : "川島小学校",
				"住所" : "神奈川県横浜市保土ヶ谷区川島町1162",
				"施設の種類" : "避難所",
				"収容人数" : null,
				"施設規模" : "4835",
				"対象とする災害の分類" : "指定なし",
				"レベル" : "1"
			}
		},
		{
			"type" : "Feature",
			"geometry" : {
				"type" : "Point",
				"coordinates" : [ 139.5629187059, 35.4511305433 ]
			},
			"properties" : {
				"高さ" : "7.6",
				"行政区域" : "14106",
				"名称" : "藤塚小学校",
				"住所" : "神奈川県横浜市保土ヶ谷区新桜ヶ丘1-22-1",
				"施設の種類" : "避難所",
				"収容人数" : null,
				"施設規模" : "5357",
				"対象とする災害の分類" : "地震災害",
				"レベル" : "1"
			}
		},
		{
			"type" : "Feature",
			"geometry" : {
				"type" : "Point",
				"coordinates" : [ 139.6018874598, 35.4428605989 ]
			},
			"properties" : {
				"高さ" : "11.7",
				"行政区域" : "14106",
				"名称" : "富士見台小学校",
				"住所" : "神奈川県横浜市保土ヶ谷区岩井町307",
				"施設の種類" : "避難所",
				"収容人数" : null,
				"施設規模" : "5257",
				"対象とする災害の分類" : "地震災害",
				"レベル" : "1"
			}
		},
		{
			"type" : "Feature",
			"geometry" : {
				"type" : "Point",
				"coordinates" : [ 139.5857181752, 35.4605725546 ]
			},
			"properties" : {
				"高さ" : "5.1",
				"行政区域" : "14106",
				"名称" : "仏向小学校",
				"住所" : "神奈川県横浜市保土ヶ谷区仏向町845",
				"施設の種類" : "避難所",
				"収容人数" : null,
				"施設規模" : "5019",
				"対象とする災害の分類" : "指定なし",
				"レベル" : "1"
			}
		},
		{
			"type" : "Feature",
			"geometry" : {
				"type" : "Point",
				"coordinates" : [ 139.5948535504, 35.4547630903 ]
			},
			"properties" : {
				"高さ" : "11.7",
				"行政区域" : "14106",
				"名称" : "保土ヶ谷小学校",
				"住所" : "神奈川県横浜市保土ヶ谷区神戸町129-4",
				"施設の種類" : "避難所",
				"収容人数" : null,
				"施設規模" : "4303",
				"対象とする災害の分類" : "指定なし",
				"レベル" : "1"
			}
		},
		{
			"type" : "Feature",
			"geometry" : {
				"type" : "Point",
				"coordinates" : [ 139.5843727308, 35.4662532126 ]
			},
			"properties" : {
				"高さ" : "14.8",
				"行政区域" : "14106",
				"名称" : "保土ヶ谷中学校",
				"住所" : "神奈川県横浜市保土ヶ谷区釜台町3-1",
				"施設の種類" : "避難所",
				"収容人数" : null,
				"施設規模" : "7969",
				"対象とする災害の分類" : "指定なし",
				"レベル" : "1"
			}
		},
		{
			"type" : "Feature",
			"geometry" : {
				"type" : "Point",
				"coordinates" : [ 139.5994942134, 35.461489547 ]
			},
			"properties" : {
				"高さ" : "11.4",
				"行政区域" : "14106",
				"名称" : "峯小学校",
				"住所" : "神奈川県横浜市保土ヶ谷区峰岡町1-10",
				"施設の種類" : "避難所",
				"収容人数" : null,
				"施設規模" : "4825",
				"対象とする災害の分類" : "指定なし",
				"レベル" : "1"
			}
		}
	]
}