{
	"type" : "FeatureCollection",
	"name" : "14102_yokohama-shi_kanagawa-ku_station",
	"features" : [
		{
			"type" : "Feature",
			"geometry" : {
				"type" : "Point",
				"coordinates" : [ 139.6054634131, 35.4764204612 ]
			},
			"properties" : {
				"駅名" : "三ツ沢上町駅",
				"高さ" : "0",
				"鉄道区分" : "普通鉄道",
				"事業者種別" : "公営鉄道",
				"路線名" : "3号線",
				"運営会社" : "横浜市"
			}
		},
		{
			"type" : "Feature",
			"geometry" : {
				"type" : "Point",
				"coordinates" : [ 139.6064383636, 35.490003173 ]
			},
			"properties" : {
				"駅名" : "片倉町駅",
				"高さ" : "0",
				"鉄道区分" : "普通鉄道",
				"事業者種別" : "公営鉄道",
				"路線名" : "3号線",
				"運営会社" : "横浜市"
			}
		},
		{
			"type" : "Feature",
			"geometry" : {
				"type" : "Point",
				"coordinates" : [ 139.6152233654, 35.4764881737 ]
			},
			"properties" : {
				"駅名" : "三ツ沢下町駅",
				"高さ" : "0",
				"鉄道区分" : "普通鉄道",
				"事業者種別" : "公営鉄道",
				"路線名" : "3号線",
				"運営会社" : "横浜市"
			}
		},
		{
			"type" : "Feature",
			"geometry" : {
				"type" : "Point",
				"coordinates" : [ 139.6554847955, 35.4870994355 ]
			},
			"properties" : {
				"駅名" : "京急新子安駅",
				"高さ" : "10.6",
				"鉄道区分" : "普通鉄道",
				"事業者種別" : "民営鉄道",
				"路線名" : "本線",
				"運営会社" : "京浜急行電鉄"
			}
		},
		{
			"type" : "Feature",
			"geometry" : {
				"type" : "Point",
				"coordinates" : [ 139.6271045179, 35.4709938072 ]
			},
			"properties" : {
				"駅名" : "神奈川駅",
				"高さ" : "7.5",
				"鉄道区分" : "普通鉄道",
				"事業者種別" : "民営鉄道",
				"路線名" : "本線",
				"運営会社" : "京浜急行電鉄"
			}
		},
		{
			"type" : "Feature",
			"geometry" : {
				"type" : "Point",
				"coordinates" : [ 139.6346326017, 35.4772326589 ]
			},
			"properties" : {
				"駅名" : "京急東神奈川駅",
				"高さ" : "6.7",
				"鉄道区分" : "普通鉄道",
				"事業者種別" : "民営鉄道",
				"路線名" : "本線",
				"運営会社" : "京浜急行電鉄"
			}
		},
		{
			"type" : "Feature",
			"geometry" : {
				"type" : "Point",
				"coordinates" : [ 139.6455393036, 35.48493329 ]
			},
			"properties" : {
				"駅名" : "子安駅",
				"高さ" : "3.8",
				"鉄道区分" : "普通鉄道",
				"事業者種別" : "民営鉄道",
				"路線名" : "本線",
				"運営会社" : "京浜急行電鉄"
			}
		},
		{
			"type" : "Feature",
			"geometry" : {
				"type" : "Point",
				"coordinates" : [ 139.6396736816, 35.4812240679 ]
			},
			"properties" : {
				"駅名" : "神奈川新町駅",
				"高さ" : "0",
				"鉄道区分" : "普通鉄道",
				"事業者種別" : "民営鉄道",
				"路線名" : "本線",
				"運営会社" : "京浜急行電鉄"
			}
		},
		{
			"type" : "Feature",
			"geometry" : {
				"type" : "Point",
				"coordinates" : [ 139.6252646963, 35.4746557828 ]
			},
			"properties" : {
				"駅名" : "反町駅",
				"高さ" : "10.9",
				"鉄道区分" : "普通鉄道",
				"事業者種別" : "民営鉄道",
				"路線名" : "東横線",
				"運営会社" : "東急電鉄"
			}
		},
		{
			"type" : "Feature",
			"geometry" : {
				"type" : "Point",
				"coordinates" : [ 139.6295333685, 35.4834031691 ]
			},
			"properties" : {
				"駅名" : "東白楽駅",
				"高さ" : "0",
				"鉄道区分" : "普通鉄道",
				"事業者種別" : "民営鉄道",
				"路線名" : "東横線",
				"運営会社" : "東急電鉄"
			}
		},
		{
			"type" : "Feature",
			"geometry" : {
				"type" : "Point",
				"coordinates" : [ 139.6279035983, 35.4896996833 ]
			},
			"properties" : {
				"駅名" : "白楽駅",
				"高さ" : "8.3",
				"鉄道区分" : "普通鉄道",
				"事業者種別" : "民営鉄道",
				"路線名" : "東横線",
				"運営会社" : "東急電鉄"
			}
		},
		{
			"type" : "Feature",
			"geometry" : {
				"type" : "Point",
				"coordinates" : [ 139.6332533105, 35.4778743633 ]
			},
			"properties" : {
				"駅名" : "東神奈川駅",
				"高さ" : "9.3",
				"鉄道区分" : "普通鉄道JR",
				"事業者種別" : "JR在来線",
				"路線名" : "横浜線",
				"運営会社" : "東日本旅客鉄道"
			}
		},
		{
			"type" : "Feature",
			"geometry" : {
				"type" : "Point",
				"coordinates" : [ 139.6462938797, 35.4923590823 ]
			},
			"properties" : {
				"駅名" : "大口駅",
				"高さ" : "9",
				"鉄道区分" : "普通鉄道JR",
				"事業者種別" : "JR在来線",
				"路線名" : "横浜線",
				"運営会社" : "東日本旅客鉄道"
			}
		},
		{
			"type" : "Feature",
			"geometry" : {
				"type" : "Point",
				"coordinates" : [ 139.6540619347, 35.4867799491 ]
			},
			"properties" : {
				"駅名" : "新子安駅",
				"高さ" : "0",
				"鉄道区分" : "普通鉄道JR",
				"事業者種別" : "JR在来線",
				"路線名" : "東海道線",
				"運営会社" : "東日本旅客鉄道"
			}
		},
		{
			"type" : "Feature",
			"geometry" : {
				"type" : "Point",
				"coordinates" : [ 139.6332533105, 35.4778743633 ]
			},
			"properties" : {
				"駅名" : "東神奈川駅",
				"高さ" : "9.3",
				"鉄道区分" : "普通鉄道JR",
				"事業者種別" : "JR在来線",
				"路線名" : "東海道線",
				"運営会社" : "東日本旅客鉄道"
			}
		},
		{
			"type" : "Feature",
			"geometry" : {
				"type" : "Point",
				"coordinates" : [ 139.5861431051, 35.4812324178 ]
			},
			"properties" : {
				"駅名" : "羽沢横浜国大駅",
				"高さ" : "7",
				"鉄道区分" : "普通鉄道",
				"事業者種別" : "民営鉄道",
				"路線名" : "相鉄新横浜線",
				"運営会社" : "相模鉄道"
			}
		},
		{
			"type" : "Feature",
			"geometry" : {
				"type" : "Point",
				"coordinates" : [ 139.5861431051, 35.4812324178 ]
			},
			"properties" : {
				"駅名" : "羽沢横浜国大駅",
				"高さ" : "7",
				"鉄道区分" : "普通鉄道JR",
				"事業者種別" : "JR在来線",
				"路線名" : "東海道線",
				"運営会社" : "東日本旅客鉄道"
			}
		}
	]
}