{
	"type" : "FeatureCollection",
	"name" : "14104_yokohama-shi_naka-ku_station",
	"features" : [
		{
			"type" : "Feature",
			"geometry" : {
				"type" : "Point",
				"coordinates" : [ 139.6507483722, 35.442308168 ]
			},
			"properties" : {
				"駅名" : "元町・中華街駅",
				"高さ" : "0",
				"鉄道区分" : "普通鉄道",
				"事業者種別" : "第三セクター",
				"路線名" : "みなとみらい21線",
				"運営会社" : "横浜高速鉄道"
			}
		},
		{
			"type" : "Feature",
			"geometry" : {
				"type" : "Point",
				"coordinates" : [ 139.6362083696, 35.4500781706 ]
			},
			"properties" : {
				"駅名" : "馬車道駅",
				"高さ" : "0",
				"鉄道区分" : "普通鉄道",
				"事業者種別" : "第三セクター",
				"路線名" : "みなとみらい21線",
				"運営会社" : "横浜高速鉄道"
			}
		},
		{
			"type" : "Feature",
			"geometry" : {
				"type" : "Point",
				"coordinates" : [ 139.6427333712, 35.4467981688 ]
			},
			"properties" : {
				"駅名" : "日本大通り駅",
				"高さ" : "0",
				"鉄道区分" : "普通鉄道",
				"事業者種別" : "第三セクター",
				"路線名" : "みなとみらい21線",
				"運営会社" : "横浜高速鉄道"
			}
		},
		{
			"type" : "Feature",
			"geometry" : {
				"type" : "Point",
				"coordinates" : [ 139.6251501203, 35.4376206244 ]
			},
			"properties" : {
				"駅名" : "阪東橋駅",
				"高さ" : "0",
				"鉄道区分" : "普通鉄道",
				"事業者種別" : "公営鉄道",
				"路線名" : "1号線",
				"運営会社" : "横浜市"
			}
		},
		{
			"type" : "Feature",
			"geometry" : {
				"type" : "Point",
				"coordinates" : [ 139.6327788443, 35.4409954285 ]
			},
			"properties" : {
				"駅名" : "伊勢佐木長者町駅",
				"高さ" : "0",
				"鉄道区分" : "普通鉄道",
				"事業者種別" : "公営鉄道",
				"路線名" : "1号線",
				"運営会社" : "横浜市"
			}
		},
		{
			"type" : "Feature",
			"geometry" : {
				"type" : "Point",
				"coordinates" : [ 139.6360283674, 35.4457731679 ]
			},
			"properties" : {
				"駅名" : "関内駅",
				"高さ" : "0",
				"鉄道区分" : "普通鉄道",
				"事業者種別" : "公営鉄道",
				"路線名" : "1号線",
				"運営会社" : "横浜市"
			}
		},
		{
			"type" : "Feature",
			"geometry" : {
				"type" : "Point",
				"coordinates" : [ 139.6307526061, 35.4496377675 ]
			},
			"properties" : {
				"駅名" : "桜木町駅",
				"高さ" : "0",
				"鉄道区分" : "普通鉄道",
				"事業者種別" : "公営鉄道",
				"路線名" : "3号線",
				"運営会社" : "横浜市"
			}
		},
		{
			"type" : "Feature",
			"geometry" : {
				"type" : "Point",
				"coordinates" : [ 139.6360283674, 35.4457731679 ]
			},
			"properties" : {
				"駅名" : "関内駅",
				"高さ" : "0",
				"鉄道区分" : "普通鉄道",
				"事業者種別" : "公営鉄道",
				"路線名" : "3号線",
				"運営会社" : "横浜市"
			}
		},
		{
			"type" : "Feature",
			"geometry" : {
				"type" : "Point",
				"coordinates" : [ 139.6267689847, 35.4456554375 ]
			},
			"properties" : {
				"駅名" : "日ノ出町駅",
				"高さ" : "7.5",
				"鉄道区分" : "普通鉄道",
				"事業者種別" : "民営鉄道",
				"路線名" : "本線",
				"運営会社" : "京浜急行電鉄"
			}
		},
		{
			"type" : "Feature",
			"geometry" : {
				"type" : "Point",
				"coordinates" : [ 139.646478366, 35.4268031642 ]
			},
			"properties" : {
				"駅名" : "山手駅",
				"高さ" : "0",
				"鉄道区分" : "普通鉄道JR",
				"事業者種別" : "JR在来線",
				"路線名" : "根岸線",
				"運営会社" : "東日本旅客鉄道"
			}
		},
		{
			"type" : "Feature",
			"geometry" : {
				"type" : "Point",
				"coordinates" : [ 139.6430437938, 35.4387807713 ]
			},
			"properties" : {
				"駅名" : "石川町駅",
				"高さ" : "13.6",
				"鉄道区分" : "普通鉄道JR",
				"事業者種別" : "JR在来線",
				"路線名" : "根岸線",
				"運営会社" : "東日本旅客鉄道"
			}
		},
		{
			"type" : "Feature",
			"geometry" : {
				"type" : "Point",
				"coordinates" : [ 139.6360369351, 35.4441658028 ]
			},
			"properties" : {
				"駅名" : "関内駅",
				"高さ" : "15.7",
				"鉄道区分" : "普通鉄道JR",
				"事業者種別" : "JR在来線",
				"路線名" : "根岸線",
				"運営会社" : "東日本旅客鉄道"
			}
		},
		{
			"type" : "Feature",
			"geometry" : {
				"type" : "Point",
				"coordinates" : [ 139.6308883722, 35.4511031698 ]
			},
			"properties" : {
				"駅名" : "桜木町駅",
				"高さ" : "16.4",
				"鉄道区分" : "普通鉄道JR",
				"事業者種別" : "JR在来線",
				"路線名" : "根岸線",
				"運営会社" : "東日本旅客鉄道"
			}
		}
	]
}