{
	"type" : "FeatureCollection",
	"name" : "14107_yokohama-shi_isogo-ku_shelter",
	"features" : [
		{
			"type" : "Feature",
			"geometry" : {
				"type" : "Point",
				"coordinates" : [ 139.6091965164, 35.3691832698 ]
			},
			"properties" : {
				"高さ" : "15.2",
				"行政区域" : "14107",
				"名称" : "さわの里小学校",
				"住所" : "神奈川県横浜市磯子区上中里町548",
				"施設の種類" : "避難所",
				"収容人数" : null,
				"施設規模" : "5140",
				"対象とする災害の分類" : "地震災害",
				"レベル" : "3"
			}
		},
		{
			"type" : "Feature",
			"geometry" : {
				"type" : "Point",
				"coordinates" : [ 139.622158845, 35.414190613 ]
			},
			"properties" : {
				"高さ" : "14.8",
				"行政区域" : "14107",
				"名称" : "磯子小学校",
				"住所" : "神奈川県横浜市磯子区久木町11-1",
				"施設の種類" : "避難所",
				"収容人数" : null,
				"施設規模" : "5086",
				"対象とする災害の分類" : "指定なし",
				"レベル" : "1"
			}
		},
		{
			"type" : "Feature",
			"geometry" : {
				"type" : "Point",
				"coordinates" : [ 139.6112886473, 35.4213445465 ]
			},
			"properties" : {
				"高さ" : "11.2",
				"行政区域" : "14107",
				"名称" : "岡村小学校",
				"住所" : "神奈川県横浜市磯子区岡村1-14-1",
				"施設の種類" : "避難所",
				"収容人数" : null,
				"施設規模" : "4302",
				"対象とする災害の分類" : "地震災害",
				"レベル" : "1"
			}
		},
		{
			"type" : "Feature",
			"geometry" : {
				"type" : "Point",
				"coordinates" : [ 139.6171038541, 35.4165516109 ]
			},
			"properties" : {
				"高さ" : "10.9",
				"行政区域" : "14107",
				"名称" : "岡村中学校",
				"住所" : "神奈川県横浜市磯子区岡村1-14-1",
				"施設の種類" : "避難所",
				"収容人数" : null,
				"施設規模" : "7241",
				"対象とする災害の分類" : "地震災害",
				"レベル" : "1"
			}
		},
		{
			"type" : "Feature",
			"geometry" : {
				"type" : "Point",
				"coordinates" : [ 139.6329359173, 35.4177455994 ]
			},
			"properties" : {
				"高さ" : "12.7",
				"行政区域" : "14107",
				"名称" : "根岸小学校",
				"住所" : "神奈川県横浜市磯子区西町2-46",
				"施設の種類" : "避難所",
				"収容人数" : null,
				"施設規模" : "5204",
				"対象とする災害の分類" : "指定なし",
				"レベル" : "1"
			}
		},
		{
			"type" : "Feature",
			"geometry" : {
				"type" : "Point",
				"coordinates" : [ 139.6314523593, 35.4149731643 ]
			},
			"properties" : {
				"高さ" : "15.2",
				"行政区域" : "14107",
				"名称" : "根岸中学校",
				"住所" : "神奈川県横浜市磯子区西町17-13",
				"施設の種類" : "避難所",
				"収容人数" : null,
				"施設規模" : "5757",
				"対象とする災害の分類" : "地震災害",
				"レベル" : "1"
			}
		},
		{
			"type" : "Feature",
			"geometry" : {
				"type" : "Point",
				"coordinates" : [ 139.6145487562, 35.4078856292 ]
			},
			"properties" : {
				"高さ" : "13.3",
				"行政区域" : "14107",
				"名称" : "山王台小学校",
				"住所" : "神奈川県横浜市磯子区磯子5-2-1",
				"施設の種類" : "避難所",
				"収容人数" : null,
				"施設規模" : "4682",
				"対象とする災害の分類" : "地震災害",
				"レベル" : "1"
			}
		},
		{
			"type" : "Feature",
			"geometry" : {
				"type" : "Point",
				"coordinates" : [ 139.6070206633, 35.4009706474 ]
			},
			"properties" : {
				"高さ" : "10.4",
				"行政区域" : "14107",
				"名称" : "汐見台小学校",
				"住所" : "神奈川県横浜市磯子区汐見台3-6",
				"施設の種類" : "避難所",
				"収容人数" : null,
				"施設規模" : "5918",
				"対象とする災害の分類" : "地震災害",
				"レベル" : "1"
			}
		},
		{
			"type" : "Feature",
			"geometry" : {
				"type" : "Point",
				"coordinates" : [ 139.6113267391, 35.4070526321 ]
			},
			"properties" : {
				"高さ" : "14.7",
				"行政区域" : "14107",
				"名称" : "汐見台中学校",
				"住所" : "神奈川県横浜市磯子区汐見台1-2-1",
				"施設の種類" : "避難所",
				"収容人数" : null,
				"施設規模" : "5933",
				"対象とする災害の分類" : "地震災害",
				"レベル" : "1"
			}
		},
		{
			"type" : "Feature",
			"geometry" : {
				"type" : "Point",
				"coordinates" : [ 139.6051885707, 35.3926096667 ]
			},
			"properties" : {
				"高さ" : "14.8",
				"行政区域" : "14107",
				"名称" : "森中学校",
				"住所" : "神奈川県横浜市磯子区森5-22-1",
				"施設の種類" : "避難所",
				"収容人数" : null,
				"施設規模" : "6021",
				"対象とする災害の分類" : "地震災害",
				"レベル" : "1"
			}
		},
		{
			"type" : "Feature",
			"geometry" : {
				"type" : "Point",
				"coordinates" : [ 139.6159646498, 35.3975266528 ]
			},
			"properties" : {
				"高さ" : "15.9",
				"行政区域" : "14107",
				"名称" : "森東小学校",
				"住所" : "神奈川県横浜市磯子区森1-4",
				"施設の種類" : "避難所",
				"収容人数" : null,
				"施設規模" : "5053",
				"対象とする災害の分類" : "地震災害",
				"レベル" : "1"
			}
		},
		{
			"type" : "Feature",
			"geometry" : {
				"type" : "Point",
				"coordinates" : [ 139.616721363, 35.3855201531 ]
			},
			"properties" : {
				"高さ" : "14.9",
				"行政区域" : "14107",
				"名称" : "杉田小学校",
				"住所" : "神奈川県横浜市磯子区杉田1-8-1",
				"施設の種類" : "避難所",
				"収容人数" : null,
				"施設規模" : "5321",
				"対象とする災害の分類" : "地震災害",
				"レベル" : "1"
			}
		},
		{
			"type" : "Feature",
			"geometry" : {
				"type" : "Point",
				"coordinates" : [ 139.6209089218, 35.4220225969 ]
			},
			"properties" : {
				"高さ" : "14.7",
				"行政区域" : "14107",
				"名称" : "滝頭小学校",
				"住所" : "神奈川県横浜市磯子区丸山2-25-1",
				"施設の種類" : "避難所",
				"収容人数" : null,
				"施設規模" : "5644",
				"対象とする災害の分類" : "指定なし",
				"レベル" : "1"
			}
		},
		{
			"type" : "Feature",
			"geometry" : {
				"type" : "Point",
				"coordinates" : [ 139.6202144572, 35.3777787031 ]
			},
			"properties" : {
				"高さ" : "11",
				"行政区域" : "14107",
				"名称" : "梅林小学校",
				"住所" : "神奈川県横浜市磯子区杉田5-13-1",
				"施設の種類" : "避難所",
				"収容人数" : null,
				"施設規模" : "5525",
				"対象とする災害の分類" : "地震災害",
				"レベル" : "1"
			}
		},
		{
			"type" : "Feature",
			"geometry" : {
				"type" : "Point",
				"coordinates" : [ 139.6140765757, 35.3910266667 ]
			},
			"properties" : {
				"高さ" : "11",
				"行政区域" : "14107",
				"名称" : "屏風浦小学校",
				"住所" : "神奈川県横浜市磯子区森3-11-1",
				"施設の種類" : "避難所",
				"収容人数" : null,
				"施設規模" : "5175",
				"対象とする災害の分類" : "地震災害",
				"レベル" : "1"
			}
		},
		{
			"type" : "Feature",
			"geometry" : {
				"type" : "Point",
				"coordinates" : [ 139.6133082762, 35.4059508108 ]
			},
			"properties" : {
				"高さ" : "5.1",
				"行政区域" : "14107",
				"名称" : "浜小学校",
				"住所" : "神奈川県横浜市磯子区磯子台23-1",
				"施設の種類" : "避難所",
				"収容人数" : null,
				"施設規模" : "6193",
				"対象とする災害の分類" : "地震災害",
				"レベル" : "1"
			}
		},
		{
			"type" : "Feature",
			"geometry" : {
				"type" : "Point",
				"coordinates" : [ 139.6111594301, 35.3783056985 ]
			},
			"properties" : {
				"高さ" : "11.4",
				"行政区域" : "14107",
				"名称" : "浜中学校",
				"住所" : "神奈川県横浜市磯子区杉田3-30-11",
				"施設の種類" : "避難所",
				"収容人数" : null,
				"施設規模" : "8000",
				"対象とする災害の分類" : "地震災害",
				"レベル" : "1"
			}
		},
		{
			"type" : "Feature",
			"geometry" : {
				"type" : "Point",
				"coordinates" : [ 139.5998833812, 35.3764167049 ]
			},
			"properties" : {
				"高さ" : "14.7",
				"行政区域" : "14107",
				"名称" : "洋光台第二小学校",
				"住所" : "神奈川県横浜市磯子区洋光台4-15-1",
				"施設の種類" : "避難所",
				"収容人数" : null,
				"施設規模" : "4609",
				"対象とする災害の分類" : "地震災害",
				"レベル" : "1"
			}
		},
		{
			"type" : "Feature",
			"geometry" : {
				"type" : "Point",
				"coordinates" : [ 139.5972723435, 35.3730837153 ]
			},
			"properties" : {
				"高さ" : "14.8",
				"行政区域" : "14107",
				"名称" : "洋光台第四小学校",
				"住所" : "神奈川県横浜市磯子区洋光台6-6-1",
				"施設の種類" : "避難所",
				"収容人数" : null,
				"施設規模" : "5545",
				"対象とする災害の分類" : "地震災害",
				"レベル" : "1"
			}
		},
		{
			"type" : "Feature",
			"geometry" : {
				"type" : "Point",
				"coordinates" : [ 139.5955774619, 35.3841936901 ]
			},
			"properties" : {
				"高さ" : "15.3",
				"行政区域" : "14107",
				"名称" : "洋光台第一小学校",
				"住所" : "神奈川県横浜市磯子区洋光台1-4-1",
				"施設の種類" : "避難所",
				"収容人数" : null,
				"施設規模" : "5757",
				"対象とする災害の分類" : "指定なし",
				"レベル" : "1"
			}
		},
		{
			"type" : "Feature",
			"geometry" : {
				"type" : "Point",
				"coordinates" : [ 139.5900784376, 35.3823326995 ]
			},
			"properties" : {
				"高さ" : "14.7",
				"行政区域" : "14107",
				"名称" : "洋光台第三小学校",
				"住所" : "神奈川県横浜市磯子区洋光台2-4-1",
				"施設の種類" : "避難所",
				"収容人数" : null,
				"施設規模" : "6452",
				"対象とする災害の分類" : "地震災害",
				"レベル" : "1"
			}
		}
	]
}