{
	"type" : "FeatureCollection",
	"name" : "14117_yokohama-shi_aoba-ku_station",
	"features" : [
		{
			"type" : "Feature",
			"geometry" : {
				"type" : "Point",
				"coordinates" : [ 139.5541633726, 35.5679581847 ]
			},
			"properties" : {
				"駅名" : "あざみ野駅",
				"高さ" : "0",
				"鉄道区分" : "普通鉄道",
				"事業者種別" : "公営鉄道",
				"路線名" : "3号線",
				"運営会社" : "横浜市"
			}
		},
		{
			"type" : "Feature",
			"geometry" : {
				"type" : "Point",
				"coordinates" : [ 139.4864901453, 35.5581816489 ]
			},
			"properties" : {
				"駅名" : "こどもの国駅",
				"高さ" : "7.2",
				"鉄道区分" : "普通鉄道",
				"事業者種別" : "民営鉄道",
				"路線名" : "こどもの国線",
				"運営会社" : "東急電鉄"
			}
		},
		{
			"type" : "Feature",
			"geometry" : {
				"type" : "Point",
				"coordinates" : [ 139.49216519, 35.5456008666 ]
			},
			"properties" : {
				"駅名" : "恩田駅",
				"高さ" : "10.3",
				"鉄道区分" : "普通鉄道",
				"事業者種別" : "民営鉄道",
				"路線名" : "こどもの国線",
				"運営会社" : "東急電鉄"
			}
		},
		{
			"type" : "Feature",
			"geometry" : {
				"type" : "Point",
				"coordinates" : [ 139.5173083637, 35.5428581865 ]
			},
			"properties" : {
				"駅名" : "青葉台駅",
				"高さ" : "0",
				"鉄道区分" : "普通鉄道",
				"事業者種別" : "民営鉄道",
				"路線名" : "田園都市線",
				"運営会社" : "東急電鉄"
			}
		},
		{
			"type" : "Feature",
			"geometry" : {
				"type" : "Point",
				"coordinates" : [ 139.5412683654, 35.5512681835 ]
			},
			"properties" : {
				"駅名" : "市が尾駅",
				"高さ" : "4.8",
				"鉄道区分" : "普通鉄道",
				"事業者種別" : "民営鉄道",
				"路線名" : "田園都市線",
				"運営会社" : "東急電鉄"
			}
		},
		{
			"type" : "Feature",
			"geometry" : {
				"type" : "Point",
				"coordinates" : [ 139.5586426938, 35.5774446232 ]
			},
			"properties" : {
				"駅名" : "たまプラーザ駅",
				"高さ" : "17",
				"鉄道区分" : "普通鉄道",
				"事業者種別" : "民営鉄道",
				"路線名" : "田園都市線",
				"運営会社" : "東急電鉄"
			}
		},
		{
			"type" : "Feature",
			"geometry" : {
				"type" : "Point",
				"coordinates" : [ 139.5535551615, 35.5687779314 ]
			},
			"properties" : {
				"駅名" : "あざみ野駅",
				"高さ" : "10.2",
				"鉄道区分" : "普通鉄道",
				"事業者種別" : "民営鉄道",
				"路線名" : "田園都市線",
				"運営会社" : "東急電鉄"
			}
		},
		{
			"type" : "Feature",
			"geometry" : {
				"type" : "Point",
				"coordinates" : [ 139.5049585606, 35.536134179 ]
			},
			"properties" : {
				"駅名" : "田奈駅",
				"高さ" : "11",
				"鉄道区分" : "普通鉄道",
				"事業者種別" : "民営鉄道",
				"路線名" : "田園都市線",
				"運営会社" : "東急電鉄"
			}
		},
		{
			"type" : "Feature",
			"geometry" : {
				"type" : "Point",
				"coordinates" : [ 139.5278667625, 35.5436054386 ]
			},
			"properties" : {
				"駅名" : "藤が丘駅",
				"高さ" : "7.4",
				"鉄道区分" : "普通鉄道",
				"事業者種別" : "民営鉄道",
				"路線名" : "田園都市線",
				"運営会社" : "東急電鉄"
			}
		},
		{
			"type" : "Feature",
			"geometry" : {
				"type" : "Point",
				"coordinates" : [ 139.5514183694, 35.5585381829 ]
			},
			"properties" : {
				"駅名" : "江田駅",
				"高さ" : "9.1",
				"鉄道区分" : "普通鉄道",
				"事業者種別" : "民営鉄道",
				"路線名" : "田園都市線",
				"運営会社" : "東急電鉄"
			}
		}
	]
}