{
	"type" : "FeatureCollection",
	"name" : "14116_yokohama-shi_izumi-ku_station",
	"features" : [
		{
			"type" : "Feature",
			"geometry" : {
				"type" : "Point",
				"coordinates" : [ 139.5184246224, 35.4056693697 ]
			},
			"properties" : {
				"駅名" : "踊場駅",
				"高さ" : "0",
				"鉄道区分" : "普通鉄道",
				"事業者種別" : "公営鉄道",
				"路線名" : "1号線",
				"運営会社" : "横浜市"
			}
		},
		{
			"type" : "Feature",
			"geometry" : {
				"type" : "Point",
				"coordinates" : [ 139.5112283467, 35.4111581769 ]
			},
			"properties" : {
				"駅名" : "中田駅",
				"高さ" : "0",
				"鉄道区分" : "普通鉄道",
				"事業者種別" : "公営鉄道",
				"路線名" : "1号線",
				"運営会社" : "横浜市"
			}
		},
		{
			"type" : "Feature",
			"geometry" : {
				"type" : "Point",
				"coordinates" : [ 139.5000968217, 35.4143236919 ]
			},
			"properties" : {
				"駅名" : "立場駅",
				"高さ" : "5.5",
				"鉄道区分" : "普通鉄道",
				"事業者種別" : "公営鉄道",
				"路線名" : "1号線",
				"運営会社" : "横浜市"
			}
		},
		{
			"type" : "Feature",
			"geometry" : {
				"type" : "Point",
				"coordinates" : [ 139.4828933395, 35.4033781783 ]
			},
			"properties" : {
				"駅名" : "下飯田駅",
				"高さ" : "4.1",
				"鉄道区分" : "普通鉄道",
				"事業者種別" : "公営鉄道",
				"路線名" : "1号線",
				"運営会社" : "横浜市"
			}
		},
		{
			"type" : "Feature",
			"geometry" : {
				"type" : "Point",
				"coordinates" : [ 139.4951283481, 35.4294981827 ]
			},
			"properties" : {
				"駅名" : "いずみ野駅",
				"高さ" : "12",
				"鉄道区分" : "普通鉄道",
				"事業者種別" : "民営鉄道",
				"路線名" : "いずみ野線",
				"運営会社" : "相模鉄道"
			}
		},
		{
			"type" : "Feature",
			"geometry" : {
				"type" : "Point",
				"coordinates" : [ 139.506499387, 35.4299450769 ]
			},
			"properties" : {
				"駅名" : "弥生台駅",
				"高さ" : "8.9",
				"鉄道区分" : "普通鉄道",
				"事業者種別" : "民営鉄道",
				"路線名" : "いずみ野線",
				"運営会社" : "相模鉄道"
			}
		},
		{
			"type" : "Feature",
			"geometry" : {
				"type" : "Point",
				"coordinates" : [ 139.5216587247, 35.4393678817 ]
			},
			"properties" : {
				"駅名" : "緑園都市駅",
				"高さ" : "8.6",
				"鉄道区分" : "普通鉄道",
				"事業者種別" : "民営鉄道",
				"路線名" : "いずみ野線",
				"運営会社" : "相模鉄道"
			}
		},
		{
			"type" : "Feature",
			"geometry" : {
				"type" : "Point",
				"coordinates" : [ 139.4823683377, 35.4056481781 ]
			},
			"properties" : {
				"駅名" : "ゆめが丘駅",
				"高さ" : "0",
				"鉄道区分" : "普通鉄道",
				"事業者種別" : "民営鉄道",
				"路線名" : "いずみ野線",
				"運営会社" : "相模鉄道"
			}
		},
		{
			"type" : "Feature",
			"geometry" : {
				"type" : "Point",
				"coordinates" : [ 139.487193341, 35.4151031785 ]
			},
			"properties" : {
				"駅名" : "いずみ中央駅",
				"高さ" : "14.7",
				"鉄道区分" : "普通鉄道",
				"事業者種別" : "民営鉄道",
				"路線名" : "いずみ野線",
				"運営会社" : "相模鉄道"
			}
		}
	]
}