{
	"type" : "FeatureCollection",
	"name" : "14113_yokohama-shi_midori-ku_station",
	"features" : [
		{
			"type" : "Feature",
			"geometry" : {
				"type" : "Point",
				"coordinates" : [ 139.4941083612, 35.5319331926 ]
			},
			"properties" : {
				"駅名" : "長津田駅",
				"高さ" : "10.3",
				"鉄道区分" : "普通鉄道",
				"事業者種別" : "民営鉄道",
				"路線名" : "こどもの国線",
				"運営会社" : "東急電鉄"
			}
		},
		{
			"type" : "Feature",
			"geometry" : {
				"type" : "Point",
				"coordinates" : [ 139.4942533595, 35.531833191 ]
			},
			"properties" : {
				"駅名" : "長津田駅",
				"高さ" : "10.3",
				"鉄道区分" : "普通鉄道",
				"事業者種別" : "民営鉄道",
				"路線名" : "田園都市線",
				"運営会社" : "東急電鉄"
			}
		},
		{
			"type" : "Feature",
			"geometry" : {
				"type" : "Point",
				"coordinates" : [ 139.5392242435, 35.514774296 ]
			},
			"properties" : {
				"駅名" : "中山駅",
				"高さ" : "11.3",
				"鉄道区分" : "普通鉄道JR",
				"事業者種別" : "JR在来線",
				"路線名" : "横浜線",
				"運営会社" : "東日本旅客鉄道"
			}
		},
		{
			"type" : "Feature",
			"geometry" : {
				"type" : "Point",
				"coordinates" : [ 139.5165028974, 35.5262671735 ]
			},
			"properties" : {
				"駅名" : "十日市場駅",
				"高さ" : "11.6",
				"鉄道区分" : "普通鉄道JR",
				"事業者種別" : "JR在来線",
				"路線名" : "横浜線",
				"運営会社" : "東日本旅客鉄道"
			}
		},
		{
			"type" : "Feature",
			"geometry" : {
				"type" : "Point",
				"coordinates" : [ 139.4952282979, 35.5317332832 ]
			},
			"properties" : {
				"駅名" : "長津田駅",
				"高さ" : "10.3",
				"鉄道区分" : "普通鉄道JR",
				"事業者種別" : "JR在来線",
				"路線名" : "横浜線",
				"運営会社" : "東日本旅客鉄道"
			}
		},
		{
			"type" : "Feature",
			"geometry" : {
				"type" : "Point",
				"coordinates" : [ 139.5669583644, 35.5108531801 ]
			},
			"properties" : {
				"駅名" : "鴨居駅",
				"高さ" : "12.1",
				"鉄道区分" : "普通鉄道JR",
				"事業者種別" : "JR在来線",
				"路線名" : "横浜線",
				"運営会社" : "東日本旅客鉄道"
			}
		},
		{
			"type" : "Feature",
			"geometry" : {
				"type" : "Point",
				"coordinates" : [ 139.5402733622, 35.5147431804 ]
			},
			"properties" : {
				"駅名" : "中山駅",
				"高さ" : "0",
				"鉄道区分" : "普通鉄道",
				"事業者種別" : "公営鉄道",
				"路線名" : "4号線",
				"運営会社" : "横浜市"
			}
		}
	]
}