{
	"type" : "FeatureCollection",
	"name" : "14114_yokohama-shi_seya-ku_shelter",
	"features" : [
		{
			"type" : "Feature",
			"geometry" : {
				"type" : "Point",
				"coordinates" : [ 139.4971149276, 35.4411576087 ]
			},
			"properties" : {
				"高さ" : "11.4",
				"行政区域" : "14114",
				"名称" : "阿久和小学校",
				"住所" : "神奈川県横浜市瀬谷区阿久和南4-8-2",
				"施設の種類" : "避難所",
				"収容人数" : null,
				"施設規模" : "5505",
				"対象とする災害の分類" : "地震災害",
				"レベル" : "1"
			}
		},
		{
			"type" : "Feature",
			"geometry" : {
				"type" : "Point",
				"coordinates" : [ 139.4855039515, 35.4456845918 ]
			},
			"properties" : {
				"高さ" : "11.1",
				"行政区域" : "14114",
				"名称" : "旧日向山小学校",
				"住所" : "神奈川県横浜市瀬谷区南瀬谷2-20",
				"施設の種類" : "避難所",
				"収容人数" : null,
				"施設規模" : "5199",
				"対象とする災害の分類" : "指定なし",
				"レベル" : "1"
			}
		},
		{
			"type" : "Feature",
			"geometry" : {
				"type" : "Point",
				"coordinates" : [ 139.5005285884, 35.4471989887 ]
			},
			"properties" : {
				"高さ" : "11.4",
				"行政区域" : "14114",
				"名称" : "原小学校",
				"住所" : "神奈川県横浜市瀬谷区阿久和東4-33-1",
				"施設の種類" : "避難所",
				"収容人数" : null,
				"施設規模" : "6732",
				"対象とする災害の分類" : "指定なし",
				"レベル" : "1"
			}
		},
		{
			"type" : "Feature",
			"geometry" : {
				"type" : "Point",
				"coordinates" : [ 139.4980882295, 35.4547076794 ]
			},
			"properties" : {
				"高さ" : "11.2",
				"行政区域" : "14114",
				"名称" : "原中学校",
				"住所" : "神奈川県横浜市瀬谷区阿久和西2-1-6",
				"施設の種類" : "避難所",
				"収容人数" : null,
				"施設規模" : "7338",
				"対象とする災害の分類" : "地震災害",
				"レベル" : "1"
			}
		},
		{
			"type" : "Feature",
			"geometry" : {
				"type" : "Point",
				"coordinates" : [ 139.4980299703, 35.4605238906 ]
			},
			"properties" : {
				"高さ" : "14.6",
				"行政区域" : "14114",
				"名称" : "三ツ境小学校",
				"住所" : "神奈川県横浜市瀬谷区三ツ境157",
				"施設の種類" : "避難所",
				"収容人数" : null,
				"施設規模" : "6882",
				"対象とする災害の分類" : "指定なし",
				"レベル" : "1"
			}
		},
		{
			"type" : "Feature",
			"geometry" : {
				"type" : "Point",
				"coordinates" : [ 139.4770993915, 35.4893850546 ]
			},
			"properties" : {
				"高さ" : "7.7",
				"行政区域" : "14114",
				"名称" : "上瀬谷小学校",
				"住所" : "神奈川県横浜市瀬谷区瀬谷町7140",
				"施設の種類" : "避難所",
				"収容人数" : null,
				"施設規模" : "5299",
				"対象とする災害の分類" : "指定なし",
				"レベル" : "1"
			}
		},
		{
			"type" : "Feature",
			"geometry" : {
				"type" : "Point",
				"coordinates" : [ 139.4813149873, 35.4513709313 ]
			},
			"properties" : {
				"高さ" : "15.6",
				"行政区域" : "14114",
				"名称" : "瀬谷さくら小学校",
				"住所" : "神奈川県横浜市瀬谷区下瀬谷3-58-1",
				"施設の種類" : "避難所",
				"収容人数" : null,
				"施設規模" : "5187",
				"対象とする災害の分類" : "地震災害",
				"レベル" : "3"
			}
		},
		{
			"type" : "Feature",
			"geometry" : {
				"type" : "Point",
				"coordinates" : [ 139.4841490399, 35.4724757429 ]
			},
			"properties" : {
				"高さ" : "11.8",
				"行政区域" : "14114",
				"名称" : "瀬谷小学校",
				"住所" : "神奈川県横浜市瀬谷区相沢4-1-1",
				"施設の種類" : "避難所",
				"収容人数" : null,
				"施設規模" : "6154",
				"対象とする災害の分類" : "指定なし",
				"レベル" : "1"
			}
		},
		{
			"type" : "Feature",
			"geometry" : {
				"type" : "Point",
				"coordinates" : [ 139.481930228, 35.4607066724 ]
			},
			"properties" : {
				"高さ" : "11.2",
				"行政区域" : "14114",
				"名称" : "瀬谷第二小学校",
				"住所" : "神奈川県横浜市瀬谷区橋戸2-41-1",
				"施設の種類" : "避難所",
				"収容人数" : null,
				"施設規模" : "5711",
				"対象とする災害の分類" : "指定なし",
				"レベル" : "1"
			}
		},
		{
			"type" : "Feature",
			"geometry" : {
				"type" : "Point",
				"coordinates" : [ 139.4809389799, 35.4718028232 ]
			},
			"properties" : {
				"高さ" : "15.3",
				"行政区域" : "14114",
				"名称" : "瀬谷中学校",
				"住所" : "神奈川県横浜市瀬谷区中央5-41",
				"施設の種類" : "避難所",
				"収容人数" : null,
				"施設規模" : "6528",
				"対象とする災害の分類" : "指定なし",
				"レベル" : "1"
			}
		},
		{
			"type" : "Feature",
			"geometry" : {
				"type" : "Point",
				"coordinates" : [ 139.4901701642, 35.4754585251 ]
			},
			"properties" : {
				"高さ" : "15.2",
				"行政区域" : "14114",
				"名称" : "相沢小学校",
				"住所" : "神奈川県横浜市瀬谷区相沢2-56-1",
				"施設の種類" : "避難所",
				"収容人数" : null,
				"施設規模" : "4916",
				"対象とする災害の分類" : "指定なし",
				"レベル" : "1"
			}
		},
		{
			"type" : "Feature",
			"geometry" : {
				"type" : "Point",
				"coordinates" : [ 139.4751151261, 35.4715135225 ]
			},
			"properties" : {
				"高さ" : "15.1",
				"行政区域" : "14114",
				"名称" : "大門小学校",
				"住所" : "神奈川県横浜市瀬谷区本郷3-47-5",
				"施設の種類" : "避難所",
				"収容人数" : null,
				"施設規模" : "5327",
				"対象とする災害の分類" : "地震災害",
				"レベル" : "1"
			}
		},
		{
			"type" : "Feature",
			"geometry" : {
				"type" : "Point",
				"coordinates" : [ 139.4867540355, 35.4573495638 ]
			},
			"properties" : {
				"高さ" : "15.6",
				"行政区域" : "14114",
				"名称" : "南瀬谷小学校",
				"住所" : "神奈川県横浜市瀬谷区南瀬谷1-1-1",
				"施設の種類" : "避難所",
				"収容人数" : null,
				"施設規模" : "7679",
				"対象とする災害の分類" : "指定なし",
				"レベル" : "1"
			}
		},
		{
			"type" : "Feature",
			"geometry" : {
				"type" : "Point",
				"coordinates" : [ 139.4854210369, 35.4576555622 ]
			},
			"properties" : {
				"高さ" : "15.5",
				"行政区域" : "14114",
				"名称" : "南瀬谷中学校",
				"住所" : "神奈川県横浜市瀬谷区南台2-2-8",
				"施設の種類" : "避難所",
				"収容人数" : null,
				"施設規模" : "5951",
				"対象とする災害の分類" : "地震災害",
				"レベル" : "1"
			}
		},
		{
			"type" : "Feature",
			"geometry" : {
				"type" : "Point",
				"coordinates" : [ 139.4974191509, 35.4728195364 ]
			},
			"properties" : {
				"高さ" : "7.3",
				"行政区域" : "14114",
				"名称" : "二つ橋小学校",
				"住所" : "神奈川県横浜市瀬谷区二ツ橋町507",
				"施設の種類" : "避難所",
				"収容人数" : null,
				"施設規模" : "5419",
				"対象とする災害の分類" : "指定なし",
				"レベル" : "1"
			}
		}
	]
}