{
	"type" : "FeatureCollection",
	"name" : "14111_yokohama-shi_konan-ku_shelter",
	"features" : [
		{
			"type" : "Feature",
			"geometry" : {
				"type" : "Point",
				"coordinates" : [ 139.5593986205, 35.4115314412 ]
			},
			"properties" : {
				"高さ" : "11.7",
				"行政区域" : "14111",
				"名称" : "永谷小学校",
				"住所" : "神奈川県横浜市港南区下永谷5-48-15",
				"施設の種類" : "避難所",
				"収容人数" : null,
				"施設規模" : "5267",
				"対象とする災害の分類" : "指定なし",
				"レベル" : "1"
			}
		},
		{
			"type" : "Feature",
			"geometry" : {
				"type" : "Point",
				"coordinates" : [ 139.5703026641, 35.4057736657 ]
			},
			"properties" : {
				"高さ" : "14.7",
				"行政区域" : "14111",
				"名称" : "永野小学校",
				"住所" : "神奈川県横浜市港南区上永谷2-21-10",
				"施設の種類" : "避難所",
				"収容人数" : null,
				"施設規模" : "5466",
				"対象とする災害の分類" : "地震災害",
				"レベル" : "1"
			}
		},
		{
			"type" : "Feature",
			"geometry" : {
				"type" : "Point",
				"coordinates" : [ 139.5817225829, 35.4085893096 ]
			},
			"properties" : {
				"高さ" : "15",
				"行政区域" : "14111",
				"名称" : "下永谷小学校",
				"住所" : "神奈川県横浜市港南区東永谷1-36-l",
				"施設の種類" : "避難所",
				"収容人数" : null,
				"施設規模" : "5813",
				"対象とする災害の分類" : "地震災害",
				"レベル" : "1"
			}
		},
		{
			"type" : "Feature",
			"geometry" : {
				"type" : "Point",
				"coordinates" : [ 139.5716915426, 35.3929416955 ]
			},
			"properties" : {
				"高さ" : "14.9",
				"行政区域" : "14111",
				"名称" : "下野庭小学校",
				"住所" : "神奈川県横浜市港南区野庭町602",
				"施設の種類" : "避難所",
				"収容人数" : null,
				"施設規模" : "7918",
				"対象とする災害の分類" : "地震災害",
				"レベル" : "1"
			}
		},
		{
			"type" : "Feature",
			"geometry" : {
				"type" : "Point",
				"coordinates" : [ 139.5685246185, 35.4008576796 ]
			},
			"properties" : {
				"高さ" : "11.5",
				"行政区域" : "14111",
				"名称" : "丸山台小学校",
				"住所" : "神奈川県横浜市港南区丸山台3-8-1",
				"施設の種類" : "避難所",
				"収容人数" : null,
				"施設規模" : "4572",
				"対象とする災害の分類" : "地震災害",
				"レベル" : "1"
			}
		},
		{
			"type" : "Feature",
			"geometry" : {
				"type" : "Point",
				"coordinates" : [ 139.5650535617, 35.3948306978 ]
			},
			"properties" : {
				"高さ" : "15",
				"行政区域" : "14111",
				"名称" : "丸山台中学校",
				"住所" : "神奈川県横浜市港南区丸山台4-1-1",
				"施設の種類" : "避難所",
				"収容人数" : null,
				"施設規模" : "6344",
				"対象とする災害の分類" : "地震災害",
				"レベル" : "1"
			}
		},
		{
			"type" : "Feature",
			"geometry" : {
				"type" : "Point",
				"coordinates" : [ 139.5836345893, 35.3973856717 ]
			},
			"properties" : {
				"高さ" : "14.7",
				"行政区域" : "14111",
				"名称" : "吉原小学校",
				"住所" : "神奈川県横浜市港南区日野2-20-40",
				"施設の種類" : "避難所",
				"収容人数" : null,
				"施設規模" : "4895",
				"対象とする災害の分類" : "指定なし",
				"レベル" : "1"
			}
		},
		{
			"type" : "Feature",
			"geometry" : {
				"type" : "Point",
				"coordinates" : [ 139.5738022313, 35.4155375388 ]
			},
			"properties" : {
				"高さ" : "14.7",
				"行政区域" : "14111",
				"名称" : "芹が谷小学校",
				"住所" : "神奈川県横浜市港南区芹が谷3-32-l",
				"施設の種類" : "避難所",
				"収容人数" : null,
				"施設規模" : "6051",
				"対象とする災害の分類" : "地震災害",
				"レベル" : "1"
			}
		},
		{
			"type" : "Feature",
			"geometry" : {
				"type" : "Point",
				"coordinates" : [ 139.5739687744, 35.4172996381 ]
			},
			"properties" : {
				"高さ" : "12.2",
				"行政区域" : "14111",
				"名称" : "芹が谷中学校",
				"住所" : "神奈川県横浜市港南区芹が谷2-7-l",
				"施設の種類" : "避難所",
				"収容人数" : null,
				"施設規模" : "6396",
				"対象とする災害の分類" : "地震災害",
				"レベル" : "1"
			}
		},
		{
			"type" : "Feature",
			"geometry" : {
				"type" : "Point",
				"coordinates" : [ 139.5713577262, 35.4122726506 ]
			},
			"properties" : {
				"高さ" : "14.9",
				"行政区域" : "14111",
				"名称" : "芹が谷南小学校",
				"住所" : "神奈川県横浜市港南区芹が谷4-22-1",
				"施設の種類" : "避難所",
				"収容人数" : null,
				"施設規模" : "4547",
				"対象とする災害の分類" : "地震災害",
				"レベル" : "1"
			}
		},
		{
			"type" : "Feature",
			"geometry" : {
				"type" : "Point",
				"coordinates" : [ 139.5871164173, 35.370679115 ]
			},
			"properties" : {
				"高さ" : "11.4",
				"行政区域" : "14111",
				"名称" : "港南台第一小学校",
				"住所" : "神奈川県横浜市港南区港南台6-7-l",
				"施設の種類" : "避難所",
				"収容人数" : null,
				"施設規模" : "6383",
				"対象とする災害の分類" : "地震災害",
				"レベル" : "1"
			}
		},
		{
			"type" : "Feature",
			"geometry" : {
				"type" : "Point",
				"coordinates" : [ 139.5864673248, 35.3714167333 ]
			},
			"properties" : {
				"高さ" : "15",
				"行政区域" : "14111",
				"名称" : "港南台第一中学校",
				"住所" : "神奈川県横浜市港南区港南台6-6-l",
				"施設の種類" : "避難所",
				"収容人数" : null,
				"施設規模" : "5778",
				"対象とする災害の分類" : "地震災害",
				"レベル" : "1"
			}
		},
		{
			"type" : "Feature",
			"geometry" : {
				"type" : "Point",
				"coordinates" : [ 139.5825234035, 35.378971718 ]
			},
			"properties" : {
				"高さ" : "11",
				"行政区域" : "14111",
				"名称" : "港南台第三小学校",
				"住所" : "神奈川県横浜市港南区港南台2-14-l",
				"施設の種類" : "避難所",
				"収容人数" : null,
				"施設規模" : "6289",
				"対象とする災害の分類" : "地震災害",
				"レベル" : "1"
			}
		},
		{
			"type" : "Feature",
			"geometry" : {
				"type" : "Point",
				"coordinates" : [ 139.5790793371, 35.3717217453 ]
			},
			"properties" : {
				"高さ" : "14.6",
				"行政区域" : "14111",
				"名称" : "港南台第二小学校",
				"住所" : "神奈川県横浜市港南区港南台5-4-1",
				"施設の種類" : "避難所",
				"収容人数" : null,
				"施設規模" : "5290",
				"対象とする災害の分類" : "地震災害",
				"レベル" : "1"
			}
		},
		{
			"type" : "Feature",
			"geometry" : {
				"type" : "Point",
				"coordinates" : [ 139.590522639, 35.4016636563 ]
			},
			"properties" : {
				"高さ" : "14.7",
				"行政区域" : "14111",
				"名称" : "港南中学校",
				"住所" : "神奈川県横浜市港南区港南中央通6-l",
				"施設の種類" : "避難所",
				"収容人数" : null,
				"施設規模" : "6037",
				"対象とする災害の分類" : "地震災害",
				"レベル" : "1"
			}
		},
		{
			"type" : "Feature",
			"geometry" : {
				"type" : "Point",
				"coordinates" : [ 139.5937966843, 35.4124873172 ]
			},
			"properties" : {
				"高さ" : "11.4",
				"行政区域" : "14111",
				"名称" : "桜岡小学校",
				"住所" : "神奈川県横浜市港南区大久保1-6-43",
				"施設の種類" : "避難所",
				"収容人数" : null,
				"施設規模" : "5172",
				"対象とする災害の分類" : "指定なし",
				"レベル" : "1"
			}
		},
		{
			"type" : "Feature",
			"geometry" : {
				"type" : "Point",
				"coordinates" : [ 139.5933835908, 35.3965256646 ]
			},
			"properties" : {
				"高さ" : "14.7",
				"行政区域" : "14111",
				"名称" : "笹下中学校",
				"住所" : "神奈川県横浜市港南区港南5-8-l",
				"施設の種類" : "避難所",
				"収容人数" : null,
				"施設規模" : "7674",
				"対象とする災害の分類" : "指定なし",
				"レベル" : "1"
			}
		},
		{
			"type" : "Feature",
			"geometry" : {
				"type" : "Point",
				"coordinates" : [ 139.574097382, 35.3760637395 ]
			},
			"properties" : {
				"高さ" : "3.9",
				"行政区域" : "14111",
				"名称" : "小坪小学校",
				"住所" : "神奈川県横浜市港南区港南台4-11-l",
				"施設の種類" : "避難所",
				"収容人数" : null,
				"施設規模" : "5450",
				"対象とする災害の分類" : "地震災害",
				"レベル" : "1"
			}
		},
		{
			"type" : "Feature",
			"geometry" : {
				"type" : "Point",
				"coordinates" : [ 139.5692747027, 35.4099116571 ]
			},
			"properties" : {
				"高さ" : "15.2",
				"行政区域" : "14111",
				"名称" : "上永谷中学校",
				"住所" : "神奈川県横浜市港南区上永谷4-12-14",
				"施設の種類" : "避難所",
				"収容人数" : null,
				"施設規模" : "8231",
				"対象とする災害の分類" : "地震災害",
				"レベル" : "1"
			}
		},
		{
			"type" : "Feature",
			"geometry" : {
				"type" : "Point",
				"coordinates" : [ 139.603743692, 35.4044696418 ]
			},
			"properties" : {
				"高さ" : "14.8",
				"行政区域" : "14111",
				"名称" : "上大岡小学校",
				"住所" : "神奈川県横浜市港南区上大岡東3-11-1",
				"施設の種類" : "避難所",
				"収容人数" : null,
				"施設規模" : "4216",
				"対象とする災害の分類" : "指定なし",
				"レベル" : "1"
			}
		},
		{
			"type" : "Feature",
			"geometry" : {
				"type" : "Point",
				"coordinates" : [ 139.5807186389, 35.4024686628 ]
			},
			"properties" : {
				"高さ" : "14.9",
				"行政区域" : "14111",
				"名称" : "相武山小学校",
				"住所" : "神奈川県横浜市港南区上永谷1-7-5",
				"施設の種類" : "避難所",
				"収容人数" : null,
				"施設規模" : "5250",
				"対象とする災害の分類" : "地震災害",
				"レベル" : "1"
			}
		},
		{
			"type" : "Feature",
			"geometry" : {
				"type" : "Point",
				"coordinates" : [ 139.5787864014, 35.4065560985 ]
			},
			"properties" : {
				"高さ" : "10.5",
				"行政区域" : "14111",
				"名称" : "東永谷中学校",
				"住所" : "神奈川県横浜市港南区東永谷2-14-7",
				"施設の種類" : "避難所",
				"収容人数" : null,
				"施設規模" : "5412",
				"対象とする災害の分類" : "地震災害",
				"レベル" : "1"
			}
		},
		{
			"type" : "Feature",
			"geometry" : {
				"type" : "Point",
				"coordinates" : [ 139.5918835954, 35.3971916642 ]
			},
			"properties" : {
				"高さ" : "11.7",
				"行政区域" : "14111",
				"名称" : "南台小学校",
				"住所" : "神奈川県横浜市港南区港南5-6-1",
				"施設の種類" : "避難所",
				"収容人数" : null,
				"施設規模" : "6422",
				"対象とする災害の分類" : "指定なし",
				"レベル" : "1"
			}
		},
		{
			"type" : "Feature",
			"geometry" : {
				"type" : "Point",
				"coordinates" : [ 139.6017435397, 35.3905266731 ]
			},
			"properties" : {
				"高さ" : "12.4",
				"行政区域" : "14111",
				"名称" : "日下小学校",
				"住所" : "神奈川県横浜市港南区笹下3-9-l",
				"施設の種類" : "避難所",
				"収容人数" : null,
				"施設規模" : "5324",
				"対象とする災害の分類" : "指定なし",
				"レベル" : "1"
			}
		},
		{
			"type" : "Feature",
			"geometry" : {
				"type" : "Point",
				"coordinates" : [ 139.559942557, 35.3940807051 ]
			},
			"properties" : {
				"高さ" : "14.5",
				"行政区域" : "14111",
				"名称" : "日限山小学校",
				"住所" : "神奈川県横浜市港南区日限山2-16-1",
				"施設の種類" : "避難所",
				"収容人数" : null,
				"施設規模" : "6503",
				"対象とする災害の分類" : "指定なし",
				"レベル" : "1"
			}
		},
		{
			"type" : "Feature",
			"geometry" : {
				"type" : "Point",
				"coordinates" : [ 139.5571924943, 35.3868867284 ]
			},
			"properties" : {
				"高さ" : "14.9",
				"行政区域" : "14111",
				"名称" : "日限山中学校",
				"住所" : "神奈川県横浜市港南区日限山4-33-l",
				"施設の種類" : "避難所",
				"収容人数" : null,
				"施設規模" : "6056",
				"対象とする災害の分類" : "地震災害",
				"レベル" : "1"
			}
		},
		{
			"type" : "Feature",
			"geometry" : {
				"type" : "Point",
				"coordinates" : [ 139.5797202887, 35.3875149673 ]
			},
			"properties" : {
				"高さ" : "14.8",
				"行政区域" : "14111",
				"名称" : "日野小学校",
				"住所" : "神奈川県横浜市港南区日野7-11-1",
				"施設の種類" : "避難所",
				"収容人数" : null,
				"施設規模" : "4338",
				"対象とする災害の分類" : "地震災害",
				"レベル" : "1"
			}
		},
		{
			"type" : "Feature",
			"geometry" : {
				"type" : "Point",
				"coordinates" : [ 139.5619973885, 35.3751657596 ]
			},
			"properties" : {
				"高さ" : "14.7",
				"行政区域" : "14111",
				"名称" : "日野南小学校",
				"住所" : "神奈川県横浜市港南区日野南6-35-1",
				"施設の種類" : "避難所",
				"収容人数" : null,
				"施設規模" : "4691",
				"対象とする災害の分類" : "地震災害",
				"レベル" : "1"
			}
		},
		{
			"type" : "Feature",
			"geometry" : {
				"type" : "Point",
				"coordinates" : [ 139.5689973808, 35.3752217495 ]
			},
			"properties" : {
				"高さ" : "11.8",
				"行政区域" : "14111",
				"名称" : "日野南中学校",
				"住所" : "神奈川県横浜市港南区港南台4-37-l",
				"施設の種類" : "避難所",
				"収容人数" : null,
				"施設規模" : "5940",
				"対象とする災害の分類" : "地震災害",
				"レベル" : "1"
			}
		},
		{
			"type" : "Feature",
			"geometry" : {
				"type" : "Point",
				"coordinates" : [ 139.5749651437, 35.3880946964 ]
			},
			"properties" : {
				"高さ" : "14",
				"行政区域" : "14111",
				"名称" : "野庭すずかけ小学校",
				"住所" : "神奈川県横浜市港南区野庭町346-2",
				"施設の種類" : "避難所",
				"収容人数" : null,
				"施設規模" : "8249",
				"対象とする災害の分類" : "地震災害",
				"レベル" : "3"
			}
		},
		{
			"type" : "Feature",
			"geometry" : {
				"type" : "Point",
				"coordinates" : [ 139.570608484, 35.3867477128 ]
			},
			"properties" : {
				"高さ" : "14.5",
				"行政区域" : "14111",
				"名称" : "野庭中学校",
				"住所" : "神奈川県横浜市港南区野庭町630",
				"施設の種類" : "避難所",
				"収容人数" : null,
				"施設規模" : "7700",
				"対象とする災害の分類" : "地震災害",
				"レベル" : "1"
			}
		}
	]
}