{
	"type" : "FeatureCollection",
	"name" : "14112_yokohama-shi_asahi-ku_station",
	"features" : [
		{
			"type" : "Feature",
			"geometry" : {
				"type" : "Point",
				"coordinates" : [ 139.5263063928, 35.4525872099 ]
			},
			"properties" : {
				"駅名" : "南万騎が原駅",
				"高さ" : "5.5",
				"鉄道区分" : "普通鉄道",
				"事業者種別" : "民営鉄道",
				"路線名" : "いずみ野線",
				"運営会社" : "相模鉄道"
			}
		},
		{
			"type" : "Feature",
			"geometry" : {
				"type" : "Point",
				"coordinates" : [ 139.5323783482, 35.4633931801 ]
			},
			"properties" : {
				"駅名" : "二俣川駅",
				"高さ" : "21.3",
				"鉄道区分" : "普通鉄道",
				"事業者種別" : "民営鉄道",
				"路線名" : "いずみ野線",
				"運営会社" : "相模鉄道"
			}
		},
		{
			"type" : "Feature",
			"geometry" : {
				"type" : "Point",
				"coordinates" : [ 139.5493994431, 35.4749147177 ]
			},
			"properties" : {
				"駅名" : "鶴ヶ峰駅",
				"高さ" : "10.7",
				"鉄道区分" : "普通鉄道",
				"事業者種別" : "民営鉄道",
				"路線名" : "本線",
				"運営会社" : "相模鉄道"
			}
		},
		{
			"type" : "Feature",
			"geometry" : {
				"type" : "Point",
				"coordinates" : [ 139.5140901166, 35.4604303963 ]
			},
			"properties" : {
				"駅名" : "希望ヶ丘駅",
				"高さ" : "11.9",
				"鉄道区分" : "普通鉄道",
				"事業者種別" : "民営鉄道",
				"路線名" : "本線",
				"運営会社" : "相模鉄道"
			}
		},
		{
			"type" : "Feature",
			"geometry" : {
				"type" : "Point",
				"coordinates" : [ 139.5323783482, 35.4633931801 ]
			},
			"properties" : {
				"駅名" : "二俣川駅",
				"高さ" : "21.3",
				"鉄道区分" : "普通鉄道",
				"事業者種別" : "民営鉄道",
				"路線名" : "本線",
				"運営会社" : "相模鉄道"
			}
		}
	]
}