{
	"type" : "FeatureCollection",
	"name" : "14113_yokohama-shi_midori-ku_shelter",
	"features" : [
		{
			"type" : "Feature",
			"geometry" : {
				"type" : "Point",
				"coordinates" : [ 139.5019735191, 35.5261174465 ]
			},
			"properties" : {
				"高さ" : "11.2",
				"行政区域" : "14113",
				"名称" : "いぶき野小学校",
				"住所" : "神奈川県横浜市緑区いぶき野14-1",
				"施設の種類" : "避難所",
				"収容人数" : null,
				"施設規模" : "5660",
				"対象とする災害の分類" : "指定なし",
				"レベル" : "1"
			}
		},
		{
			"type" : "Feature",
			"geometry" : {
				"type" : "Point",
				"coordinates" : [ 139.5664965008, 35.5091494958 ]
			},
			"properties" : {
				"高さ" : "14.8",
				"行政区域" : "14113",
				"名称" : "鴨居小学校",
				"住所" : "神奈川県横浜市緑区鴨居4-7-15",
				"施設の種類" : "避難所",
				"収容人数" : null,
				"施設規模" : "5053",
				"対象とする災害の分類" : "指定なし",
				"レベル" : "1"
			}
		},
		{
			"type" : "Feature",
			"geometry" : {
				"type" : "Point",
				"coordinates" : [ 139.5616882937, 35.5076377082 ]
			},
			"properties" : {
				"高さ" : "14.6",
				"行政区域" : "14113",
				"名称" : "鴨居中学校",
				"住所" : "神奈川県横浜市緑区鴨居5-12-35",
				"施設の種類" : "避難所",
				"収容人数" : null,
				"施設規模" : "5700",
				"対象とする災害の分類" : "指定なし",
				"レベル" : "1"
			}
		},
		{
			"type" : "Feature",
			"geometry" : {
				"type" : "Point",
				"coordinates" : [ 139.5045595134, 35.5161352968 ]
			},
			"properties" : {
				"高さ" : "11.3",
				"行政区域" : "14113",
				"名称" : "旧霧が丘第二小学校",
				"住所" : "神奈川県横浜市緑区霧が丘3-23",
				"施設の種類" : "避難所",
				"収容人数" : null,
				"施設規模" : "4517",
				"対象とする災害の分類" : "地震災害",
				"レベル" : "3"
			}
		},
		{
			"type" : "Feature",
			"geometry" : {
				"type" : "Point",
				"coordinates" : [ 139.5265004806, 35.5159814781 ]
			},
			"properties" : {
				"高さ" : "14.7",
				"行政区域" : "14113",
				"名称" : "三保小学校",
				"住所" : "神奈川県横浜市緑区三保町1867",
				"施設の種類" : "避難所",
				"収容人数" : null,
				"施設規模" : "5639",
				"対象とする災害の分類" : "指定なし",
				"レベル" : "1"
			}
		},
		{
			"type" : "Feature",
			"geometry" : {
				"type" : "Point",
				"coordinates" : [ 139.533182594, 35.5314264621 ]
			},
			"properties" : {
				"高さ" : "15.1",
				"行政区域" : "14113",
				"名称" : "山下みどり台小学校",
				"住所" : "神奈川県横浜市緑区北八朔町2031-3",
				"施設の種類" : "避難所",
				"収容人数" : null,
				"施設規模" : "9104",
				"対象とする災害の分類" : "地震災害",
				"レベル" : "1"
			}
		},
		{
			"type" : "Feature",
			"geometry" : {
				"type" : "Point",
				"coordinates" : [ 139.5381665612, 35.52528647 ]
			},
			"properties" : {
				"高さ" : "15.1",
				"行政区域" : "14113",
				"名称" : "山下小学校",
				"住所" : "神奈川県横浜市緑区北八朔町1865-3",
				"施設の種類" : "避難所",
				"収容人数" : null,
				"施設規模" : "4771",
				"対象とする災害の分類" : "指定なし",
				"レベル" : "1"
			}
		},
		{
			"type" : "Feature",
			"geometry" : {
				"type" : "Point",
				"coordinates" : [ 139.5143046932, 35.5204717929 ]
			},
			"properties" : {
				"高さ" : "12.1",
				"行政区域" : "14113",
				"名称" : "十日市場小学校",
				"住所" : "神奈川県横浜市緑区十日市場町1392-1",
				"施設の種類" : "避難所",
				"収容人数" : null,
				"施設規模" : "5275",
				"対象とする災害の分類" : "指定なし",
				"レベル" : "1"
			}
		},
		{
			"type" : "Feature",
			"geometry" : {
				"type" : "Point",
				"coordinates" : [ 139.5127413103, 35.5223980241 ]
			},
			"properties" : {
				"高さ" : "18.7",
				"行政区域" : "14113",
				"名称" : "十日市場中学校",
				"住所" : "神奈川県横浜市緑区十日市場町1501-42",
				"施設の種類" : "避難所",
				"収容人数" : null,
				"施設規模" : "6169",
				"対象とする災害の分類" : "地震災害",
				"レベル" : "1"
			}
		},
		{
			"type" : "Feature",
			"geometry" : {
				"type" : "Point",
				"coordinates" : [ 139.5471924486, 35.5065664971 ]
			},
			"properties" : {
				"高さ" : "16",
				"行政区域" : "14113",
				"名称" : "上山小学校",
				"住所" : "神奈川県横浜市緑区上山2-5-1",
				"施設の種類" : "避難所",
				"収容人数" : null,
				"施設規模" : "4795",
				"対象とする災害の分類" : "地震災害",
				"レベル" : "1"
			}
		},
		{
			"type" : "Feature",
			"geometry" : {
				"type" : "Point",
				"coordinates" : [ 139.5200225411, 35.5175150902 ]
			},
			"properties" : {
				"高さ" : "8.6",
				"行政区域" : "14113",
				"名称" : "新治小学校",
				"住所" : "神奈川県横浜市緑区新治町768",
				"施設の種類" : "避難所",
				"収容人数" : null,
				"施設規模" : "2992",
				"対象とする災害の分類" : "指定なし",
				"レベル" : "1"
			}
		},
		{
			"type" : "Feature",
			"geometry" : {
				"type" : "Point",
				"coordinates" : [ 139.5355793888, 35.5088440589 ]
			},
			"properties" : {
				"高さ" : "15.1",
				"行政区域" : "14113",
				"名称" : "森の台小学校",
				"住所" : "神奈川県横浜市緑区森の台13-1",
				"施設の種類" : "避難所",
				"収容人数" : null,
				"施設規模" : "5304",
				"対象とする災害の分類" : "指定なし",
				"レベル" : "4"
			}
		},
		{
			"type" : "Feature",
			"geometry" : {
				"type" : "Point",
				"coordinates" : [ 139.5606623962, 35.4958995128 ]
			},
			"properties" : {
				"高さ" : "14.4",
				"行政区域" : "14113",
				"名称" : "竹山小学校",
				"住所" : "神奈川県横浜市緑区竹山3-1-16",
				"施設の種類" : "避難所",
				"収容人数" : null,
				"施設規模" : "5975",
				"対象とする災害の分類" : "地震災害",
				"レベル" : "1"
			}
		},
		{
			"type" : "Feature",
			"geometry" : {
				"type" : "Point",
				"coordinates" : [ 139.5483874797, 35.5107604926 ]
			},
			"properties" : {
				"高さ" : "14.6",
				"行政区域" : "14113",
				"名称" : "中山小学校",
				"住所" : "神奈川県横浜市緑区中山町925",
				"施設の種類" : "避難所",
				"収容人数" : null,
				"施設規模" : "5250",
				"対象とする災害の分類" : "指定なし",
				"レベル" : "1"
			}
		},
		{
			"type" : "Feature",
			"geometry" : {
				"type" : "Point",
				"coordinates" : [ 139.5399714186, 35.5038445 ]
			},
			"properties" : {
				"高さ" : "11.1",
				"行政区域" : "14113",
				"名称" : "中山中学校",
				"住所" : "神奈川県横浜市緑区寺山町653-21",
				"施設の種類" : "避難所",
				"収容人数" : null,
				"施設規模" : "7891",
				"対象とする災害の分類" : "地震災害",
				"レベル" : "1"
			}
		},
		{
			"type" : "Feature",
			"geometry" : {
				"type" : "Point",
				"coordinates" : [ 139.4911405365, 35.5301704298 ]
			},
			"properties" : {
				"高さ" : "12.3",
				"行政区域" : "14113",
				"名称" : "長津田小学校",
				"住所" : "神奈川県横浜市緑区長津田町2330",
				"施設の種類" : "避難所",
				"収容人数" : null,
				"施設規模" : "6330",
				"対象とする災害の分類" : "指定なし",
				"レベル" : "1"
			}
		},
		{
			"type" : "Feature",
			"geometry" : {
				"type" : "Point",
				"coordinates" : [ 139.488408563, 35.5347634212 ]
			},
			"properties" : {
				"高さ" : "14.6",
				"行政区域" : "14113",
				"名称" : "長津田第二小学校",
				"住所" : "神奈川県横浜市緑区長津田町2469-3",
				"施設の種類" : "避難所",
				"収容人数" : null,
				"施設規模" : "5236",
				"対象とする災害の分類" : "指定なし",
				"レベル" : "1"
			}
		},
		{
			"type" : "Feature",
			"geometry" : {
				"type" : "Point",
				"coordinates" : [ 139.4984300217, 35.5345673163 ]
			},
			"properties" : {
				"高さ" : "8.2",
				"行政区域" : "14113",
				"名称" : "田奈中学校",
				"住所" : "神奈川県横浜市緑区長津田2-24-1",
				"施設の種類" : "避難所",
				"収容人数" : null,
				"施設規模" : "6342",
				"対象とする災害の分類" : "指定なし",
				"レベル" : "1"
			}
		},
		{
			"type" : "Feature",
			"geometry" : {
				"type" : "Point",
				"coordinates" : [ 139.571357478, 35.504400501 ]
			},
			"properties" : {
				"高さ" : "14.8",
				"行政区域" : "14113",
				"名称" : "東鴨居中学校",
				"住所" : "神奈川県横浜市緑区鴨居3-39-1",
				"施設の種類" : "避難所",
				"収容人数" : null,
				"施設規模" : "6202",
				"対象とする災害の分類" : "地震災害",
				"レベル" : "1"
			}
		},
		{
			"type" : "Feature",
			"geometry" : {
				"type" : "Point",
				"coordinates" : [ 139.5821772062, 35.5050590555 ]
			},
			"properties" : {
				"高さ" : "15",
				"行政区域" : "14113",
				"名称" : "東本郷小学校",
				"住所" : "神奈川県横浜市緑区東本郷5-40-l",
				"施設の種類" : "避難所",
				"収容人数" : null,
				"施設規模" : "6646",
				"対象とする災害の分類" : "地震災害",
				"レベル" : "1"
			}
		},
		{
			"type" : "Feature",
			"geometry" : {
				"type" : "Point",
				"coordinates" : [ 139.5071404302, 35.5120924719 ]
			},
			"properties" : {
				"高さ" : "11.3",
				"行政区域" : "14113",
				"名称" : "霧が丘小学校",
				"住所" : "神奈川県横浜市緑区霧が丘4-3",
				"施設の種類" : "避難所",
				"収容人数" : null,
				"施設規模" : "4163",
				"対象とする災害の分類" : "地震災害",
				"レベル" : "1"
			}
		},
		{
			"type" : "Feature",
			"geometry" : {
				"type" : "Point",
				"coordinates" : [ 139.5609081935, 35.5050720571 ]
			},
			"properties" : {
				"高さ" : "11.8",
				"行政区域" : "14113",
				"名称" : "緑小学校",
				"住所" : "神奈川県横浜市緑区鴨居5-19-1",
				"施設の種類" : "避難所",
				"収容人数" : null,
				"施設規模" : "5379",
				"対象とする災害の分類" : "地震災害",
				"レベル" : "1"
			}
		},
		{
			"type" : "Feature",
			"geometry" : {
				"type" : "Point",
				"coordinates" : [ 139.5365556269, 35.5358124585 ]
			},
			"properties" : {
				"高さ" : "8.7",
				"行政区域" : "14117",
				"名称" : "緑が丘中学校",
				"住所" : "神奈川県横浜市青葉区千草台50-1",
				"施設の種類" : "避難所",
				"収容人数" : null,
				"施設規模" : "6124",
				"対象とする災害の分類" : "指定なし",
				"レベル" : "1"
			}
		}
	]
}