{
	"type" : "FeatureCollection",
	"name" : "14118_yokohama-shi_tsuzuki-ku_station",
	"features" : [
		{
			"type" : "Feature",
			"geometry" : {
				"type" : "Point",
				"coordinates" : [ 139.5895233732, 35.5353181792 ]
			},
			"properties" : {
				"駅名" : "仲町台駅",
				"高さ" : "12.9",
				"鉄道区分" : "普通鉄道",
				"事業者種別" : "公営鉄道",
				"路線名" : "3号線",
				"運営会社" : "横浜市"
			}
		},
		{
			"type" : "Feature",
			"geometry" : {
				"type" : "Point",
				"coordinates" : [ 139.5782233699, 35.5532081796 ]
			},
			"properties" : {
				"駅名" : "センター北駅",
				"高さ" : "14",
				"鉄道区分" : "普通鉄道",
				"事業者種別" : "公営鉄道",
				"路線名" : "3号線",
				"運営会社" : "横浜市"
			}
		},
		{
			"type" : "Feature",
			"geometry" : {
				"type" : "Point",
				"coordinates" : [ 139.5743105127, 35.5453374633 ]
			},
			"properties" : {
				"駅名" : "センター南駅",
				"高さ" : "17.5",
				"鉄道区分" : "普通鉄道",
				"事業者種別" : "公営鉄道",
				"路線名" : "3号線",
				"運営会社" : "横浜市"
			}
		},
		{
			"type" : "Feature",
			"geometry" : {
				"type" : "Point",
				"coordinates" : [ 139.5696883755, 35.5630881823 ]
			},
			"properties" : {
				"駅名" : "中川駅",
				"高さ" : "16.9",
				"鉄道区分" : "普通鉄道",
				"事業者種別" : "公営鉄道",
				"路線名" : "3号線",
				"運営会社" : "横浜市"
			}
		},
		{
			"type" : "Feature",
			"geometry" : {
				"type" : "Point",
				"coordinates" : [ 139.6045314694, 35.5541632089 ]
			},
			"properties" : {
				"駅名" : "東山田駅",
				"高さ" : "7.1",
				"鉄道区分" : "普通鉄道",
				"事業者種別" : "公営鉄道",
				"路線名" : "4号線",
				"運営会社" : "横浜市"
			}
		},
		{
			"type" : "Feature",
			"geometry" : {
				"type" : "Point",
				"coordinates" : [ 139.5928778023, 35.5610771474 ]
			},
			"properties" : {
				"駅名" : "北山田駅",
				"高さ" : "0",
				"鉄道区分" : "普通鉄道",
				"事業者種別" : "公営鉄道",
				"路線名" : "4号線",
				"運営会社" : "横浜市"
			}
		},
		{
			"type" : "Feature",
			"geometry" : {
				"type" : "Point",
				"coordinates" : [ 139.5783483691, 35.5530081798 ]
			},
			"properties" : {
				"駅名" : "センター北駅",
				"高さ" : "14",
				"鉄道区分" : "普通鉄道",
				"事業者種別" : "公営鉄道",
				"路線名" : "4号線",
				"運営会社" : "横浜市"
			}
		},
		{
			"type" : "Feature",
			"geometry" : {
				"type" : "Point",
				"coordinates" : [ 139.5746540564, 35.5453526473 ]
			},
			"properties" : {
				"駅名" : "センター南駅",
				"高さ" : "11.8",
				"鉄道区分" : "普通鉄道",
				"事業者種別" : "公営鉄道",
				"路線名" : "4号線",
				"運営会社" : "横浜市"
			}
		},
		{
			"type" : "Feature",
			"geometry" : {
				"type" : "Point",
				"coordinates" : [ 139.5489833648, 35.5284481808 ]
			},
			"properties" : {
				"駅名" : "川和町駅",
				"高さ" : "0",
				"鉄道区分" : "普通鉄道",
				"事業者種別" : "公営鉄道",
				"路線名" : "4号線",
				"運営会社" : "横浜市"
			}
		},
		{
			"type" : "Feature",
			"geometry" : {
				"type" : "Point",
				"coordinates" : [ 139.5613093673, 35.5365591813 ]
			},
			"properties" : {
				"駅名" : "都筑ふれあいの丘駅",
				"高さ" : "7.1",
				"鉄道区分" : "普通鉄道",
				"事業者種別" : "公営鉄道",
				"路線名" : "4号線",
				"運営会社" : "横浜市"
			}
		}
	]
}