{
	"type" : "FeatureCollection",
	"name" : "14118_yokohama-shi_tsuzuki-ku_shelter",
	"features" : [
		{
			"type" : "Feature",
			"geometry" : {
				"type" : "Point",
				"coordinates" : [ 139.5800218881, 35.5661974433 ]
			},
			"properties" : {
				"高さ" : "15.3",
				"行政区域" : "14118",
				"名称" : "すみれが丘小学校",
				"住所" : "神奈川県横浜市都筑区すみれが丘34",
				"施設の種類" : "避難所",
				"収容人数" : null,
				"施設規模" : "4078",
				"対象とする災害の分類" : "地震災害",
				"レベル" : "1"
			}
		},
		{
			"type" : "Feature",
			"geometry" : {
				"type" : "Point",
				"coordinates" : [ 139.5655247387, 35.5456724583 ]
			},
			"properties" : {
				"高さ" : "11.8",
				"行政区域" : "14118",
				"名称" : "つづきの丘小学校",
				"住所" : "神奈川県横浜市都筑区荏田東1-22-1",
				"施設の種類" : "避難所",
				"収容人数" : null,
				"施設規模" : "5544",
				"対象とする災害の分類" : "地震災害",
				"レベル" : "1"
			}
		},
		{
			"type" : "Feature",
			"geometry" : {
				"type" : "Point",
				"coordinates" : [ 139.5639888066, 35.5572904467 ]
			},
			"properties" : {
				"高さ" : "14.8",
				"行政区域" : "14118",
				"名称" : "荏田小学校",
				"住所" : "神奈川県横浜市都筑区荏田南町694",
				"施設の種類" : "避難所",
				"収容人数" : null,
				"施設規模" : "5416",
				"対象とする災害の分類" : "指定なし",
				"レベル" : "1"
			}
		},
		{
			"type" : "Feature",
			"geometry" : {
				"type" : "Point",
				"coordinates" : [ 139.5625247411, 35.5470054559 ]
			},
			"properties" : {
				"高さ" : "6.3",
				"行政区域" : "14118",
				"名称" : "荏田東第一小学校",
				"住所" : "神奈川県横浜市都筑区荏田東3-5-1",
				"施設の種類" : "避難所",
				"収容人数" : null,
				"施設規模" : "6388",
				"対象とする災害の分類" : "地震災害",
				"レベル" : "1"
			}
		},
		{
			"type" : "Feature",
			"geometry" : {
				"type" : "Point",
				"coordinates" : [ 139.5564539187, 35.5445898211 ]
			},
			"properties" : {
				"高さ" : "11.4",
				"行政区域" : "14118",
				"名称" : "荏田南小学校",
				"住所" : "神奈川県横浜市都筑区荏田南2-5-2",
				"施設の種類" : "避難所",
				"収容人数" : null,
				"施設規模" : "6241",
				"対象とする災害の分類" : "地震災害",
				"レベル" : "1"
			}
		},
		{
			"type" : "Feature",
			"geometry" : {
				"type" : "Point",
				"coordinates" : [ 139.5807228422, 35.5405660286 ]
			},
			"properties" : {
				"高さ" : "11.4",
				"行政区域" : "14118",
				"名称" : "茅ヶ崎小学校",
				"住所" : "神奈川県横浜市都筑区茅ヶ崎南1-11-1",
				"施設の種類" : "避難所",
				"収容人数" : null,
				"施設規模" : "4498",
				"対象とする災害の分類" : "地震災害",
				"レベル" : "1"
			}
		},
		{
			"type" : "Feature",
			"geometry" : {
				"type" : "Point",
				"coordinates" : [ 139.5699966942, 35.5373124668 ]
			},
			"properties" : {
				"高さ" : "11.3",
				"行政区域" : "14118",
				"名称" : "茅ヶ崎台小学校",
				"住所" : "神奈川県横浜市都筑区長坂13-l",
				"施設の種類" : "避難所",
				"収容人数" : null,
				"施設規模" : "6387",
				"対象とする災害の分類" : "地震災害",
				"レベル" : "1"
			}
		},
		{
			"type" : "Feature",
			"geometry" : {
				"type" : "Point",
				"coordinates" : [ 139.5817450417, 35.5406059085 ]
			},
			"properties" : {
				"高さ" : "7.7",
				"行政区域" : "14118",
				"名称" : "茅ヶ崎中学校",
				"住所" : "神奈川県横浜市都筑区茅ヶ崎南l-10-l",
				"施設の種類" : "避難所",
				"収容人数" : null,
				"施設規模" : "5483",
				"対象とする災害の分類" : "指定なし",
				"レベル" : "1"
			}
		},
		{
			"type" : "Feature",
			"geometry" : {
				"type" : "Point",
				"coordinates" : [ 139.5807154514, 35.5424260485 ]
			},
			"properties" : {
				"高さ" : "11.6",
				"行政区域" : "14118",
				"名称" : "茅ヶ崎東小学校",
				"住所" : "神奈川県横浜市都筑区茅ヶ崎東2-11-1",
				"施設の種類" : "避難所",
				"収容人数" : null,
				"施設規模" : "7574",
				"対象とする災害の分類" : "地震災害",
				"レベル" : "1"
			}
		},
		{
			"type" : "Feature",
			"geometry" : {
				"type" : "Point",
				"coordinates" : [ 139.5820326542, 35.5594322291 ]
			},
			"properties" : {
				"高さ" : "15.1",
				"行政区域" : "14118",
				"名称" : "牛久保小学校",
				"住所" : "神奈川県横浜市都筑区牛久保1-23-l",
				"施設の種類" : "避難所",
				"収容人数" : null,
				"施設規模" : "7753",
				"対象とする災害の分類" : "地震災害",
				"レベル" : "1"
			}
		},
		{
			"type" : "Feature",
			"geometry" : {
				"type" : "Point",
				"coordinates" : [ 139.6031776066, 35.5600867779 ]
			},
			"properties" : {
				"高さ" : "14.4",
				"行政区域" : "14118",
				"名称" : "山田小学校",
				"住所" : "神奈川県横浜市都筑区東山田3-29-1",
				"施設の種類" : "避難所",
				"収容人数" : null,
				"施設規模" : "4575",
				"対象とする災害の分類" : "指定なし",
				"レベル" : "1"
			}
		},
		{
			"type" : "Feature",
			"geometry" : {
				"type" : "Point",
				"coordinates" : [ 139.5953006933, 35.543504617 ]
			},
			"properties" : {
				"高さ" : "14",
				"行政区域" : "14118",
				"名称" : "勝田小学校",
				"住所" : "神奈川県横浜市都筑区勝田町266",
				"施設の種類" : "避難所",
				"収容人数" : null,
				"施設規模" : "4740",
				"対象とする災害の分類" : "指定なし",
				"レベル" : "1"
			}
		},
		{
			"type" : "Feature",
			"geometry" : {
				"type" : "Point",
				"coordinates" : [ 139.5946886922, 35.5283984757 ]
			},
			"properties" : {
				"高さ" : "15",
				"行政区域" : "14118",
				"名称" : "折本小学校",
				"住所" : "神奈川県横浜市都筑区折本町1321",
				"施設の種類" : "避難所",
				"収容人数" : null,
				"施設規模" : "5559",
				"対象とする災害の分類" : "指定なし",
				"レベル" : "1"
			}
		},
		{
			"type" : "Feature",
			"geometry" : {
				"type" : "Point",
				"coordinates" : [ 139.5474986072, 35.5299804695 ]
			},
			"properties" : {
				"高さ" : "14.9",
				"行政区域" : "14118",
				"名称" : "川和小学校",
				"住所" : "神奈川県横浜市都筑区川和町1463",
				"施設の種類" : "避難所",
				"収容人数" : null,
				"施設規模" : "5342",
				"対象とする災害の分類" : "指定なし",
				"レベル" : "1"
			}
		},
		{
			"type" : "Feature",
			"geometry" : {
				"type" : "Point",
				"coordinates" : [ 139.5571366307, 35.5310074704 ]
			},
			"properties" : {
				"高さ" : "11",
				"行政区域" : "14118",
				"名称" : "川和中学校",
				"住所" : "神奈川県横浜市都筑区富士見が丘21-1",
				"施設の種類" : "避難所",
				"収容人数" : null,
				"施設規模" : "7297",
				"対象とする災害の分類" : "地震災害",
				"レベル" : "1"
			}
		},
		{
			"type" : "Feature",
			"geometry" : {
				"type" : "Point",
				"coordinates" : [ 139.5580239226, 35.5315860431 ]
			},
			"properties" : {
				"高さ" : "11.4",
				"行政区域" : "14118",
				"名称" : "川和東小学校",
				"住所" : "神奈川県横浜市都筑区富士見が丘21-2",
				"施設の種類" : "避難所",
				"収容人数" : null,
				"施設規模" : "5782",
				"対象とする災害の分類" : "地震災害",
				"レベル" : "4"
			}
		},
		{
			"type" : "Feature",
			"geometry" : {
				"type" : "Point",
				"coordinates" : [ 139.5874388125, 35.5505894585 ]
			},
			"properties" : {
				"高さ" : "15.5",
				"行政区域" : "14118",
				"名称" : "中川小学校",
				"住所" : "神奈川県横浜市都筑区牛久保東2-21-4",
				"施設の種類" : "避難所",
				"収容人数" : null,
				"施設規模" : "5652",
				"対象とする災害の分類" : "指定なし",
				"レベル" : "1"
			}
		},
		{
			"type" : "Feature",
			"geometry" : {
				"type" : "Point",
				"coordinates" : [ 139.569189834, 35.5600594458 ]
			},
			"properties" : {
				"高さ" : "15.3",
				"行政区域" : "14118",
				"名称" : "中川西小学校",
				"住所" : "神奈川県横浜市都筑区中川1-3-l",
				"施設の種類" : "避難所",
				"収容人数" : null,
				"施設規模" : "6056",
				"対象とする災害の分類" : "指定なし",
				"レベル" : "1"
			}
		},
		{
			"type" : "Feature",
			"geometry" : {
				"type" : "Point",
				"coordinates" : [ 139.5653848396, 35.5621144429 ]
			},
			"properties" : {
				"高さ" : "11.5",
				"行政区域" : "14118",
				"名称" : "中川西中学校",
				"住所" : "神奈川県横浜市都筑区中川2-1-1",
				"施設の種類" : "避難所",
				"収容人数" : null,
				"施設規模" : "7557",
				"対象とする災害の分類" : "地震災害",
				"レベル" : "1"
			}
		},
		{
			"type" : "Feature",
			"geometry" : {
				"type" : "Point",
				"coordinates" : [ 139.5932438302, 35.5512004583 ]
			},
			"properties" : {
				"高さ" : "11",
				"行政区域" : "14118",
				"名称" : "中川中学校",
				"住所" : "神奈川県横浜市都筑区大棚町240",
				"施設の種類" : "避難所",
				"収容人数" : null,
				"施設規模" : "6873",
				"対象とする災害の分類" : "指定なし",
				"レベル" : "1"
			}
		},
		{
			"type" : "Feature",
			"geometry" : {
				"type" : "Point",
				"coordinates" : [ 139.5747178222, 35.5563934512 ]
			},
			"properties" : {
				"高さ" : "12.2",
				"行政区域" : "14118",
				"名称" : "都筑小学校",
				"住所" : "神奈川県横浜市都筑区中川6-2-1",
				"施設の種類" : "避難所",
				"収容人数" : null,
				"施設規模" : "4150",
				"対象とする災害の分類" : "地震災害",
				"レベル" : "1"
			}
		},
		{
			"type" : "Feature",
			"geometry" : {
				"type" : "Point",
				"coordinates" : [ 139.5716076005, 35.5224534825 ]
			},
			"properties" : {
				"高さ" : "14.5",
				"行政区域" : "14118",
				"名称" : "都田小学校",
				"住所" : "神奈川県横浜市都筑区池辺町2831",
				"施設の種類" : "避難所",
				"収容人数" : null,
				"施設規模" : "5476",
				"対象とする災害の分類" : "指定なし",
				"レベル" : "1"
			}
		},
		{
			"type" : "Feature",
			"geometry" : {
				"type" : "Point",
				"coordinates" : [ 139.5636772771, 35.5214756983 ]
			},
			"properties" : {
				"高さ" : "4.8",
				"行政区域" : "14118",
				"名称" : "都田西小学校",
				"住所" : "神奈川県横浜市都筑区池辺町2452-1",
				"施設の種類" : "避難所",
				"収容人数" : null,
				"施設規模" : "6274",
				"対象とする災害の分類" : "指定なし",
				"レベル" : "1"
			}
		},
		{
			"type" : "Feature",
			"geometry" : {
				"type" : "Point",
				"coordinates" : [ 139.5701916026, 35.5231474811 ]
			},
			"properties" : {
				"高さ" : "14.7",
				"行政区域" : "14118",
				"名称" : "都田中学校",
				"住所" : "神奈川県横浜市都筑区池辺町2818",
				"施設の種類" : "避難所",
				"収容人数" : null,
				"施設規模" : "5528",
				"対象とする災害の分類" : "地震災害",
				"レベル" : "1"
			}
		},
		{
			"type" : "Feature",
			"geometry" : {
				"type" : "Point",
				"coordinates" : [ 139.5965067072, 35.564302869 ]
			},
			"properties" : {
				"高さ" : "11.4",
				"行政区域" : "14118",
				"名称" : "東山田小学校",
				"住所" : "神奈川県横浜市都筑区東山町1-4-1",
				"施設の種類" : "避難所",
				"収容人数" : null,
				"施設規模" : "7011",
				"対象とする災害の分類" : "地震災害",
				"レベル" : "1"
			}
		},
		{
			"type" : "Feature",
			"geometry" : {
				"type" : "Point",
				"coordinates" : [ 139.5891048568, 35.5575324516 ]
			},
			"properties" : {
				"高さ" : "14.3",
				"行政区域" : "14118",
				"名称" : "南山田小学校",
				"住所" : "神奈川県横浜市都筑区南山田2-27-l",
				"施設の種類" : "避難所",
				"収容人数" : null,
				"施設規模" : "4409",
				"対象とする災害の分類" : "地震災害",
				"レベル" : "1"
			}
		},
		{
			"type" : "Feature",
			"geometry" : {
				"type" : "Point",
				"coordinates" : [ 139.5858548906, 35.5648374448 ]
			},
			"properties" : {
				"高さ" : "11.6",
				"行政区域" : "14118",
				"名称" : "北山田小学校",
				"住所" : "神奈川県横浜市都筑区北山田5-14-1",
				"施設の種類" : "避難所",
				"収容人数" : null,
				"施設規模" : "3260",
				"対象とする災害の分類" : "地震災害",
				"レベル" : "1"
			}
		}
	]
}