{
	"type" : "FeatureCollection",
	"name" : "14110_yokohama-shi_totsuka-ku_shelter",
	"features" : [
		{
			"type" : "Feature",
			"geometry" : {
				"type" : "Point",
				"coordinates" : [ 139.5223617171, 35.4110226867 ]
			},
			"properties" : {
				"高さ" : "11.4",
				"行政区域" : "14110",
				"名称" : "鳥が丘小学校",
				"住所" : "神奈川県横浜市戸塚区鳥が丘53",
				"施設の種類" : "避難所",
				"収容人数" : null,
				"施設規模" : "5522",
				"対象とする災害の分類" : "地震災害",
				"レベル" : "1"
			}
		},
		{
			"type" : "Feature",
			"geometry" : {
				"type" : "Point",
				"coordinates" : [ 139.5242051218, 35.3864675022 ]
			},
			"properties" : {
				"高さ" : "10.9",
				"行政区域" : "14110",
				"名称" : "下郷小学校",
				"住所" : "神奈川県横浜市戸塚区戸塚町2447-2",
				"施設の種類" : "避難所",
				"収容人数" : null,
				"施設規模" : "6757",
				"対象とする災害の分類" : "地震災害",
				"レベル" : "1"
			}
		},
		{
			"type" : "Feature",
			"geometry" : {
				"type" : "Point",
				"coordinates" : [ 139.5141406106, 35.3976627244 ]
			},
			"properties" : {
				"高さ" : "11.7",
				"行政区域" : "14110",
				"名称" : "汲沢小学校",
				"住所" : "神奈川県横浜市戸塚区汲沢3-6-l",
				"施設の種類" : "避難所",
				"収容人数" : null,
				"施設規模" : "5323",
				"対象とする災害の分類" : "地震災害",
				"レベル" : "1"
			}
		},
		{
			"type" : "Feature",
			"geometry" : {
				"type" : "Point",
				"coordinates" : [ 139.5075856172, 35.3983847223 ]
			},
			"properties" : {
				"高さ" : "15.5",
				"行政区域" : "14110",
				"名称" : "汲沢中学校",
				"住所" : "神奈川県横浜市戸塚区汲沢町550-2",
				"施設の種類" : "避難所",
				"収容人数" : null,
				"施設規模" : "6320",
				"対象とする災害の分類" : "地震災害",
				"レベル" : "1"
			}
		},
		{
			"type" : "Feature",
			"geometry" : {
				"type" : "Point",
				"coordinates" : [ 139.5682749388, 35.4362696052 ]
			},
			"properties" : {
				"高さ" : "11.1",
				"行政区域" : "14110",
				"名称" : "境木小学校",
				"住所" : "神奈川県横浜市戸塚区平戸3-48-1",
				"施設の種類" : "避難所",
				"収容人数" : null,
				"施設規模" : "4866",
				"対象とする災害の分類" : "地震災害",
				"レベル" : "1"
			}
		},
		{
			"type" : "Feature",
			"geometry" : {
				"type" : "Point",
				"coordinates" : [ 139.5697199411, 35.4362416043 ]
			},
			"properties" : {
				"高さ" : "12.2",
				"行政区域" : "14110",
				"名称" : "境木中学校",
				"住所" : "神奈川県横浜市戸塚区平戸3-48-1",
				"施設の種類" : "避難所",
				"収容人数" : null,
				"施設規模" : "5587",
				"対象とする災害の分類" : "地震災害",
				"レベル" : "1"
			}
		},
		{
			"type" : "Feature",
			"geometry" : {
				"type" : "Point",
				"coordinates" : [ 139.5323886003, 35.3973017188 ]
			},
			"properties" : {
				"高さ" : "11.1",
				"行政区域" : "14110",
				"名称" : "戸塚小学校",
				"住所" : "神奈川県横浜市戸塚区戸塚町132",
				"施設の種類" : "避難所",
				"収容人数" : null,
				"施設規模" : "6375",
				"対象とする災害の分類" : "地震災害",
				"レベル" : "1"
			}
		},
		{
			"type" : "Feature",
			"geometry" : {
				"type" : "Point",
				"coordinates" : [ 139.5236846438, 35.4017680232 ]
			},
			"properties" : {
				"高さ" : "14.5",
				"行政区域" : "14110",
				"名称" : "戸塚中学校",
				"住所" : "神奈川県横浜市戸塚区戸塚町4542",
				"施設の種類" : "避難所",
				"収容人数" : null,
				"施設規模" : "7040",
				"対象とする災害の分類" : "指定なし",
				"レベル" : "1"
			}
		},
		{
			"type" : "Feature",
			"geometry" : {
				"type" : "Point",
				"coordinates" : [ 139.5443607943, 35.4209106531 ]
			},
			"properties" : {
				"高さ" : "9.4",
				"行政区域" : "14110",
				"名称" : "秋葉小学校",
				"住所" : "神奈川県横浜市戸塚区秋葉町392-1",
				"施設の種類" : "避難所",
				"収容人数" : null,
				"施設規模" : "5632",
				"対象とする災害の分類" : "指定なし",
				"レベル" : "1"
			}
		},
		{
			"type" : "Feature",
			"geometry" : {
				"type" : "Point",
				"coordinates" : [ 139.5115014569, 35.3768877861 ]
			},
			"properties" : {
				"高さ" : "15.1",
				"行政区域" : "14110",
				"名称" : "小雀小学校",
				"住所" : "神奈川県横浜市戸塚区小雀町1845",
				"施設の種類" : "避難所",
				"収容人数" : null,
				"施設規模" : "4799",
				"対象とする災害の分類" : "地震災害",
				"レベル" : "1"
			}
		},
		{
			"type" : "Feature",
			"geometry" : {
				"type" : "Point",
				"coordinates" : [ 139.5283898148, 35.4235766557 ]
			},
			"properties" : {
				"高さ" : "11.2",
				"行政区域" : "14110",
				"名称" : "上矢部小学校",
				"住所" : "神奈川県横浜市戸塚区上矢部町1463-4",
				"施設の種類" : "避難所",
				"収容人数" : null,
				"施設規模" : "4972",
				"対象とする災害の分類" : "指定なし",
				"レベル" : "1"
			}
		},
		{
			"type" : "Feature",
			"geometry" : {
				"type" : "Point",
				"coordinates" : [ 139.5027005436, 35.3920253927 ]
			},
			"properties" : {
				"高さ" : "4.3",
				"行政区域" : "14110",
				"名称" : "深谷小学校",
				"住所" : "神奈川県横浜市戸塚区深谷町1688-2",
				"施設の種類" : "避難所",
				"収容人数" : null,
				"施設規模" : "5129",
				"対象とする災害の分類" : "指定なし",
				"レベル" : "4"
			}
		},
		{
			"type" : "Feature",
			"geometry" : {
				"type" : "Point",
				"coordinates" : [ 139.496523827, 35.388167102 ]
			},
			"properties" : {
				"高さ" : "16",
				"行政区域" : "14110",
				"名称" : "深谷台小学校",
				"住所" : "神奈川県横浜市戸塚区深谷町1312-1",
				"施設の種類" : "避難所",
				"収容人数" : null,
				"施設規模" : "6645",
				"対象とする災害の分類" : "指定なし",
				"レベル" : "4"
			}
		},
		{
			"type" : "Feature",
			"geometry" : {
				"type" : "Point",
				"coordinates" : [ 139.5450828397, 35.4264096399 ]
			},
			"properties" : {
				"高さ" : "15.2",
				"行政区域" : "14110",
				"名称" : "川上小学校",
				"住所" : "神奈川県横浜市戸塚区秋葉町203-2",
				"施設の種類" : "避難所",
				"収容人数" : null,
				"施設規模" : "4915",
				"対象とする災害の分類" : "地震災害",
				"レベル" : "1"
			}
		},
		{
			"type" : "Feature",
			"geometry" : {
				"type" : "Point",
				"coordinates" : [ 139.5541658427, 35.4290733225 ]
			},
			"properties" : {
				"高さ" : "11.1",
				"行政区域" : "14110",
				"名称" : "川上北小学校",
				"住所" : "神奈川県横浜市戸塚区川上町63-l",
				"施設の種類" : "避難所",
				"収容人数" : null,
				"施設規模" : "4875",
				"対象とする災害の分類" : "地震災害",
				"レベル" : "1"
			}
		},
		{
			"type" : "Feature",
			"geometry" : {
				"type" : "Point",
				"coordinates" : [ 139.5410275296, 35.3894977361 ]
			},
			"properties" : {
				"高さ" : "11.1",
				"行政区域" : "14110",
				"名称" : "倉田小学校",
				"住所" : "神奈川県横浜市戸塚区上倉田町1426-6",
				"施設の種類" : "避難所",
				"収容人数" : null,
				"施設規模" : "5640",
				"対象とする災害の分類" : "指定なし",
				"レベル" : "1"
			}
		},
		{
			"type" : "Feature",
			"geometry" : {
				"type" : "Point",
				"coordinates" : [ 139.5032594788, 35.3795593336 ]
			},
			"properties" : {
				"高さ" : "11.1",
				"行政区域" : "14110",
				"名称" : "大正小学校",
				"住所" : "神奈川県横浜市戸塚区原宿町4-17-1",
				"施設の種類" : "避難所",
				"収容人数" : null,
				"施設規模" : "6144",
				"対象とする災害の分類" : "指定なし",
				"レベル" : "1"
			}
		},
		{
			"type" : "Feature",
			"geometry" : {
				"type" : "Point",
				"coordinates" : [ 139.5032804733, 35.3783877805 ]
			},
			"properties" : {
				"高さ" : "14.6",
				"行政区域" : "14110",
				"名称" : "大正中学校",
				"住所" : "神奈川県横浜市戸塚区原宿町4-12-1",
				"施設の種類" : "避難所",
				"収容人数" : null,
				"施設規模" : "7972",
				"対象とする災害の分類" : "地震災害",
				"レベル" : "1"
			}
		},
		{
			"type" : "Feature",
			"geometry" : {
				"type" : "Point",
				"coordinates" : [ 139.5213066201, 35.3992737182 ]
			},
			"properties" : {
				"高さ" : "15",
				"行政区域" : "14110",
				"名称" : "東汲沢小学校",
				"住所" : "神奈川県横浜市戸塚区汲沢1-16-1",
				"施設の種類" : "避難所",
				"収容人数" : null,
				"施設規模" : "5150",
				"対象とする災害の分類" : "地震災害",
				"レベル" : "1"
			}
		},
		{
			"type" : "Feature",
			"geometry" : {
				"type" : "Point",
				"coordinates" : [ 139.5382496327, 35.4014127044 ]
			},
			"properties" : {
				"高さ" : "11.3",
				"行政区域" : "14110",
				"名称" : "東戸塚小学校",
				"住所" : "神奈川県横浜市戸塚区吉田町88",
				"施設の種類" : "避難所",
				"収容人数" : null,
				"施設規模" : "7347",
				"対象とする災害の分類" : "指定なし",
				"レベル" : "1"
			}
		},
		{
			"type" : "Feature",
			"geometry" : {
				"type" : "Point",
				"coordinates" : [ 139.5606929125, 35.4341866133 ]
			},
			"properties" : {
				"高さ" : "12.2",
				"行政区域" : "14110",
				"名称" : "東品濃小学校",
				"住所" : "神奈川県横浜市戸塚区品濃町559",
				"施設の種類" : "避難所",
				"収容人数" : null,
				"施設規模" : "5002",
				"対象とする災害の分類" : "指定なし",
				"レベル" : "1"
			}
		},
		{
			"type" : "Feature",
			"geometry" : {
				"type" : "Point",
				"coordinates" : [ 139.4963854651, 35.3680078026 ]
			},
			"properties" : {
				"高さ" : "15.3",
				"行政区域" : "14110",
				"名称" : "東俣野小学校",
				"住所" : "神奈川県横浜市戸塚区東俣野町1103-1",
				"施設の種類" : "避難所",
				"収容人数" : null,
				"施設規模" : "4242",
				"対象とする災害の分類" : "指定なし",
				"レベル" : "4"
			}
		},
		{
			"type" : "Feature",
			"geometry" : {
				"type" : "Point",
				"coordinates" : [ 139.5256675318, 35.3881367489 ]
			},
			"properties" : {
				"高さ" : "14.5",
				"行政区域" : "14110",
				"名称" : "南戸塚小学校",
				"住所" : "神奈川県横浜市戸塚区戸塚町2790-3",
				"施設の種類" : "避難所",
				"収容人数" : null,
				"施設規模" : "5688",
				"対象とする災害の分類" : "指定なし",
				"レベル" : "1"
			}
		},
		{
			"type" : "Feature",
			"geometry" : {
				"type" : "Point",
				"coordinates" : [ 139.5186124821, 35.3809987731 ]
			},
			"properties" : {
				"高さ" : "11.6",
				"行政区域" : "14110",
				"名称" : "南戸塚中学校",
				"住所" : "神奈川県横浜市戸塚区戸塚町1842-1",
				"施設の種類" : "避難所",
				"収容人数" : null,
				"施設規模" : "6688",
				"対象とする災害の分類" : "地震災害",
				"レベル" : "1"
			}
		},
		{
			"type" : "Feature",
			"geometry" : {
				"type" : "Point",
				"coordinates" : [ 139.5545406162, 35.3889166186 ]
			},
			"properties" : {
				"高さ" : "11.9",
				"行政区域" : "14110",
				"名称" : "南舞岡小学校",
				"住所" : "神奈川県横浜市戸塚区南舞岡4-15-1",
				"施設の種類" : "避難所",
				"収容人数" : null,
				"施設規模" : "4764",
				"対象とする災害の分類" : "地震災害",
				"レベル" : "1"
			}
		},
		{
			"type" : "Feature",
			"geometry" : {
				"type" : "Point",
				"coordinates" : [ 139.5518317442, 35.414938661 ]
			},
			"properties" : {
				"高さ" : "14.5",
				"行政区域" : "14110",
				"名称" : "柏尾小学校",
				"住所" : "神奈川県横浜市戸塚区柏尾町1317",
				"施設の種類" : "避難所",
				"収容人数" : null,
				"施設規模" : "5857",
				"対象とする災害の分類" : "指定なし",
				"レベル" : "1"
			}
		},
		{
			"type" : "Feature",
			"geometry" : {
				"type" : "Point",
				"coordinates" : [ 139.5574428431, 35.426187633 ]
			},
			"properties" : {
				"高さ" : "15.1",
				"行政区域" : "14110",
				"名称" : "品濃小学校",
				"住所" : "神奈川県横浜市戸塚区品濃町504-1",
				"施設の種類" : "避難所",
				"収容人数" : null,
				"施設規模" : "5234",
				"対象とする災害の分類" : "指定なし",
				"レベル" : "1"
			}
		},
		{
			"type" : "Feature",
			"geometry" : {
				"type" : "Point",
				"coordinates" : [ 139.5511656765, 35.4071616811 ]
			},
			"properties" : {
				"高さ" : "11.2",
				"行政区域" : "14110",
				"名称" : "舞岡小学校",
				"住所" : "神奈川県横浜市戸塚区舞岡町534",
				"施設の種類" : "避難所",
				"収容人数" : null,
				"施設規模" : "4169",
				"対象とする災害の分類" : "地震災害",
				"レベル" : "1"
			}
		},
		{
			"type" : "Feature",
			"geometry" : {
				"type" : "Point",
				"coordinates" : [ 139.5445374971, 35.4094481223 ]
			},
			"properties" : {
				"高さ" : "14.8",
				"行政区域" : "14110",
				"名称" : "舞岡中学校",
				"住所" : "神奈川県横浜市戸塚区舞岡町226",
				"施設の種類" : "避難所",
				"収容人数" : null,
				"施設規模" : "5371",
				"対象とする災害の分類" : "地震災害",
				"レベル" : "1"
			}
		},
		{
			"type" : "Feature",
			"geometry" : {
				"type" : "Point",
				"coordinates" : [ 139.5637478518, 35.4267706278 ]
			},
			"properties" : {
				"高さ" : "15.3",
				"行政区域" : "14110",
				"名称" : "平戸小学校",
				"住所" : "神奈川県横浜市戸塚区平戸町542",
				"施設の種類" : "避難所",
				"収容人数" : null,
				"施設規模" : "4453",
				"対象とする災害の分類" : "指定なし",
				"レベル" : "1"
			}
		},
		{
			"type" : "Feature",
			"geometry" : {
				"type" : "Point",
				"coordinates" : [ 139.567941823, 35.4230766316 ]
			},
			"properties" : {
				"高さ" : "15.8",
				"行政区域" : "14110",
				"名称" : "平戸台小学校",
				"住所" : "神奈川県横浜市戸塚区平戸町1165",
				"施設の種類" : "避難所",
				"収容人数" : null,
				"施設規模" : "5390",
				"対象とする災害の分類" : "地震災害",
				"レベル" : "1"
			}
		},
		{
			"type" : "Feature",
			"geometry" : {
				"type" : "Point",
				"coordinates" : [ 139.5421664692, 35.3822487562 ]
			},
			"properties" : {
				"高さ" : "15",
				"行政区域" : "14110",
				"名称" : "豊田中学校",
				"住所" : "神奈川県横浜市戸塚区下倉田町950",
				"施設の種類" : "避難所",
				"収容人数" : null,
				"施設規模" : "6327",
				"対象とする災害の分類" : "指定なし",
				"レベル" : "1"
			}
		},
		{
			"type" : "Feature",
			"geometry" : {
				"type" : "Point",
				"coordinates" : [ 139.4957254782, 35.3784437792 ]
			},
			"properties" : {
				"高さ" : "15.4",
				"行政区域" : "14110",
				"名称" : "俣野小学校",
				"住所" : "神奈川県横浜市戸塚区俣野町371",
				"施設の種類" : "避難所",
				"収容人数" : null,
				"施設規模" : "5108",
				"対象とする災害の分類" : "地震災害",
				"レベル" : "1"
			}
		},
		{
			"type" : "Feature",
			"geometry" : {
				"type" : "Point",
				"coordinates" : [ 139.541138876, 35.4310476316 ]
			},
			"properties" : {
				"高さ" : "15.5",
				"行政区域" : "14110",
				"名称" : "名瀬小学校",
				"住所" : "神奈川県横浜市戸塚区名瀬町776",
				"施設の種類" : "避難所",
				"収容人数" : null,
				"施設規模" : "4989",
				"対象とする災害の分類" : "地震災害",
				"レベル" : "1"
			}
		},
		{
			"type" : "Feature",
			"geometry" : {
				"type" : "Point",
				"coordinates" : [ 139.5436186115, 35.4337258433 ]
			},
			"properties" : {
				"高さ" : "11.4",
				"行政区域" : "14110",
				"名称" : "名瀬中学校",
				"住所" : "神奈川県横浜市戸塚区名瀬町791-6",
				"施設の種類" : "避難所",
				"収容人数" : null,
				"施設規模" : "6855",
				"対象とする災害の分類" : "地震災害",
				"レベル" : "1"
			}
		},
		{
			"type" : "Feature",
			"geometry" : {
				"type" : "Point",
				"coordinates" : [ 139.5233896859, 35.4072726969 ]
			},
			"properties" : {
				"高さ" : "14.7",
				"行政区域" : "14110",
				"名称" : "矢部小学校",
				"住所" : "神奈川県横浜市戸塚区矢部町1698",
				"施設の種類" : "避難所",
				"収容人数" : null,
				"施設規模" : "4814",
				"対象とする災害の分類" : "指定なし",
				"レベル" : "1"
			}
		}
	]
}