{
	"type" : "FeatureCollection",
	"name" : "14115_yokohama-shi_sakae-ku_shelter",
	"features" : [
		{
			"type" : "Feature",
			"geometry" : {
				"type" : "Point",
				"coordinates" : [ 139.5320833279, 35.3619188321 ]
			},
			"properties" : {
				"高さ" : "11.3",
				"行政区域" : "14115",
				"名称" : "笠間小学校",
				"住所" : "神奈川県横浜市栄区笠間町3-28-l",
				"施設の種類" : "避難所",
				"収容人数" : null,
				"施設規模" : "4819",
				"対象とする災害の分類" : "指定なし",
				"レベル" : "1"
			}
		},
		{
			"type" : "Feature",
			"geometry" : {
				"type" : "Point",
				"coordinates" : [ 139.5791748257, 35.3463871123 ]
			},
			"properties" : {
				"高さ" : "11.3",
				"行政区域" : "14115",
				"名称" : "旧野七里小学校",
				"住所" : "神奈川県横浜市栄区野七里2-3-l",
				"施設の種類" : "避難所",
				"収容人数" : null,
				"施設規模" : "6089",
				"対象とする災害の分類" : "地震災害",
				"レベル" : "3"
			}
		},
		{
			"type" : "Feature",
			"geometry" : {
				"type" : "Point",
				"coordinates" : [ 139.5634692116, 35.3524188473 ]
			},
			"properties" : {
				"高さ" : "14.6",
				"行政区域" : "14115",
				"名称" : "桂台小学校",
				"住所" : "神奈川県横浜市栄区桂台南1-1-1",
				"施設の種類" : "避難所",
				"収容人数" : null,
				"施設規模" : "5524",
				"対象とする災害の分類" : "地震災害",
				"レベル" : "1"
			}
		},
		{
			"type" : "Feature",
			"geometry" : {
				"type" : "Point",
				"coordinates" : [ 139.5645802211, 35.3540578385 ]
			},
			"properties" : {
				"高さ" : "8",
				"行政区域" : "14115",
				"名称" : "桂台中学校",
				"住所" : "神奈川県横浜市栄区桂台中5-1",
				"施設の種類" : "避難所",
				"収容人数" : null,
				"施設規模" : "5925",
				"対象とする災害の分類" : "地震災害",
				"レベル" : "1"
			}
		},
		{
			"type" : "Feature",
			"geometry" : {
				"type" : "Point",
				"coordinates" : [ 139.5538592428, 35.354446847 ]
			},
			"properties" : {
				"高さ" : "15.2",
				"行政区域" : "14115",
				"名称" : "公田小学校",
				"住所" : "神奈川県横浜市栄区公田町354-3",
				"施設の種類" : "避難所",
				"収容人数" : null,
				"施設規模" : "4529",
				"対象とする災害の分類" : "指定なし",
				"レベル" : "1"
			}
		},
		{
			"type" : "Feature",
			"geometry" : {
				"type" : "Point",
				"coordinates" : [ 139.5723852982, 35.3661117744 ]
			},
			"properties" : {
				"高さ" : "15.2",
				"行政区域" : "14115",
				"名称" : "桜井小学校",
				"住所" : "神奈川県横浜市栄区上郷町242-2",
				"施設の種類" : "避難所",
				"収容人数" : null,
				"施設規模" : "4893",
				"対象とする災害の分類" : "指定なし",
				"レベル" : "1"
			}
		},
		{
			"type" : "Feature",
			"geometry" : {
				"type" : "Point",
				"coordinates" : [ 139.5578427348, 35.3801426391 ]
			},
			"properties" : {
				"高さ" : "11",
				"行政区域" : "14115",
				"名称" : "小山台小学校",
				"住所" : "神奈川県横浜市栄区小山台1-15-1",
				"施設の種類" : "避難所",
				"収容人数" : null,
				"施設規模" : "3871",
				"対象とする災害の分類" : "地震災害",
				"レベル" : "1"
			}
		},
		{
			"type" : "Feature",
			"geometry" : {
				"type" : "Point",
				"coordinates" : [ 139.5482494208, 35.3770277674 ]
			},
			"properties" : {
				"高さ" : "14.8",
				"行政区域" : "14115",
				"名称" : "小菅ヶ谷小学校",
				"住所" : "神奈川県横浜市栄区本郷台4-31-1",
				"施設の種類" : "避難所",
				"収容人数" : null,
				"施設規模" : "5933",
				"対象とする災害の分類" : "地震災害",
				"レベル" : "1"
			}
		},
		{
			"type" : "Feature",
			"geometry" : {
				"type" : "Point",
				"coordinates" : [ 139.5843561782, 35.3530848104 ]
			},
			"properties" : {
				"高さ" : "11",
				"行政区域" : "14115",
				"名称" : "庄戸小学校",
				"住所" : "神奈川県横浜市栄区庄戸1-15-1",
				"施設の種類" : "避難所",
				"収容人数" : null,
				"施設規模" : "4768",
				"対象とする災害の分類" : "地震災害",
				"レベル" : "1"
			}
		},
		{
			"type" : "Feature",
			"geometry" : {
				"type" : "Point",
				"coordinates" : [ 139.5853281686, 35.351835815 ]
			},
			"properties" : {
				"高さ" : "14.6",
				"行政区域" : "14115",
				"名称" : "庄土中学校",
				"住所" : "神奈川県横浜市栄区庄戸3-1-1",
				"施設の種類" : "避難所",
				"収容人数" : null,
				"施設規模" : "6077",
				"対象とする災害の分類" : "地震災害",
				"レベル" : "1"
			}
		},
		{
			"type" : "Feature",
			"geometry" : {
				"type" : "Point",
				"coordinates" : [ 139.5716988846, 35.3575261902 ]
			},
			"properties" : {
				"高さ" : "15",
				"行政区域" : "14115",
				"名称" : "上郷小学校",
				"住所" : "神奈川県横浜市栄区犬山町6-1",
				"施設の種類" : "避難所",
				"収容人数" : null,
				"施設規模" : "5452",
				"対象とする災害の分類" : "指定なし",
				"レベル" : "4"
			}
		},
		{
			"type" : "Feature",
			"geometry" : {
				"type" : "Point",
				"coordinates" : [ 139.5420926407, 35.3657538084 ]
			},
			"properties" : {
				"高さ" : "11.2",
				"行政区域" : "14115",
				"名称" : "西本郷小学校",
				"住所" : "神奈川県横浜市栄区小菅ヶ谷2-22-1",
				"施設の種類" : "避難所",
				"収容人数" : null,
				"施設規模" : "5348",
				"対象とする災害の分類" : "指定なし",
				"レベル" : "1"
			}
		},
		{
			"type" : "Feature",
			"geometry" : {
				"type" : "Point",
				"coordinates" : [ 139.5430093312, 35.3637815988 ]
			},
			"properties" : {
				"高さ" : "11.4",
				"行政区域" : "14115",
				"名称" : "西本郷中学校",
				"住所" : "神奈川県横浜市栄区小菅ヶ谷1-29-1",
				"施設の種類" : "避難所",
				"収容人数" : null,
				"施設規模" : "5939",
				"対象とする災害の分類" : "指定なし",
				"レベル" : "1"
			}
		},
		{
			"type" : "Feature",
			"geometry" : {
				"type" : "Point",
				"coordinates" : [ 139.5199142504, 35.371607773 ]
			},
			"properties" : {
				"高さ" : "14.6",
				"行政区域" : "14115",
				"名称" : "千秀小学校",
				"住所" : "神奈川県横浜市栄区田谷町1832",
				"施設の種類" : "避難所",
				"収容人数" : null,
				"施設規模" : "3743",
				"対象とする災害の分類" : "指定なし",
				"レベル" : "1"
			}
		},
		{
			"type" : "Feature",
			"geometry" : {
				"type" : "Point",
				"coordinates" : [ 139.535274362, 35.3732459098 ]
			},
			"properties" : {
				"高さ" : "15",
				"行政区域" : "14115",
				"名称" : "飯島小学校",
				"住所" : "神奈川県横浜市栄区飯島町771-2",
				"施設の種類" : "避難所",
				"収容人数" : null,
				"施設規模" : "4683",
				"対象とする災害の分類" : "指定なし",
				"レベル" : "1"
			}
		},
		{
			"type" : "Feature",
			"geometry" : {
				"type" : "Point",
				"coordinates" : [ 139.5317504048, 35.3723897958 ]
			},
			"properties" : {
				"高さ" : "11.5",
				"行政区域" : "14115",
				"名称" : "飯島中学校",
				"住所" : "神奈川県横浜市栄区飯島町746-1",
				"施設の種類" : "避難所",
				"収容人数" : null,
				"施設規模" : "5380",
				"対象とする災害の分類" : "指定なし",
				"レベル" : "1"
			}
		},
		{
			"type" : "Feature",
			"geometry" : {
				"type" : "Point",
				"coordinates" : [ 139.5359724774, 35.3825817598 ]
			},
			"properties" : {
				"高さ" : "11.3",
				"行政区域" : "14115",
				"名称" : "豊田小学校",
				"住所" : "神奈川県横浜市栄区長沼町125-4",
				"施設の種類" : "避難所",
				"収容人数" : null,
				"施設規模" : "4709",
				"対象とする災害の分類" : "指定なし",
				"レベル" : "1"
			}
		},
		{
			"type" : "Feature",
			"geometry" : {
				"type" : "Point",
				"coordinates" : [ 139.5614422927, 35.3631678025 ]
			},
			"properties" : {
				"高さ" : "14.9",
				"行政区域" : "14115",
				"名称" : "本郷小学校",
				"住所" : "神奈川県横浜市栄区中野町16-1",
				"施設の種類" : "避難所",
				"収容人数" : null,
				"施設規模" : "5550",
				"対象とする災害の分類" : "指定なし",
				"レベル" : "1"
			}
		},
		{
			"type" : "Feature",
			"geometry" : {
				"type" : "Point",
				"coordinates" : [ 139.5493603741, 35.3713337854 ]
			},
			"properties" : {
				"高さ" : "14.2",
				"行政区域" : "14115",
				"名称" : "本郷台小学校",
				"住所" : "神奈川県横浜市栄区本郷台1-6-l",
				"施設の種類" : "避難所",
				"収容人数" : null,
				"施設規模" : "6015",
				"対象とする災害の分類" : "指定なし",
				"レベル" : "1"
			}
		},
		{
			"type" : "Feature",
			"geometry" : {
				"type" : "Point",
				"coordinates" : [ 139.5505823233, 35.3648628081 ]
			},
			"properties" : {
				"高さ" : "14.7",
				"行政区域" : "14115",
				"名称" : "本郷中学校",
				"住所" : "神奈川県横浜市栄区桂町84-14",
				"施設の種類" : "避難所",
				"収容人数" : null,
				"施設規模" : "6526",
				"対象とする災害の分類" : "指定なし",
				"レベル" : "1"
			}
		}
	]
}