{
	"type" : "FeatureCollection",
	"name" : "14117_yokohama-shi_aoba-ku_shelter",
	"features" : [
		{
			"type" : "Feature",
			"geometry" : {
				"type" : "Point",
				"coordinates" : [ 139.5424188517, 35.5718632144 ]
			},
			"properties" : {
				"高さ" : "14.7",
				"行政区域" : "14117",
				"名称" : "あざみ野第一小学校",
				"住所" : "神奈川県横浜市青葉区あざみ野4-6-1",
				"施設の種類" : "避難所",
				"収容人数" : null,
				"施設規模" : "5258",
				"対象とする災害の分類" : "地震災害",
				"レベル" : "1"
			}
		},
		{
			"type" : "Feature",
			"geometry" : {
				"type" : "Point",
				"coordinates" : [ 139.5418588123, 35.563892433 ]
			},
			"properties" : {
				"高さ" : "11.5",
				"行政区域" : "14117",
				"名称" : "あざみ野第二小学校",
				"住所" : "神奈川県横浜市青葉区あざみ野3-29-3",
				"施設の種類" : "避難所",
				"収容人数" : null,
				"施設規模" : "4850",
				"対象とする災害の分類" : "地震災害",
				"レベル" : "1"
			}
		},
		{
			"type" : "Feature",
			"geometry" : {
				"type" : "Point",
				"coordinates" : [ 139.5470248687, 35.5717794257 ]
			},
			"properties" : {
				"高さ" : "11.5",
				"行政区域" : "14117",
				"名称" : "あざみ野中学校",
				"住所" : "神奈川県横浜市青葉区あざみ野1-29-1",
				"施設の種類" : "避難所",
				"収容人数" : null,
				"施設規模" : "5911",
				"対象とする災害の分類" : "地震災害",
				"レベル" : "1"
			}
		},
		{
			"type" : "Feature",
			"geometry" : {
				"type" : "Point",
				"coordinates" : [ 139.5186125804, 35.5323124528 ]
			},
			"properties" : {
				"高さ" : "11.7",
				"行政区域" : "14117",
				"名称" : "さつきが丘小学校",
				"住所" : "神奈川県横浜市青葉区さつきが丘8",
				"施設の種類" : "避難所",
				"収容人数" : null,
				"施設規模" : "6227",
				"対象とする災害の分類" : "指定なし",
				"レベル" : "1"
			}
		},
		{
			"type" : "Feature",
			"geometry" : {
				"type" : "Point",
				"coordinates" : [ 139.5305258892, 35.5792784132 ]
			},
			"properties" : {
				"高さ" : "14.7",
				"行政区域" : "14117",
				"名称" : "すすき野小学校",
				"住所" : "神奈川県横浜市青葉区すすき野3-4-1",
				"施設の種類" : "避難所",
				"収容人数" : null,
				"施設規模" : "5288",
				"対象とする災害の分類" : "地震災害",
				"レベル" : "1"
			}
		},
		{
			"type" : "Feature",
			"geometry" : {
				"type" : "Point",
				"coordinates" : [ 139.5201956056, 35.5359794489 ]
			},
			"properties" : {
				"高さ" : "15.2",
				"行政区域" : "14117",
				"名称" : "つつじヶ丘小学校",
				"住所" : "神奈川県横浜市青葉区つつじが丘34",
				"施設の種類" : "避難所",
				"収容人数" : null,
				"施設規模" : "5134",
				"対象とする災害の分類" : "地震災害",
				"レベル" : "1"
			}
		},
		{
			"type" : "Feature",
			"geometry" : {
				"type" : "Point",
				"coordinates" : [ 139.51716673, 35.5564204296 ]
			},
			"properties" : {
				"高さ" : "4.6",
				"行政区域" : "14117",
				"名称" : "みたけ台小学校",
				"住所" : "神奈川県横浜市青葉区みたけ台30",
				"施設の種類" : "避難所",
				"収容人数" : null,
				"施設規模" : "5327",
				"対象とする災害の分類" : "地震災害",
				"レベル" : "1"
			}
		},
		{
			"type" : "Feature",
			"geometry" : {
				"type" : "Point",
				"coordinates" : [ 139.521444741, 35.5570864311 ]
			},
			"properties" : {
				"高さ" : "11.3",
				"行政区域" : "14117",
				"名称" : "みたけ台中学校",
				"住所" : "神奈川県横浜市青葉区みたけ台30",
				"施設の種類" : "避難所",
				"収容人数" : null,
				"施設規模" : "6060",
				"対象とする災害の分類" : "指定なし",
				"レベル" : "1"
			}
		},
		{
			"type" : "Feature",
			"geometry" : {
				"type" : "Point",
				"coordinates" : [ 139.523334585, 35.5482661442 ]
			},
			"properties" : {
				"高さ" : "11.6",
				"行政区域" : "14117",
				"名称" : "もえぎ野小学校",
				"住所" : "神奈川県横浜市青葉区もえぎ野16",
				"施設の種類" : "避難所",
				"収容人数" : null,
				"施設規模" : "5472",
				"対象とする災害の分類" : "指定なし",
				"レベル" : "1"
			}
		},
		{
			"type" : "Feature",
			"geometry" : {
				"type" : "Point",
				"coordinates" : [ 139.5350538709, 35.5751684176 ]
			},
			"properties" : {
				"高さ" : "11.6",
				"行政区域" : "14117",
				"名称" : "荏子田小学校",
				"住所" : "神奈川県横浜市青葉区荏子田町3-8-9",
				"施設の種類" : "避難所",
				"収容人数" : null,
				"施設規模" : "4330",
				"対象とする災害の分類" : "地震災害",
				"レベル" : "1"
			}
		},
		{
			"type" : "Feature",
			"geometry" : {
				"type" : "Point",
				"coordinates" : [ 139.5493344893, 35.547510012 ]
			},
			"properties" : {
				"高さ" : "14.6",
				"行政区域" : "14117",
				"名称" : "荏田西小学校",
				"住所" : "神奈川県横浜市青葉区荏田西4-5-1",
				"施設の種類" : "避難所",
				"収容人数" : null,
				"施設規模" : "4509",
				"対象とする災害の分類" : "地震災害",
				"レベル" : "1"
			}
		},
		{
			"type" : "Feature",
			"geometry" : {
				"type" : "Point",
				"coordinates" : [ 139.5098896289, 35.5419214359 ]
			},
			"properties" : {
				"高さ" : "14.4",
				"行政区域" : "14117",
				"名称" : "榎が丘小学校",
				"住所" : "神奈川県横浜市青葉区榎が丘29",
				"施設の種類" : "避難所",
				"収容人数" : null,
				"施設規模" : "5046",
				"対象とする災害の分類" : "指定なし",
				"レベル" : "1"
			}
		},
		{
			"type" : "Feature",
			"geometry" : {
				"type" : "Point",
				"coordinates" : [ 139.4995836805, 35.552446421 ]
			},
			"properties" : {
				"高さ" : "9.8",
				"行政区域" : "14117",
				"名称" : "恩田小学校",
				"住所" : "神奈川県横浜市青葉区桂台2-36",
				"施設の種類" : "避難所",
				"収容人数" : null,
				"施設規模" : "6079",
				"対象とする災害の分類" : "地震災害",
				"レベル" : "1"
			}
		},
		{
			"type" : "Feature",
			"geometry" : {
				"type" : "Point",
				"coordinates" : [ 139.5052777573, 35.5638624177 ]
			},
			"properties" : {
				"高さ" : "11.3",
				"行政区域" : "14117",
				"名称" : "鴨志田緑小学校",
				"住所" : "神奈川県横浜市青葉区鴨志田町532",
				"施設の種類" : "避難所",
				"収容人数" : null,
				"施設規模" : "5283",
				"対象とする災害の分類" : "地震災害",
				"レベル" : "1"
			}
		},
		{
			"type" : "Feature",
			"geometry" : {
				"type" : "Point",
				"coordinates" : [ 139.509638724, 35.5570864249 ]
			},
			"properties" : {
				"高さ" : "15.1",
				"行政区域" : "14117",
				"名称" : "鴨志田第一小学校",
				"住所" : "神奈川県横浜市青葉区鴨志田町805-6",
				"施設の種類" : "避難所",
				"収容人数" : null,
				"施設規模" : "5489",
				"対象とする災害の分類" : "地震災害",
				"レベル" : "1"
			}
		},
		{
			"type" : "Feature",
			"geometry" : {
				"type" : "Point",
				"coordinates" : [ 139.5052226633, 35.5483644285 ]
			},
			"properties" : {
				"高さ" : "15",
				"行政区域" : "14117",
				"名称" : "桂小学校",
				"住所" : "神奈川県横浜市青葉区桂台1-4",
				"施設の種類" : "避難所",
				"収容人数" : null,
				"施設規模" : "5064",
				"対象とする災害の分類" : "地震災害",
				"レベル" : "1"
			}
		},
		{
			"type" : "Feature",
			"geometry" : {
				"type" : "Point",
				"coordinates" : [ 139.5483859383, 35.583278412 ]
			},
			"properties" : {
				"高さ" : "8.6",
				"行政区域" : "14117",
				"名称" : "元石川小学校",
				"住所" : "神奈川県横浜市青葉区美しが丘4-31-1",
				"施設の種類" : "避難所",
				"収容人数" : null,
				"施設規模" : "4990",
				"対象とする災害の分類" : "指定なし",
				"レベル" : "1"
			}
		},
		{
			"type" : "Feature",
			"geometry" : {
				"type" : "Point",
				"coordinates" : [ 139.5329488257, 35.5682084259 ]
			},
			"properties" : {
				"高さ" : "11.4",
				"行政区域" : "14117",
				"名称" : "黒須田小学校",
				"住所" : "神奈川県横浜市青葉区黒須田34-1",
				"施設の種類" : "避難所",
				"収容人数" : null,
				"施設規模" : "7799",
				"対象とする災害の分類" : "地震災害",
				"レベル" : "3"
			}
		},
		{
			"type" : "Feature",
			"geometry" : {
				"type" : "Point",
				"coordinates" : [ 139.556857866, 35.5689744324 ]
			},
			"properties" : {
				"高さ" : "7.8",
				"行政区域" : "14117",
				"名称" : "山内小学校",
				"住所" : "神奈川県横浜市青葉区新石川1-20-1",
				"施設の種類" : "避難所",
				"収容人数" : null,
				"施設規模" : "5632",
				"対象とする災害の分類" : "指定なし",
				"レベル" : "1"
			}
		},
		{
			"type" : "Feature",
			"geometry" : {
				"type" : "Point",
				"coordinates" : [ 139.5519739041, 35.5767598133 ]
			},
			"properties" : {
				"高さ" : "14.6",
				"行政区域" : "14117",
				"名称" : "山内中学校",
				"住所" : "神奈川県横浜市青葉区美しが丘5-4",
				"施設の種類" : "避難所",
				"収容人数" : null,
				"施設規模" : "6478",
				"対象とする災害の分類" : "地震災害",
				"レベル" : "1"
			}
		},
		{
			"type" : "Feature",
			"geometry" : {
				"type" : "Point",
				"coordinates" : [ 139.5401377611, 35.5560594394 ]
			},
			"properties" : {
				"高さ" : "12.4",
				"行政区域" : "14117",
				"名称" : "市ケ尾小学校",
				"住所" : "神奈川県横浜市青葉区市ケ尾町1632-1",
				"施設の種類" : "避難所",
				"収容人数" : null,
				"施設規模" : "5729",
				"対象とする災害の分類" : "指定なし",
				"レベル" : "1"
			}
		},
		{
			"type" : "Feature",
			"geometry" : {
				"type" : "Point",
				"coordinates" : [ 139.5621619197, 35.5766684257 ]
			},
			"properties" : {
				"高さ" : "11.2",
				"行政区域" : "14117",
				"名称" : "新石川小学校",
				"住所" : "神奈川県横浜市青葉区新石川3-12-1",
				"施設の種類" : "避難所",
				"収容人数" : null,
				"施設規模" : "4830",
				"対象とする災害の分類" : "地震災害",
				"レベル" : "1"
			}
		},
		{
			"type" : "Feature",
			"geometry" : {
				"type" : "Point",
				"coordinates" : [ 139.5097506872, 35.5511424301 ]
			},
			"properties" : {
				"高さ" : "14.6",
				"行政区域" : "14117",
				"名称" : "青葉台小学校",
				"住所" : "神奈川県横浜市青葉区桜台47",
				"施設の種類" : "避難所",
				"収容人数" : null,
				"施設規模" : "4447",
				"対象とする災害の分類" : "地震災害",
				"レベル" : "1"
			}
		},
		{
			"type" : "Feature",
			"geometry" : {
				"type" : "Point",
				"coordinates" : [ 139.5151956723, 35.5475604365 ]
			},
			"properties" : {
				"高さ" : "14.9",
				"行政区域" : "14117",
				"名称" : "青葉台中学校",
				"住所" : "神奈川県横浜市青葉区青葉台2-25-2",
				"施設の種類" : "避難所",
				"収容人数" : null,
				"施設規模" : "5507",
				"対象とする災害の分類" : "地震災害",
				"レベル" : "1"
			}
		},
		{
			"type" : "Feature",
			"geometry" : {
				"type" : "Point",
				"coordinates" : [ 139.5351946735, 35.5432004496 ]
			},
			"properties" : {
				"高さ" : "15.3",
				"行政区域" : "14117",
				"名称" : "谷本小学校",
				"住所" : "神奈川県横浜市青葉区藤が丘l-55-10",
				"施設の種類" : "避難所",
				"収容人数" : null,
				"施設規模" : "5036",
				"対象とする災害の分類" : "指定なし",
				"レベル" : "1"
			}
		},
		{
			"type" : "Feature",
			"geometry" : {
				"type" : "Point",
				"coordinates" : [ 139.5225708345, 35.5371448738 ]
			},
			"properties" : {
				"高さ" : "15.1",
				"行政区域" : "14117",
				"名称" : "谷本中学校",
				"住所" : "神奈川県横浜市青葉区梅が丘5",
				"施設の種類" : "避難所",
				"収容人数" : null,
				"施設規模" : "6530",
				"対象とする災害の分類" : "地震災害",
				"レベル" : "1"
			}
		},
		{
			"type" : "Feature",
			"geometry" : {
				"type" : "Point",
				"coordinates" : [ 139.5201107715, 35.5625024258 ]
			},
			"properties" : {
				"高さ" : "15.6",
				"行政区域" : "14117",
				"名称" : "鉄小学校",
				"住所" : "神奈川県横浜市青葉区鉄町427",
				"施設の種類" : "避難所",
				"収容人数" : null,
				"施設規模" : "4766",
				"対象とする災害の分類" : "指定なし",
				"レベル" : "1"
			}
		},
		{
			"type" : "Feature",
			"geometry" : {
				"type" : "Point",
				"coordinates" : [ 139.5002236022, 35.53930943 ]
			},
			"properties" : {
				"高さ" : "14.7",
				"行政区域" : "14117",
				"名称" : "田奈小学校",
				"住所" : "神奈川県横浜市青葉区田奈町51-13",
				"施設の種類" : "避難所",
				"収容人数" : null,
				"施設規模" : "5019",
				"対象とする災害の分類" : "指定なし",
				"レベル" : "1"
			}
		},
		{
			"type" : "Feature",
			"geometry" : {
				"type" : "Point",
				"coordinates" : [ 139.5466376913, 35.543172454 ]
			},
			"properties" : {
				"高さ" : "15",
				"行政区域" : "14117",
				"名称" : "東市ヶ尾小学校",
				"住所" : "神奈川県横浜市青葉区市ヶ尾町519",
				"施設の種類" : "避難所",
				"収容人数" : null,
				"施設規模" : "5769",
				"対象とする災害の分類" : "指定なし",
				"レベル" : "1"
			}
		},
		{
			"type" : "Feature",
			"geometry" : {
				"type" : "Point",
				"coordinates" : [ 139.5262325049, 35.5391659538 ]
			},
			"properties" : {
				"高さ" : "15.1",
				"行政区域" : "14117",
				"名称" : "藤が丘小学校",
				"住所" : "神奈川県横浜市青葉区藤が丘2-30-3",
				"施設の種類" : "避難所",
				"収容人数" : null,
				"施設規模" : "6499",
				"対象とする災害の分類" : "地震災害",
				"レベル" : "1"
			}
		},
		{
			"type" : "Feature",
			"geometry" : {
				"type" : "Point",
				"coordinates" : [ 139.4867386625, 35.551579159 ]
			},
			"properties" : {
				"高さ" : "11.4",
				"行政区域" : "14117",
				"名称" : "奈良の丘小学校",
				"住所" : "神奈川県横浜市青葉区奈良2-29-1",
				"施設の種類" : "避難所",
				"収容人数" : null,
				"施設規模" : "7149",
				"対象とする災害の分類" : "地震災害",
				"レベル" : "1"
			}
		},
		{
			"type" : "Feature",
			"geometry" : {
				"type" : "Point",
				"coordinates" : [ 139.4808997325, 35.5628033797 ]
			},
			"properties" : {
				"高さ" : "14.4",
				"行政区域" : "14117",
				"名称" : "奈良小学校",
				"住所" : "神奈川県横浜市青葉区奈良町1541-2",
				"施設の種類" : "避難所",
				"収容人数" : null,
				"施設規模" : "6011",
				"対象とする災害の分類" : "指定なし",
				"レベル" : "1"
			}
		},
		{
			"type" : "Feature",
			"geometry" : {
				"type" : "Point",
				"coordinates" : [ 139.4949727019, 35.5569174145 ]
			},
			"properties" : {
				"高さ" : "14.9",
				"行政区域" : "14117",
				"名称" : "奈良中学校",
				"住所" : "神奈川県横浜市青葉区すみよし台36-3",
				"施設の種類" : "避難所",
				"収容人数" : null,
				"施設規模" : "6389",
				"対象とする災害の分類" : "指定なし",
				"レベル" : "1"
			}
		},
		{
			"type" : "Feature",
			"geometry" : {
				"type" : "Point",
				"coordinates" : [ 139.5567739573, 35.5843614146 ]
			},
			"properties" : {
				"高さ" : "14.7",
				"行政区域" : "14117",
				"名称" : "美しが丘小学校",
				"住所" : "神奈川県横浜市青葉区美しが丘2-29",
				"施設の種類" : "避難所",
				"収容人数" : null,
				"施設規模" : "4640",
				"対象とする災害の分類" : "地震災害",
				"レベル" : "1"
			}
		},
		{
			"type" : "Feature",
			"geometry" : {
				"type" : "Point",
				"coordinates" : [ 139.5515519715, 35.5880274072 ]
			},
			"properties" : {
				"高さ" : "15",
				"行政区域" : "14117",
				"名称" : "美しが丘中学校",
				"住所" : "神奈川県横浜市青葉区美しが丘3-41-1",
				"施設の種類" : "避難所",
				"収容人数" : null,
				"施設規模" : "5064",
				"対象とする災害の分類" : "地震災害",
				"レベル" : "1"
			}
		},
		{
			"type" : "Feature",
			"geometry" : {
				"type" : "Point",
				"coordinates" : [ 139.5604949504, 35.5823894187 ]
			},
			"properties" : {
				"高さ" : "15",
				"行政区域" : "14117",
				"名称" : "美しが丘東小学校",
				"住所" : "神奈川県横浜市青葉区美しが丘2-25",
				"施設の種類" : "避難所",
				"収容人数" : null,
				"施設規模" : "4449",
				"対象とする災害の分類" : "地震災害",
				"レベル" : "1"
			}
		},
		{
			"type" : "Feature",
			"geometry" : {
				"type" : "Point",
				"coordinates" : [ 139.5294708658, 35.5758904168 ]
			},
			"properties" : {
				"高さ" : "11.5",
				"行政区域" : "14117",
				"名称" : "嶮山小学校",
				"住所" : "神奈川県横浜市青葉区すすき野1-6-4",
				"施設の種類" : "避難所",
				"収容人数" : null,
				"施設規模" : "5404",
				"対象とする災害の分類" : "指定なし",
				"レベル" : "1"
			}
		}
	]
}