{
	"type" : "FeatureCollection",
	"name" : "14110_yokohama-shi_totsuka-ku_station",
	"features" : [
		{
			"type" : "Feature",
			"geometry" : {
				"type" : "Point",
				"coordinates" : [ 139.5512733459, 35.4025381733 ]
			},
			"properties" : {
				"駅名" : "舞岡駅",
				"高さ" : "0",
				"鉄道区分" : "普通鉄道",
				"事業者種別" : "公営鉄道",
				"路線名" : "1号線",
				"運営会社" : "横浜市"
			}
		},
		{
			"type" : "Feature",
			"geometry" : {
				"type" : "Point",
				"coordinates" : [ 139.5348898321, 35.4011014289 ]
			},
			"properties" : {
				"駅名" : "戸塚駅",
				"高さ" : "0",
				"鉄道区分" : "普通鉄道",
				"事業者種別" : "公営鉄道",
				"路線名" : "1号線",
				"運営会社" : "横浜市"
			}
		},
		{
			"type" : "Feature",
			"geometry" : {
				"type" : "Point",
				"coordinates" : [ 139.5343095084, 35.400436338 ]
			},
			"properties" : {
				"駅名" : "戸塚駅",
				"高さ" : "11.4",
				"鉄道区分" : "普通鉄道JR",
				"事業者種別" : "JR在来線",
				"路線名" : "東海道線",
				"運営会社" : "東日本旅客鉄道"
			}
		},
		{
			"type" : "Feature",
			"geometry" : {
				"type" : "Point",
				"coordinates" : [ 139.5567395377, 35.4303369633 ]
			},
			"properties" : {
				"駅名" : "東戸塚駅",
				"高さ" : "14.8",
				"鉄道区分" : "普通鉄道JR",
				"事業者種別" : "JR在来線",
				"路線名" : "東海道線",
				"運営会社" : "東日本旅客鉄道"
			}
		}
	]
}