{
	"type" : "FeatureCollection",
	"name" : "14116_yokohama-shi_izumi-ku_shelter",
	"features" : [
		{
			"type" : "Feature",
			"geometry" : {
				"type" : "Point",
				"coordinates" : [ 139.4946698766, 35.4341856239 ]
			},
			"properties" : {
				"高さ" : "3.2",
				"行政区域" : "14116",
				"名称" : "いずみ野小学校",
				"住所" : "神奈川県横浜市泉区和泉町6211",
				"施設の種類" : "避難所",
				"収容人数" : null,
				"施設規模" : "5323",
				"対象とする災害の分類" : "指定なし",
				"レベル" : "1"
			}
		},
		{
			"type" : "Feature",
			"geometry" : {
				"type" : "Point",
				"coordinates" : [ 139.4976418611, 35.4317976313 ]
			},
			"properties" : {
				"高さ" : "7.7",
				"行政区域" : "14116",
				"名称" : "いずみ野中学校",
				"住所" : "神奈川県横浜市泉区和泉町6201",
				"施設の種類" : "避難所",
				"収容人数" : null,
				"施設規模" : "6698",
				"対象とする災害の分類" : "地震災害",
				"レベル" : "1"
			}
		},
		{
			"type" : "Feature",
			"geometry" : {
				"type" : "Point",
				"coordinates" : [ 139.4753098515, 35.4320476231 ]
			},
			"properties" : {
				"高さ" : "14.9",
				"行政区域" : "14116",
				"名称" : "いちょう小学校",
				"住所" : "神奈川県横浜市泉区上飯田町3220-4",
				"施設の種類" : "避難所",
				"収容人数" : null,
				"施設規模" : "7196",
				"対象とする災害の分類" : "指定なし",
				"レベル" : "1"
			}
		},
		{
			"type" : "Feature",
			"geometry" : {
				"type" : "Point",
				"coordinates" : [ 139.497030709, 35.4107726874 ]
			},
			"properties" : {
				"高さ" : "15",
				"行政区域" : "14116",
				"名称" : "伊勢山小学校",
				"住所" : "神奈川県横浜市泉区和泉町2868",
				"施設の種類" : "避難所",
				"収容人数" : null,
				"施設規模" : "3754",
				"対象とする災害の分類" : "指定なし",
				"レベル" : "1"
			}
		},
		{
			"type" : "Feature",
			"geometry" : {
				"type" : "Point",
				"coordinates" : [ 139.5245008494, 35.4282426445 ]
			},
			"properties" : {
				"高さ" : "14.7",
				"行政区域" : "14116",
				"名称" : "岡津小学校",
				"住所" : "神奈川県横浜市泉区岡津町2311",
				"施設の種類" : "避難所",
				"収容人数" : null,
				"施設規模" : "5429",
				"対象とする災害の分類" : "指定なし",
				"レベル" : "1"
			}
		},
		{
			"type" : "Feature",
			"geometry" : {
				"type" : "Point",
				"coordinates" : [ 139.4931696397, 35.4012737129 ]
			},
			"properties" : {
				"高さ" : "14.7",
				"行政区域" : "14116",
				"名称" : "下和泉小学校",
				"住所" : "神奈川県横浜市泉区和泉町1436",
				"施設の種類" : "避難所",
				"収容人数" : null,
				"施設規模" : "5648",
				"対象とする災害の分類" : "指定なし",
				"レベル" : "1"
			}
		},
		{
			"type" : "Feature",
			"geometry" : {
				"type" : "Point",
				"coordinates" : [ 139.5081453629, 35.4038141253 ]
			},
			"properties" : {
				"高さ" : "15",
				"行政区域" : "14116",
				"名称" : "葛野小学校",
				"住所" : "神奈川県横浜市泉区中田南5-15-l",
				"施設の種類" : "避難所",
				"収容人数" : null,
				"施設規模" : "5535",
				"対象とする災害の分類" : "指定なし",
				"レベル" : "1"
			}
		},
		{
			"type" : "Feature",
			"geometry" : {
				"type" : "Point",
				"coordinates" : [ 139.4803937986, 35.4240756457 ]
			},
			"properties" : {
				"高さ" : "14.8",
				"行政区域" : "14116",
				"名称" : "上飯田小学校",
				"住所" : "神奈川県横浜市泉区上飯田町1331",
				"施設の種類" : "避難所",
				"収容人数" : null,
				"施設規模" : "5253",
				"対象とする災害の分類" : "指定なし",
				"レベル" : "1"
			}
		},
		{
			"type" : "Feature",
			"geometry" : {
				"type" : "Point",
				"coordinates" : [ 139.4817268387, 35.4297696313 ]
			},
			"properties" : {
				"高さ" : "16.3",
				"行政区域" : "14116",
				"名称" : "上飯田中学校",
				"住所" : "神奈川県横浜市泉区上飯田町2254",
				"施設の種類" : "避難所",
				"収容人数" : null,
				"施設規模" : "7897",
				"対象とする災害の分類" : "指定なし",
				"レベル" : "1"
			}
		},
		{
			"type" : "Feature",
			"geometry" : {
				"type" : "Point",
				"coordinates" : [ 139.5066138849, 35.4343526276 ]
			},
			"properties" : {
				"高さ" : "14.5",
				"行政区域" : "14116",
				"名称" : "新橋小学校",
				"住所" : "神奈川県横浜市泉区新橋町909",
				"施設の種類" : "避難所",
				"収容人数" : null,
				"施設規模" : "4960",
				"対象とする災害の分類" : "指定なし",
				"レベル" : "1"
			}
		},
		{
			"type" : "Feature",
			"geometry" : {
				"type" : "Point",
				"coordinates" : [ 139.5158017768, 35.4191136687 ]
			},
			"properties" : {
				"高さ" : "5",
				"行政区域" : "14116",
				"名称" : "西が岡小学校",
				"住所" : "神奈川県横浜市泉区西が岡3-12-11",
				"施設の種類" : "避難所",
				"収容人数" : null,
				"施設規模" : "6682",
				"対象とする災害の分類" : "地震災害",
				"レベル" : "1"
			}
		},
		{
			"type" : "Feature",
			"geometry" : {
				"type" : "Point",
				"coordinates" : [ 139.4923086661, 35.404884703 ]
			},
			"properties" : {
				"高さ" : "8.2",
				"行政区域" : "14116",
				"名称" : "泉が丘中学校",
				"住所" : "神奈川県横浜市泉区和泉町2221",
				"施設の種類" : "避難所",
				"収容人数" : null,
				"施設規模" : "5936",
				"対象とする災害の分類" : "指定なし",
				"レベル" : "1"
			}
		},
		{
			"type" : "Feature",
			"geometry" : {
				"type" : "Point",
				"coordinates" : [ 139.5081967094, 35.4105496905 ]
			},
			"properties" : {
				"高さ" : "11",
				"行政区域" : "14116",
				"名称" : "中田小学校",
				"住所" : "神奈川県横浜市泉区中田南4-4-1",
				"施設の種類" : "避難所",
				"収容人数" : null,
				"施設規模" : "6332",
				"対象とする災害の分類" : "指定なし",
				"レベル" : "1"
			}
		},
		{
			"type" : "Feature",
			"geometry" : {
				"type" : "Point",
				"coordinates" : [ 139.5054877444, 35.4145597661 ]
			},
			"properties" : {
				"高さ" : "15.5",
				"行政区域" : "14116",
				"名称" : "中田中学校",
				"住所" : "神奈川県横浜市泉区中田北2-20-l",
				"施設の種類" : "避難所",
				"収容人数" : null,
				"施設規模" : "6114",
				"対象とする災害の分類" : "地震災害",
				"レベル" : "1"
			}
		},
		{
			"type" : "Feature",
			"geometry" : {
				"type" : "Point",
				"coordinates" : [ 139.4911105022, 35.4158580574 ]
			},
			"properties" : {
				"高さ" : "14.8",
				"行政区域" : "14116",
				"名称" : "中和田小学校",
				"住所" : "神奈川県横浜市泉区和泉町3721",
				"施設の種類" : "避難所",
				"収容人数" : null,
				"施設規模" : "5594",
				"対象とする災害の分類" : "指定なし",
				"レベル" : "1"
			}
		},
		{
			"type" : "Feature",
			"geometry" : {
				"type" : "Point",
				"coordinates" : [ 139.4982257468, 35.4159936729 ]
			},
			"properties" : {
				"高さ" : "14.8",
				"行政区域" : "14116",
				"名称" : "中和田中学校",
				"住所" : "神奈川県横浜市泉区和泉町4062",
				"施設の種類" : "避難所",
				"収容人数" : null,
				"施設規模" : "6754",
				"対象とする災害の分類" : "指定なし",
				"レベル" : "1"
			}
		},
		{
			"type" : "Feature",
			"geometry" : {
				"type" : "Point",
				"coordinates" : [ 139.4843926195, 35.3982457187 ]
			},
			"properties" : {
				"高さ" : "11.1",
				"行政区域" : "14116",
				"名称" : "中和田南小学校",
				"住所" : "神奈川県横浜市泉区和泉町987",
				"施設の種類" : "避難所",
				"収容人数" : null,
				"施設規模" : "4980",
				"対象とする災害の分類" : "指定なし",
				"レベル" : "1"
			}
		},
		{
			"type" : "Feature",
			"geometry" : {
				"type" : "Point",
				"coordinates" : [ 139.5118405459, 35.4175412957 ]
			},
			"properties" : {
				"高さ" : "11",
				"行政区域" : "14116",
				"名称" : "東中田小学校",
				"住所" : "神奈川県横浜市泉区中田東4-43-1",
				"施設の種類" : "避難所",
				"収容人数" : null,
				"施設規模" : "5867",
				"対象とする災害の分類" : "地震災害",
				"レベル" : "1"
			}
		},
		{
			"type" : "Feature",
			"geometry" : {
				"type" : "Point",
				"coordinates" : [ 139.4815598705, 35.4343526192 ]
			},
			"properties" : {
				"高さ" : "14.9",
				"行政区域" : "14116",
				"名称" : "飯田北小学校",
				"住所" : "神奈川県横浜市泉区上飯田町3795",
				"施設の種類" : "避難所",
				"収容人数" : null,
				"施設規模" : "4946",
				"対象とする災害の分類" : "指定なし",
				"レベル" : "1"
			}
		},
		{
			"type" : "Feature",
			"geometry" : {
				"type" : "Point",
				"coordinates" : [ 139.5211397512, 35.4153546777 ]
			},
			"properties" : {
				"高さ" : "14.6",
				"行政区域" : "14116",
				"名称" : "領家中学校",
				"住所" : "神奈川県横浜市泉区領家4-3-l",
				"施設の種類" : "避難所",
				"収容人数" : null,
				"施設規模" : "5443",
				"対象とする災害の分類" : "地震災害",
				"レベル" : "1"
			}
		},
		{
			"type" : "Feature",
			"geometry" : {
				"type" : "Point",
				"coordinates" : [ 139.5263349642, 35.4434356082 ]
			},
			"properties" : {
				"高さ" : "11.1",
				"行政区域" : "14116",
				"名称" : "緑園東小学校",
				"住所" : "神奈川県横浜市泉区緑園5-28",
				"施設の種類" : "避難所",
				"収容人数" : null,
				"施設規模" : "5820",
				"対象とする災害の分類" : "地震災害",
				"レベル" : "1"
			}
		},
		{
			"type" : "Feature",
			"geometry" : {
				"type" : "Point",
				"coordinates" : [ 139.5177799391, 35.4409356129 ]
			},
			"properties" : {
				"高さ" : "14.9",
				"行政区域" : "14116",
				"名称" : "緑園西小学校",
				"住所" : "神奈川県横浜市泉区緑園3-39",
				"施設の種類" : "避難所",
				"収容人数" : null,
				"施設規模" : "5952",
				"対象とする災害の分類" : "指定なし",
				"レベル" : "1"
			}
		},
		{
			"type" : "Feature",
			"geometry" : {
				"type" : "Point",
				"coordinates" : [ 139.4963336347, 35.4228218974 ]
			},
			"properties" : {
				"高さ" : "15.2",
				"行政区域" : "14116",
				"名称" : "和泉小学校",
				"住所" : "神奈川県横浜市泉区和泉町4320",
				"施設の種類" : "避難所",
				"収容人数" : null,
				"施設規模" : "4811",
				"対象とする災害の分類" : "指定なし",
				"レベル" : "1"
			}
		}
	]
}