{
	"type" : "FeatureCollection",
	"name" : "14111_yokohama-shi_konan-ku_station",
	"features" : [
		{
			"type" : "Feature",
			"geometry" : {
				"type" : "Point",
				"coordinates" : [ 139.5912233491, 35.4012331687 ]
			},
			"properties" : {
				"駅名" : "港南中央駅",
				"高さ" : "0",
				"鉄道区分" : "普通鉄道",
				"事業者種別" : "公営鉄道",
				"路線名" : "1号線",
				"運営会社" : "横浜市"
			}
		},
		{
			"type" : "Feature",
			"geometry" : {
				"type" : "Point",
				"coordinates" : [ 139.5959835942, 35.4086775466 ]
			},
			"properties" : {
				"駅名" : "上大岡駅",
				"高さ" : "0",
				"鉄道区分" : "普通鉄道",
				"事業者種別" : "公営鉄道",
				"路線名" : "1号線",
				"運営会社" : "横浜市"
			}
		},
		{
			"type" : "Feature",
			"geometry" : {
				"type" : "Point",
				"coordinates" : [ 139.5727983525, 35.4013731697 ]
			},
			"properties" : {
				"駅名" : "上永谷駅",
				"高さ" : "0",
				"鉄道区分" : "普通鉄道",
				"事業者種別" : "公営鉄道",
				"路線名" : "1号線",
				"運営会社" : "横浜市"
			}
		},
		{
			"type" : "Feature",
			"geometry" : {
				"type" : "Point",
				"coordinates" : [ 139.5590533498, 35.4027631718 ]
			},
			"properties" : {
				"駅名" : "下永谷駅",
				"高さ" : "0",
				"鉄道区分" : "普通鉄道",
				"事業者種別" : "公営鉄道",
				"路線名" : "1号線",
				"運営会社" : "横浜市"
			}
		},
		{
			"type" : "Feature",
			"geometry" : {
				"type" : "Point",
				"coordinates" : [ 139.5966183544, 35.4093481668 ]
			},
			"properties" : {
				"駅名" : "上大岡駅",
				"高さ" : "59.6",
				"鉄道区分" : "普通鉄道",
				"事業者種別" : "民営鉄道",
				"路線名" : "本線",
				"運営会社" : "京浜急行電鉄"
			}
		},
		{
			"type" : "Feature",
			"geometry" : {
				"type" : "Point",
				"coordinates" : [ 139.5766372982, 35.3752989264 ]
			},
			"properties" : {
				"駅名" : "港南台駅",
				"高さ" : "7.3",
				"鉄道区分" : "普通鉄道JR",
				"事業者種別" : "JR在来線",
				"路線名" : "根岸線",
				"運営会社" : "東日本旅客鉄道"
			}
		}
	]
}