{
	"type" : "FeatureCollection",
	"name" : "14115_yokohama-shi_sakae-ku_station",
	"features" : [
		{
			"type" : "Feature",
			"geometry" : {
				"type" : "Point",
				"coordinates" : [ 139.5316263212, 35.35479656 ]
			},
			"properties" : {
				"駅名" : "大船駅",
				"高さ" : "5.5",
				"鉄道区分" : "普通鉄道JR",
				"事業者種別" : "JR在来線",
				"路線名" : "横須賀線",
				"運営会社" : "東日本旅客鉄道"
			}
		},
		{
			"type" : "Feature",
			"geometry" : {
				"type" : "Point",
				"coordinates" : [ 139.5501209596, 35.3678891061 ]
			},
			"properties" : {
				"駅名" : "本郷台駅",
				"高さ" : "6.2",
				"鉄道区分" : "普通鉄道JR",
				"事業者種別" : "JR在来線",
				"路線名" : "根岸線",
				"運営会社" : "東日本旅客鉄道"
			}
		},
		{
			"type" : "Feature",
			"geometry" : {
				"type" : "Point",
				"coordinates" : [ 139.5318224478, 35.3548731966 ]
			},
			"properties" : {
				"駅名" : "大船駅",
				"高さ" : "5.4",
				"鉄道区分" : "普通鉄道JR",
				"事業者種別" : "JR在来線",
				"路線名" : "根岸線",
				"運営会社" : "東日本旅客鉄道"
			}
		},
		{
			"type" : "Feature",
			"geometry" : {
				"type" : "Point",
				"coordinates" : [ 139.5314042178, 35.354775509 ]
			},
			"properties" : {
				"駅名" : "大船駅",
				"高さ" : "5.6",
				"鉄道区分" : "普通鉄道JR",
				"事業者種別" : "JR在来線",
				"路線名" : "東海道線",
				"運営会社" : "東日本旅客鉄道"
			}
		}
	]
}