{
	"type" : "FeatureCollection",
	"name" : "14112_yokohama-shi_asahi-ku_shelter",
	"features" : [
		{
			"type" : "Feature",
			"geometry" : {
				"type" : "Point",
				"coordinates" : [ 139.5594693097, 35.4843465277 ]
			},
			"properties" : {
				"高さ" : "14.6",
				"行政区域" : "14106",
				"名称" : "新井中学校",
				"住所" : "神奈川県横浜市保土ヶ谷区新井町43-7",
				"施設の種類" : "避難所",
				"収容人数" : null,
				"施設規模" : "4488",
				"対象とする災害の分類" : "地震災害",
				"レベル" : "1"
			}
		},
		{
			"type" : "Feature",
			"geometry" : {
				"type" : "Point",
				"coordinates" : [ 139.5229180596, 35.4567945783 ]
			},
			"properties" : {
				"高さ" : "15.2",
				"行政区域" : "14112",
				"名称" : "さちが丘小学校",
				"住所" : "神奈川県横浜市旭区さちが丘110-1",
				"施設の種類" : "避難所",
				"収容人数" : null,
				"施設規模" : "6536",
				"対象とする災害の分類" : "地震災害",
				"レベル" : "1"
			}
		},
		{
			"type" : "Feature",
			"geometry" : {
				"type" : "Point",
				"coordinates" : [ 139.5308324041, 35.5037054965 ]
			},
			"properties" : {
				"高さ" : "16.7",
				"行政区域" : "14112",
				"名称" : "ひかりが丘小学校",
				"住所" : "神奈川県横浜市旭区上白根町1306-14",
				"施設の種類" : "避難所",
				"収容人数" : null,
				"施設規模" : "5674",
				"対象とする災害の分類" : "地震災害",
				"レベル" : "1"
			}
		},
		{
			"type" : "Feature",
			"geometry" : {
				"type" : "Point",
				"coordinates" : [ 139.5179731807, 35.4741815418 ]
			},
			"properties" : {
				"高さ" : "15.2",
				"行政区域" : "14112",
				"名称" : "旭中学校",
				"住所" : "神奈川県横浜市旭区今宿2-40-1",
				"施設の種類" : "避難所",
				"収容人数" : null,
				"施設規模" : "4781",
				"対象とする災害の分類" : "地震災害",
				"レベル" : "1"
			}
		},
		{
			"type" : "Feature",
			"geometry" : {
				"type" : "Point",
				"coordinates" : [ 139.5371103555, 35.4955395118 ]
			},
			"properties" : {
				"高さ" : "14.4",
				"行政区域" : "14112",
				"名称" : "旭北中学校",
				"住所" : "神奈川県横浜市旭区上白根2-47-1",
				"施設の種類" : "避難所",
				"収容人数" : null,
				"施設規模" : "6268",
				"対象とする災害の分類" : "地震災害",
				"レベル" : "1"
			}
		},
		{
			"type" : "Feature",
			"geometry" : {
				"type" : "Point",
				"coordinates" : [ 139.5124740679, 35.4590715718 ]
			},
			"properties" : {
				"高さ" : "14.6",
				"行政区域" : "14112",
				"名称" : "希望ヶ丘小学校",
				"住所" : "神奈川県横浜市旭区中希望ヶ丘124",
				"施設の種類" : "避難所",
				"収容人数" : null,
				"施設規模" : "5495",
				"対象とする災害の分類" : "地震災害",
				"レベル" : "1"
			}
		},
		{
			"type" : "Feature",
			"geometry" : {
				"type" : "Point",
				"coordinates" : [ 139.4931133672, 35.5050644713 ]
			},
			"properties" : {
				"高さ" : "10.5",
				"行政区域" : "14112",
				"名称" : "旧若葉台西小学校",
				"住所" : "神奈川県横浜市旭区若葉台4-35-1",
				"施設の種類" : "避難所",
				"収容人数" : null,
				"施設規模" : "5267",
				"対象とする災害の分類" : "地震災害",
				"レベル" : "1"
			}
		},
		{
			"type" : "Feature",
			"geometry" : {
				"type" : "Point",
				"coordinates" : [ 139.5023353624, 35.5029264824 ]
			},
			"properties" : {
				"高さ" : "11.5",
				"行政区域" : "14112",
				"名称" : "旧若葉台東小学校",
				"住所" : "神奈川県横浜市旭区若葉台2-1-1",
				"施設の種類" : "避難所",
				"収容人数" : null,
				"施設規模" : "7131",
				"対象とする災害の分類" : "地震災害",
				"レベル" : "1"
			}
		},
		{
			"type" : "Feature",
			"geometry" : {
				"type" : "Point",
				"coordinates" : [ 139.5364450171, 35.4842233284 ]
			},
			"properties" : {
				"高さ" : "10.9",
				"行政区域" : "14112",
				"名称" : "今宿小学校",
				"住所" : "神奈川県横浜市旭区今宿東町829",
				"施設の種類" : "避難所",
				"収容人数" : null,
				"施設規模" : "5571",
				"対象とする災害の分類" : "地震災害",
				"レベル" : "1"
			}
		},
		{
			"type" : "Feature",
			"geometry" : {
				"type" : "Point",
				"coordinates" : [ 139.5368467178, 35.4847958984 ]
			},
			"properties" : {
				"高さ" : "14.4",
				"行政区域" : "14112",
				"名称" : "今宿中学校",
				"住所" : "神奈川県横浜市旭区今宿東町825",
				"施設の種類" : "避難所",
				"収容人数" : null,
				"施設規模" : "6244",
				"対象とする災害の分類" : "地震災害",
				"レベル" : "1"
			}
		},
		{
			"type" : "Feature",
			"geometry" : {
				"type" : "Point",
				"coordinates" : [ 139.5291662301, 35.4792635356 ]
			},
			"properties" : {
				"高さ" : "7.7",
				"行政区域" : "14112",
				"名称" : "今宿南小学校",
				"住所" : "神奈川県横浜市旭区今宿南町1879-2",
				"施設の種類" : "避難所",
				"収容人数" : null,
				"施設規模" : "5183",
				"対象とする災害の分類" : "指定なし",
				"レベル" : "1"
			}
		},
		{
			"type" : "Feature",
			"geometry" : {
				"type" : "Point",
				"coordinates" : [ 139.5538871297, 35.4617945654 ]
			},
			"properties" : {
				"高さ" : "4.1",
				"行政区域" : "14112",
				"名称" : "左近山小高小学校",
				"住所" : "神奈川県横浜市旭区小高町55-2",
				"施設の種類" : "避難所",
				"収容人数" : null,
				"施設規模" : "4832",
				"対象とする災害の分類" : "地震災害",
				"レベル" : "1"
			}
		},
		{
			"type" : "Feature",
			"geometry" : {
				"type" : "Point",
				"coordinates" : [ 139.5498004058, 35.4623968056 ]
			},
			"properties" : {
				"高さ" : "14.5",
				"行政区域" : "14112",
				"名称" : "左近山第一小学校",
				"住所" : "神奈川県横浜市旭区左近山1997-2",
				"施設の種類" : "避難所",
				"収容人数" : null,
				"施設規模" : "6103",
				"対象とする災害の分類" : "地震災害",
				"レベル" : "1"
			}
		},
		{
			"type" : "Feature",
			"geometry" : {
				"type" : "Point",
				"coordinates" : [ 139.556304097, 35.4571005726 ]
			},
			"properties" : {
				"高さ" : "14.5",
				"行政区域" : "14112",
				"名称" : "左近山第二小学校",
				"住所" : "神奈川県横浜市旭区左近山1011",
				"施設の種類" : "避難所",
				"収容人数" : null,
				"施設規模" : "5657",
				"対象とする災害の分類" : "地震災害",
				"レベル" : "1"
			}
		},
		{
			"type" : "Feature",
			"geometry" : {
				"type" : "Point",
				"coordinates" : [ 139.510325354, 35.4734765395 ]
			},
			"properties" : {
				"高さ" : "14.5",
				"行政区域" : "14112",
				"名称" : "笹野台小学校",
				"住所" : "神奈川県横浜市旭区笹野台4-48-1",
				"施設の種類" : "避難所",
				"収容人数" : null,
				"施設規模" : "4457",
				"対象とする災害の分類" : "地震災害",
				"レベル" : "1"
			}
		},
		{
			"type" : "Feature",
			"geometry" : {
				"type" : "Point",
				"coordinates" : [ 139.5588591361, 35.4616275642 ]
			},
			"properties" : {
				"高さ" : "14.5",
				"行政区域" : "14112",
				"名称" : "市沢小学校",
				"住所" : "神奈川県横浜市旭区市沢町781",
				"施設の種類" : "避難所",
				"収容人数" : null,
				"施設規模" : "3711",
				"対象とする災害の分類" : "地震災害",
				"レベル" : "1"
			}
		},
		{
			"type" : "Feature",
			"geometry" : {
				"type" : "Point",
				"coordinates" : [ 139.5007174543, 35.5082836794 ]
			},
			"properties" : {
				"高さ" : "11.3",
				"行政区域" : "14112",
				"名称" : "若葉台小学校",
				"住所" : "神奈川県横浜市旭区若葉台2-14-1",
				"施設の種類" : "避難所",
				"収容人数" : null,
				"施設規模" : "5304",
				"対象とする災害の分類" : "地震災害",
				"レベル" : "3"
			}
		},
		{
			"type" : "Feature",
			"geometry" : {
				"type" : "Point",
				"coordinates" : [ 139.5029183336, 35.4986494911 ]
			},
			"properties" : {
				"高さ" : "14.8",
				"行政区域" : "14112",
				"名称" : "上川井小学校",
				"住所" : "神奈川県横浜市旭区上川井町2913",
				"施設の種類" : "避難所",
				"収容人数" : null,
				"施設規模" : "4198",
				"対象とする災害の分類" : "指定なし",
				"レベル" : "1"
			}
		},
		{
			"type" : "Feature",
			"geometry" : {
				"type" : "Point",
				"coordinates" : [ 139.5394561097, 35.4955369684 ]
			},
			"properties" : {
				"高さ" : "15.3",
				"行政区域" : "14112",
				"名称" : "上白根小学校",
				"住所" : "神奈川県横浜市旭区上白根2-45-1",
				"施設の種類" : "避難所",
				"収容人数" : null,
				"施設規模" : "5512",
				"対象とする災害の分類" : "地震災害",
				"レベル" : "1"
			}
		},
		{
			"type" : "Feature",
			"geometry" : {
				"type" : "Point",
				"coordinates" : [ 139.5206673231, 35.4939285081 ]
			},
			"properties" : {
				"高さ" : "14.6",
				"行政区域" : "14112",
				"名称" : "川井小学校",
				"住所" : "神奈川県横浜市旭区川井宿町32-2",
				"施設の種類" : "避難所",
				"収容人数" : null,
				"施設規模" : "4134",
				"対象とする災害の分類" : "地震災害",
				"レベル" : "1"
			}
		},
		{
			"type" : "Feature",
			"geometry" : {
				"type" : "Point",
				"coordinates" : [ 139.5164190126, 35.4512955892 ]
			},
			"properties" : {
				"高さ" : "16",
				"行政区域" : "14112",
				"名称" : "善部小学校",
				"住所" : "神奈川県横浜市旭区善部町4-1",
				"施設の種類" : "避難所",
				"収容人数" : null,
				"施設規模" : "4274",
				"対象とする災害の分類" : "地震災害",
				"レベル" : "1"
			}
		},
		{
			"type" : "Feature",
			"geometry" : {
				"type" : "Point",
				"coordinates" : [ 139.5317701988, 35.496551 ]
			},
			"properties" : {
				"高さ" : "14.6",
				"行政区域" : "14112",
				"名称" : "大池小学校",
				"住所" : "神奈川県横浜市旭区上白根町901",
				"施設の種類" : "避難所",
				"収容人数" : null,
				"施設規模" : "6546",
				"対象とする災害の分類" : "地震災害",
				"レベル" : "1"
			}
		},
		{
			"type" : "Feature",
			"geometry" : {
				"type" : "Point",
				"coordinates" : [ 139.5222941892, 35.4746185422 ]
			},
			"properties" : {
				"高さ" : "14.5",
				"行政区域" : "14112",
				"名称" : "中沢小学校",
				"住所" : "神奈川県横浜市旭区中沢3-25-1",
				"施設の種類" : "避難所",
				"収容人数" : null,
				"施設規模" : "4951",
				"対象とする災害の分類" : "地震災害",
				"レベル" : "1"
			}
		},
		{
			"type" : "Feature",
			"geometry" : {
				"type" : "Point",
				"coordinates" : [ 139.5227341249, 35.4656785599 ]
			},
			"properties" : {
				"高さ" : "16.8",
				"行政区域" : "14112",
				"名称" : "中尾小学校",
				"住所" : "神奈川県横浜市旭区中尾1-8-1",
				"施設の種類" : "避難所",
				"収容人数" : null,
				"施設規模" : "4734",
				"対象とする災害の分類" : "地震災害",
				"レベル" : "1"
			}
		},
		{
			"type" : "Feature",
			"geometry" : {
				"type" : "Point",
				"coordinates" : [ 139.5520654785, 35.4719379158 ]
			},
			"properties" : {
				"高さ" : "11.4",
				"行政区域" : "14112",
				"名称" : "鶴ヶ峯小学校",
				"住所" : "神奈川県横浜市旭区鶴ケ峰1-42",
				"施設の種類" : "避難所",
				"収容人数" : null,
				"施設規模" : "5141",
				"対象とする災害の分類" : "指定なし",
				"レベル" : "1"
			}
		},
		{
			"type" : "Feature",
			"geometry" : {
				"type" : "Point",
				"coordinates" : [ 139.5426092635, 35.4815965328 ]
			},
			"properties" : {
				"高さ" : "11",
				"行政区域" : "14112",
				"名称" : "鶴ヶ峯中学校",
				"住所" : "神奈川県横浜市旭区鶴ケ峰本町3-28-1",
				"施設の種類" : "避難所",
				"収容人数" : null,
				"施設規模" : "6977",
				"対象とする災害の分類" : "指定なし",
				"レベル" : "1"
			}
		},
		{
			"type" : "Feature",
			"geometry" : {
				"type" : "Point",
				"coordinates" : [ 139.5212502618, 35.4851525227 ]
			},
			"properties" : {
				"高さ" : "11",
				"行政区域" : "14112",
				"名称" : "都岡小学校",
				"住所" : "神奈川県横浜市旭区都岡町4-8",
				"施設の種類" : "避難所",
				"収容人数" : null,
				"施設規模" : "4765",
				"対象とする災害の分類" : "地震災害",
				"レベル" : "1"
			}
		},
		{
			"type" : "Feature",
			"geometry" : {
				"type" : "Point",
				"coordinates" : [ 139.5115566126, 35.4644822689 ]
			},
			"properties" : {
				"高さ" : "14.6",
				"行政区域" : "14112",
				"名称" : "東希望が丘小学校",
				"住所" : "神奈川県横浜市旭区東希望ヶ丘155",
				"施設の種類" : "避難所",
				"収容人数" : null,
				"施設規模" : "4517",
				"対象とする災害の分類" : "地震災害",
				"レベル" : "1"
			}
		},
		{
			"type" : "Feature",
			"geometry" : {
				"type" : "Point",
				"coordinates" : [ 139.5094750491, 35.4569055758 ]
			},
			"properties" : {
				"高さ" : "14.8",
				"行政区域" : "14112",
				"名称" : "南希望が丘中学校",
				"住所" : "神奈川県横浜市旭区南希望ヶ丘108-8",
				"施設の種類" : "避難所",
				"収容人数" : null,
				"施設規模" : "5335",
				"対象とする災害の分類" : "地震災害",
				"レベル" : "1"
			}
		},
		{
			"type" : "Feature",
			"geometry" : {
				"type" : "Point",
				"coordinates" : [ 139.5387500868, 35.4584055729 ]
			},
			"properties" : {
				"高さ" : "7.7",
				"行政区域" : "14112",
				"名称" : "南本宿小学校",
				"住所" : "神奈川県横浜市旭区南本宿町79",
				"施設の種類" : "避難所",
				"収容人数" : null,
				"施設規模" : "3814",
				"対象とする災害の分類" : "地震災害",
				"レベル" : "1"
			}
		},
		{
			"type" : "Feature",
			"geometry" : {
				"type" : "Point",
				"coordinates" : [ 139.5291391169, 35.4638215644 ]
			},
			"properties" : {
				"高さ" : "14.9",
				"行政区域" : "14112",
				"名称" : "二俣川小学校",
				"住所" : "神奈川県横浜市旭区二俣川1-33",
				"施設の種類" : "避難所",
				"収容人数" : null,
				"施設規模" : "4988",
				"対象とする災害の分類" : "地震災害",
				"レベル" : "1"
			}
		},
		{
			"type" : "Feature",
			"geometry" : {
				"type" : "Point",
				"coordinates" : [ 139.5443313105, 35.4877905237 ]
			},
			"properties" : {
				"高さ" : "11.1",
				"行政区域" : "14112",
				"名称" : "白根小学校",
				"住所" : "神奈川県横浜市旭区中白根1-9-1",
				"施設の種類" : "避難所",
				"収容人数" : null,
				"施設規模" : "5491",
				"対象とする災害の分類" : "地震災害",
				"レベル" : "1"
			}
		},
		{
			"type" : "Feature",
			"geometry" : {
				"type" : "Point",
				"coordinates" : [ 139.5501367296, 35.483426907 ]
			},
			"properties" : {
				"高さ" : "15.4",
				"行政区域" : "14112",
				"名称" : "不動丸小学校",
				"住所" : "神奈川県横浜市旭区白根3-33-1",
				"施設の種類" : "避難所",
				"収容人数" : null,
				"施設規模" : "5504",
				"対象とする災害の分類" : "指定なし",
				"レベル" : "1"
			}
		},
		{
			"type" : "Feature",
			"geometry" : {
				"type" : "Point",
				"coordinates" : [ 139.5445824673, 35.4691400864 ]
			},
			"properties" : {
				"高さ" : "14.7",
				"行政区域" : "14112",
				"名称" : "本宿小学校",
				"住所" : "神奈川県横浜市旭区本宿町16",
				"施設の種類" : "避難所",
				"収容人数" : null,
				"施設規模" : "5088",
				"対象とする災害の分類" : "指定なし",
				"レベル" : "1"
			}
		},
		{
			"type" : "Feature",
			"geometry" : {
				"type" : "Point",
				"coordinates" : [ 139.5475261416, 35.4644325625 ]
			},
			"properties" : {
				"高さ" : "14.5",
				"行政区域" : "14112",
				"名称" : "本宿中学校",
				"住所" : "神奈川県横浜市旭区川島町1979",
				"施設の種類" : "避難所",
				"収容人数" : null,
				"施設規模" : "5838",
				"対象とする災害の分類" : "地震災害",
				"レベル" : "1"
			}
		},
		{
			"type" : "Feature",
			"geometry" : {
				"type" : "Point",
				"coordinates" : [ 139.533945038, 35.4527395861 ]
			},
			"properties" : {
				"高さ" : "14.8",
				"行政区域" : "14112",
				"名称" : "万騎が原小学校",
				"住所" : "神奈川県横浜市旭区大池町66",
				"施設の種類" : "避難所",
				"収容人数" : null,
				"施設規模" : "4424",
				"対象とする災害の分類" : "地震災害",
				"レベル" : "1"
			}
		},
		{
			"type" : "Feature",
			"geometry" : {
				"type" : "Point",
				"coordinates" : [ 139.5358330785, 35.4577385754 ]
			},
			"properties" : {
				"高さ" : "16.4",
				"行政区域" : "14112",
				"名称" : "万騎が原中学校",
				"住所" : "神奈川県横浜市旭区万騎が原31",
				"施設の種類" : "避難所",
				"収容人数" : null,
				"施設規模" : "6936",
				"対象とする災害の分類" : "地震災害",
				"レベル" : "1"
			}
		}
	]
}